;Name;Country;City;Crest;latitude;longitude
574;1. FC Heidenheim 1846;Germany;Heidenheim;https://static.flashscore.com/res/image/data/pEIoHCil-ncNaLxYl.png;48.668611;10.139444
575;1. FC Kaiserslautern;Germany;Kaiserslautern;https://static.flashscore.com/res/image/data/bR7hiYFG-xW7EDdNP.png;49.434722;7.776667
1302;1. FC Košice;Slovakia;Košice;https://tmssl.akamaized.net//images/wappen/normquad/17629.png?lm=1418318786;48.696667;21.245
576;1. FC Köln;Germany;Köln;https://static.flashscore.com/res/image/data/8hxnRHEa-86lnAaq9.png;50.933497;6.874997
362;1. FC Lokomotive Leipzig;East Germany;Leipzig;https://img.uefa.com/imgml/TP/teams/logos/100x100/50105.png;51.302778;12.419167
363;1. FC Magdeburg;East Germany;Magdeburg;https://img.uefa.com/imgml/TP/teams/logos/100x100/52761.png;52.125556;11.670833
578;1. FC Nürnberg;Germany;Nürnberg;https://img.uefa.com/imgml/TP/teams/logos/100x100/50108.png;49.426111;11.125833
579;1. FC Saarbrücken;Germany;Saarbrücken;https://static.flashscore.com/res/image/data/O6Ew3GBr-rcKPySRa.png;49.247963;6.983933
288;1. FC Slovácko;Czech Republic;Uherské Hradiště;https://img.uefa.com/imgml/TP/teams/logos/100x100/75794.png;49.065556;17.471389
1303;1. FC Tatran Prešov;Slovakia;Prešov;https://img.uefa.com/imgml/TP/teams/logos/100x100/59335.png;49.006756;21.234564
301;1. FK Drnovice;Czech Republic;Drnovice;https://img.uefa.com/imgml/TP/teams/logos/100x100/64386.png;49.2755817998786;16.953746950646
303;1. FK Příbram;Czech Republic;Příbram;https://img.uefa.com/imgml/TP/teams/logos/100x100/50155.png;49.676944;13.976389
581;1. FSV Mainz 05;Germany;Mainz;https://static.flashscore.com/res/image/data/nwmyWZVg-bsE5kOg9.png;49.984167;8.224167
61;1. SC Wiener Neustadt;Austria;Wien;https://static.flashscore.com/res/image/data/ER9vEPYA-YPJg8PPF.png;47.822778;16.255278
471;AC Allianssi;Finland;Vantaa;https://img.uefa.com/imgml/TP/teams/logos/100x100/80034.png;60.2621;24.838183
325;AC Horsens;Denmark;Horsens;https://img.uefa.com/imgml/TP/teams/logos/100x100/89695.png;55.8715903068131;9.85765393997957
1230;AC Libertas;San Marino;Borgo Maggiore;https://tmssl.akamaized.net//images/wappen/normquad/10616.png?lm=1478598472;43.9351;12.4518
1231;AC Virtus;San Marino;Acquaviva;https://static.flashscore.com/res/image/data/AepzL9Ar-KEDg48Us.png;43.9457;12.418467
941;ADO Den Haag;Netherlands;Den Haag;https://img.uefa.com/imgml/TP/teams/logos/100x100/52982.png;52.0628;4.3831
627;AE Larissa;Greece;Larissa;https://img.uefa.com/imgml/TP/teams/logos/100x100/50053.png;39.61561;22.39949
628;AEK Athens;Greece;Athens;https://img.uefa.com/imgml/TP/teams/logos/100x100/50129.png;38.036944;23.741389
267;AEK Larnaca;Cyprus;Larnaca;https://img.uefa.com/imgml/TP/teams/logos/100x100/54191.png;34.926389;33.597778
269;AEL Limassol;Cyprus;Limassol;https://static.flashscore.com/res/image/data/zgcaXmf5-jZcv4JNH.png;34.6937285218077;32.939201126856
630;AGS Kastoria;Greece;Kastoria;https://static.flashscore.com/res/image/data/Gx9iYiYg-Otyz1q6A.png;40.530083;21.258096
1390;AIK Stockholm;Sweden;Stockholm;https://img.uefa.com/imgml/TP/teams/logos/100x100/52341.png;59.3725;18.0
272;APOEL;Cyprus;Nicosia;https://img.uefa.com/imgml/TP/teams/logos/100x100/50118.png;35.114528;33.362833
275;APOP Kinyras Peyias;Cyprus;Peyia;https://img.uefa.com/imgml/TP/teams/logos/100x100/89689.png;34.874722;32.381111
1306;AS Trenčín;Slovakia;Trenčín;https://img.uefa.com/imgml/TP/teams/logos/100x100/64315.png;48.89868;18.044738
1157;ASA Târgu Mureș;Romania;Târgu Mureș;https://img.uefa.com/imgml/TP/teams/logos/100x100/2602460.png;46.549611;24.545833
943;AZ Alkmaar;Netherlands;Alkmaar;https://static.flashscore.com/res/image/data/8ITBcOkl-4vob7cTR.png;52.6129468420801;4.74195124039859
322;Aalborg BK;Denmark;Aalborg;https://img.uefa.com/imgml/TP/teams/logos/100x100/54186.png;57.0515;9.8991
1018;Aalesunds FK;Norway;Ålesund;https://img.uefa.com/imgml/TP/teams/logos/100x100/82819.png;62.4698806540986;6.18742509827094
323;Aarhus GF;Denmark;Aarhus;https://img.uefa.com/imgml/TP/teams/logos/100x100/50019.png;56.131944;10.196667
1241;Aberdeen;Scotland;Aberdeen;https://static.flashscore.com/res/image/data/l0GRJJh5-SQqfdcHF.png;57.159167;-2.088889
1506;Aberystwyth Town;Wales;Aberystwyth;https://img.uefa.com/imgml/TP/teams/logos/100x100/64277.png;52.410414;-4.080744
470;Abo IFK Turku;Finland;Turku;https://tmssl.akamaized.net//images/wappen/normquad/23195.png?lm=1459583740;60.4430097282745;22.2659909398936
1094;Académica de Coimbra;Portugal;Coimbra;https://img.uefa.com/imgml/TP/teams/logos/100x100/64232.png;40.203127228882;-8.40751319997815
1437;Adana Demirspor;Turkey;Adana;https://static.flashscore.com/res/image/data/xGflc2jl-lpWzj2I5.png;37.0633153141697;35.3752402286923
1438;Adanaspor;Turkey;Adana;https://img.uefa.com/imgml/TP/teams/logos/100x100/53053.png;37.0637861835996;35.3750229697775
62;Admira Wacker Mödling;Austria;Mödling;https://img.uefa.com/imgml/TP/teams/logos/100x100/69180.png;48.0974744008321;16.3115437078386
81;Admira Wien;Austria;Wien;https://tmssl.akamaized.net//images/wappen/normquad/26752.png?lm=1591953139;48.0971161286907;16.311522250168
1507;Afan Lido;Wales;Aberavon;https://img.uefa.com/imgml/TP/teams/logos/100x100/59873.png;51.591667;-3.809167
1508;Airbus UK Broughton;Wales;Broughton;https://img.uefa.com/imgml/TP/teams/logos/100x100/88139.png;53.171492;-2.981519
1243;Airdrieonians;Scotland;Airdrie;https://tmssl.akamaized.net//images/wappen/normquad/2802.png?lm=1552848823;55.859722;-3.959722
942;Ajax;Netherlands;Amsterdam;https://static.flashscore.com/res/image/data/dlKzA3il-tSCQr0DR.png;52.314167;4.941944
972;Akademija Pandev;North Macedonia;Strumica;https://img.uefa.com/imgml/TP/teams/logos/100x100/2608458.png;41.4375;22.768889
209;Akademik Sofia;Bulgaria;Sofia;https://img.uefa.com/imgml/TP/teams/logos/100x100/63051.png;42.685278;23.368611
324;Akademisk Boldklub;Denmark;København;https://img.uefa.com/imgml/TP/teams/logos/100x100/64137.png;55.7313640440992;12.4986755358805
1439;Akhisarspor;Turkey;Akhisar;https://img.uefa.com/imgml/TP/teams/logos/100x100/2604479.png;38.921028;27.811722
1226;Akhmat Grozny;Russia;Grozny;https://img.uefa.com/imgml/TP/teams/logos/100x100/86795.png;43.323176;45.745252
771;Aktobe;Kazakhstan;Aktobe;https://img.uefa.com/imgml/TP/teams/logos/100x100/79973.png;50.291389;57.160278
1203;Alania;Russia;Vladikavkaz;https://img.uefa.com/imgml/TP/teams/logos/100x100/59043.png;43.023056;44.695
1440;Alanyaspor;Turkey;Alanya;https://img.uefa.com/imgml/TP/teams/logos/100x100/2607117.png;36.5626;32.0792
36;Alashkert;Armenia;Yerevan;https://img.uefa.com/imgml/TP/teams/logos/100x100/2605268.png;40.154605;44.475231
8;Albpetrol Patos;Albania;Patos;https://static.flashscore.com/res/image/data/6kSN0NfM-0hNJCKlj.png;40.6839;19.6272
582;Alemania Aachen;Germany;Aachen;https://img.uefa.com/imgml/TP/teams/logos/100x100/86797.png;50.793333;6.097222
270;Alki Larnaca;Cyprus;Larnaca;https://img.uefa.com/imgml/TP/teams/logos/100x100/52896.png;34.925556;33.599722
857;Alliance Dudelange;Luxembourg;Dudelange;https://tmssl.akamaized.net//images/wappen/normquad/21944.png?lm=1483814058;49.483333;6.083333
774;Alma-Ata;Kazakhstan;Almaty;https://img.uefa.com/imgml/TP/teams/logos/100x100/85933.png;43.238131;76.92435
1441;Altay;Turkey;İzmir;https://img.uefa.com/imgml/TP/teams/logos/100x100/53054.png;38.437212180251;27.1507913754308
550;Ameri Tbilisi;Georgia;Tbilisi;https://img.uefa.com/imgml/TP/teams/logos/100x100/89702.png;41.8081137833331;44.8209306979765
1052;Amica Wronki;Poland;Wronki;https://img.uefa.com/imgml/TP/teams/logos/100x100/2603029.png;52.718301;16.383126
1204;Amkar Perm;Russia;Perm;https://img.uefa.com/imgml/TP/teams/logos/100x100/85938.png;57.990694;56.244636
181;Anderlecht;Belgium;Bruxelles;https://img.uefa.com/imgml/TP/teams/logos/100x100/50074.png;50.834167;4.298333
509;Angers;France;Angers;https://img.uefa.com/imgml/TP/teams/logos/100x100/64162.png;47.460458;-0.530741
510;Angoulême;France;Angoulême;https://static.flashscore.com/res/image/data/hSJIXAWg-lb3cM2d0.png;45.641894;0.176128
1466;Ankaragücü;Turkey;Ankara;https://img.uefa.com/imgml/TP/teams/logos/100x100/53059.png;39.980278;32.613889
1468;Ankaraspor;Turkey;Ankara;https://tmssl.akamaized.net//images/wappen/normquad/2944.png?lm=1727031336;39.9391965629198;32.65693648282
271;Anorthosis Famagusta;Cyprus;Famagusta;https://img.uefa.com/imgml/TP/teams/logos/100x100/52897.png;34.9375;33.620833
1442;Antalyaspor;Turkey;Antalya;https://img.uefa.com/imgml/TP/teams/logos/100x100/60532.png;36.888611;30.668889
1205;Anzhi Makhachkala;Russia;Makhachkala;https://img.uefa.com/imgml/TP/teams/logos/100x100/75050.png;42.907778;47.618333
631;Apollon Athens;Greece;Athens;https://img.uefa.com/imgml/TP/teams/logos/100x100/52947.png;38.028156;23.741033
274;Apollon Limassol;Cyprus;Limassol;https://img.uefa.com/imgml/TP/teams/logos/100x100/52741.png;34.6932869564293;32.9389505045113
9;Apolonia Fier;Albania;Fier;https://img.uefa.com/imgml/TP/teams/logos/100x100/52791.png;40.720833;19.552222
43;Araks Ararat;Armenia;Ararat;https://img.uefa.com/imgml/TP/teams/logos/100x100/64363.png;39.855;44.689167
39;Ararat Yerevan;Armenia;Yerevan;https://img.uefa.com/imgml/TP/teams/logos/100x100/59318.png;40.171944;44.525833
41;Ararat-Armenia;Armenia;Yerevan;https://img.uefa.com/imgml/TP/teams/logos/100x100/2610304.png;40.221111;44.555278
210;Arda Kardzhali;Bulgaria;Kardzhali;https://tmssl.akamaized.net//images/wappen/normquad/40604.png?lm=1721764802;41.641194;25.378056
998;Ards;Northern Ireland;Newtownards;https://img.uefa.com/imgml/TP/teams/logos/100x100/52988.png;54.651667;-5.684444
1170;Argeș Pitești;Romania;Pitești;https://img.uefa.com/imgml/TP/teams/logos/100x100/53022.png;44.960278;24.940556
863;Aris Bonnevoie;Luxembourg;Luxembourg City;https://img.uefa.com/imgml/TP/teams/logos/100x100/52310.png;49.6156;6.1097
276;Aris Limassol;Cyprus;Limassol;https://img.uefa.com/imgml/TP/teams/logos/100x100/69529.png;34.693172149045;32.9395197752724
632;Aris Thessaloniki;Greece;Thessaloniki;https://img.uefa.com/imgml/TP/teams/logos/100x100/52949.png;40.6;22.969444
1053;Arka Gdynia;Poland;Gdynia;https://static.flashscore.com/res/image/data/tdEy0jBr-SUsL3Ba2.png;54.493102;18.530983
1102;Arouca;Portugal;Arouca;https://img.uefa.com/imgml/TP/teams/logos/100x100/2602955.png;40.932998;-8.250347
391;Arsenal;England;London;https://img.uefa.com/imgml/TP/teams/logos/100x100/52280.png;51.555;-0.108611
1474;Arsenal Kyiv;Ukraine;Kyiv;https://img.uefa.com/imgml/TP/teams/logos/100x100/64313.png;50.354083;30.952167
921;Arsenal Tivat;Montenegro;Tivat;https://static.flashscore.com/res/image/data/Y35lsPEa-Aaf9ZSca.png;42.432531;18.695344
1206;Arsenal Tula;Russia;Tula;https://img.uefa.com/imgml/TP/teams/logos/100x100/2606414.png;54.174583;37.602722
1304;Artmedia Bratislava;Slovakia;Bratislava;https://img.uefa.com/imgml/TP/teams/logos/100x100/64519.png;48.119722;17.133333
721;Ashdod;Israel;Ashdod;https://img.uefa.com/imgml/TP/teams/logos/100x100/64186.png;31.810278;34.648333
772;Astana;Kazakhstan;Astana;https://img.uefa.com/imgml/TP/teams/logos/100x100/2600605.png;51.108167;71.4025
643;Asteras Tripolis;Greece;Tripolis;https://img.uefa.com/imgml/TP/teams/logos/100x100/2600293.png;37.5025;22.388611
393;Aston Villa;England;Birmingham;https://fifastatic.fifaindex.com/FIFA20/images/crest/10/light/2.png;52.509167;-1.884722
1158;Astra Giurgiu;Romania;Giurgiu;https://img.uefa.com/imgml/TP/teams/logos/100x100/69611.png;43.896111;25.981389
744;Atalanta;Italy;Bergamo;https://img.uefa.com/imgml/TP/teams/logos/100x100/52816.png;45.708889;9.680833
634;Athinaikos;Greece;Athens;https://static.flashscore.com/res/image/data/byaGlYYg-v7nuWoMl.png;37.9586;23.7693
1356;Athletic Bilbao;Spain;Bilbao;https://img.uefa.com/imgml/TP/teams/logos/100x100/50125.png;43.264284;-2.950366
1126;Athlone Town;Republic of Ireland;Athlone Town;https://img.uefa.com/imgml/TP/teams/logos/100x100/52373.png;53.4275;-7.919167
831;Atlantas Klaipėda;Lithuania;Klaipėda;https://img.uefa.com/imgml/TP/teams/logos/100x100/64489.png;55.7262;21.1096
23;Atlètic Club d'Escaldes;Andorra;Escaldes-Engordany;https://static.flashscore.com/res/image/data/4zJRM6dM-byaNU0dt.png;42.508889;1.540833
1358;Atlético Madrid;Spain;Madrid;https://img.uefa.com/imgml/TP/teams/logos/100x100/50124.png;40.401719;-3.720606
635;Atromitos;Greece;Athens;https://img.uefa.com/imgml/TP/teams/logos/100x100/84641.png;38.004722;23.689722
776;Atyrau;Kazakhstan;Atyrau;https://img.uefa.com/imgml/TP/teams/logos/100x100/79961.png;47.094085;51.908324
805;Auda;Latvia;Ķekava;https://img.uefa.com/imgml/TP/teams/logos/100x100/79556.png;56.8211785671189;24.219270978
89;Austria Kärnten;Austria;Klagenfurt;https://img.uefa.com/imgml/TP/teams/logos/100x100/79941.png;46.608889;14.278333
86;Austria Salzburg;Austria;Salzburg;https://tmssl.akamaized.net//images/wappen/normquad/11853.png?lm=1690913620;47.7915836572435;13.0142272788806
63;Austria Wien;Austria;Wien;https://img.uefa.com/imgml/TP/teams/logos/100x100/50110.png;48.162222;16.386667
508;Auxerre;France;Auxerre;https://img.uefa.com/imgml/TP/teams/logos/100x100/52269.png;47.786753;3.588664
855;Avenir Beggen;Luxembourg;Luxembourg City;https://img.uefa.com/imgml/TP/teams/logos/100x100/50090.png;49.646389;6.135278
327;B 1903;Denmark;København;https://img.uefa.com/imgml/TP/teams/logos/100x100/64138.png;55.758056;12.527222
328;B 1909;Denmark;Odense;https://tmssl.akamaized.net//images/wappen/normquad/5790.png?lm=1472939204;55.3989561059895;10.3675016321352
329;B 1913 Odense;Denmark;Odense;https://tmssl.akamaized.net//images/wappen/normquad/5791.png?lm=1458927139;55.3980665963495;10.3673299707644
330;B 93;Denmark;København;https://tmssl.akamaized.net//images/wappen/normquad/947.png?lm=1707174837;55.7041337544297;12.5750317009376
331;B1901 Nykøbing;Denmark;Nykøbing Falster;https://tmssl.akamaized.net//images/wappen/normquad/20270.png?lm=1458926443;54.772472;11.875333
455;B36 Tórshavn;Faroe Islands;Tórshavn;https://img.uefa.com/imgml/TP/teams/logos/100x100/57476.png;62.019349;-6.781139
457;B68 Toftir;Faroe Islands;Toftir;https://img.uefa.com/imgml/TP/teams/logos/100x100/59033.png;62.099722;-6.736111
458;B71 Sandur;Faroe Islands;Sandur;https://img.uefa.com/imgml/TP/teams/logos/100x100/59326.png;61.86;-6.828889
124;BATE Borisov;Belarus;Borisov;https://static.flashscore.com/res/image/data/Au2MO0Wg-KWIMc5j1.png;54.193056;28.475278
684;BFC Siófok;Hungary;Siófok;https://tmssl.akamaized.net//images/wappen/normquad/3552.png?lm=1492707158;46.909167;18.061389
332;BK Frem;Denmark;København;https://img.uefa.com/imgml/TP/teams/logos/100x100/50078.png;55.6460601690153;12.5159560091965
333;BK Fremad Amager;Denmark;København;https://tmssl.akamaized.net//images/wappen/normquad/5716.png?lm=1500672594;55.65;12.602222
1393;BK Häcken;Sweden;Göteborg;https://img.uefa.com/imgml/TP/teams/logos/100x100/69621.png;57.719167;11.930556
366;BSG Chemie Leipzig;East Germany;Leipzig;https://tmssl.akamaized.net//images/wappen/normquad/9572.png?lm=1496499113;51.358056;12.307778
367;BSG Sachsenring Zwickau;East Germany;Zwickau;https://upload.wikimedia.org/wikipedia/de/thumb/5/51/BSG_Sachsenring_Zwickau_-_1968-1989.svg/100px-BSG_Sachsenring_Zwickau_-_1968-1989.svg.png;50.728542;12.519357
368;BSG Stahl Brandenburg;East Germany;Brandenburg an der Havel;https://img.uefa.com/imgml/TP/teams/logos/100x100/52942.png;52.41325;12.500917
1510;Bala Town;Wales;Bala;https://img.uefa.com/imgml/TP/teams/logos/100x100/2600717.png;52.912222;-3.601389
793;Ballkani;Kosovo;Therandë;https://img.uefa.com/imgml/TP/teams/logos/100x100/2609552.png;42.353253;20.822536
999;Ballymena United;Northern Ireland;Ballymena;https://img.uefa.com/imgml/TP/teams/logos/100x100/52374.png;54.8701;-6.26507
879;Balzan Youth;Malta;Balzan;https://img.uefa.com/imgml/TP/teams/logos/100x100/84734.png;35.894864;14.415372
832;Banga Gargždai;Lithuania;Gargždai;https://img.uefa.com/imgml/TP/teams/logos/100x100/64348.png;55.715278;21.404444
1000;Bangor;Northern Ireland;Bangor;https://img.uefa.com/imgml/TP/teams/logos/100x100/52989.png;54.651625;-5.684475
1512;Bangor City;Wales;Bangor;https://static.flashscore.com/res/image/data/f1XNK6EG-UNZg5BP0.png;53.225556;-4.150278
291;Baník Ostrava;Czech Republic;Ostrava;https://img.uefa.com/imgml/TP/teams/logos/100x100/51886.png;49.804444;18.255833
1513;Barry Town;Wales;Barry;https://img.uefa.com/imgml/TP/teams/logos/100x100/53069.png;51.410833;-3.265278
1421;Basel;Switzerland;Basel;https://static.flashscore.com/res/image/data/zLR1KgYg-fPZDBkJI.png;47.541575;7.620181
1417;Basel XI;Switzerland;Basel;https://tmssl.akamaized.net/images/wappen/normquad/default.png?lm=1457423031;;
973;Bashkimi;North Macedonia;Kumanovo;https://img.uefa.com/imgml/TP/teams/logos/100x100/84398.png;42.142099;21.709974
537;Bastia;France;Bastia;https://img.uefa.com/imgml/TP/teams/logos/100x100/61567.png;42.6514;9.442619
584;Bayer 05 Uerdingen;Germany;Uerdingen;https://img.uefa.com/imgml/TP/teams/logos/100x100/7985.png;51.338964;6.604012
583;Bayer Leverkusen;Germany;Leverkusen;https://img.uefa.com/imgml/TP/teams/logos/100x100/50109.png;51.038256;7.002206
586;Bayern München;Germany;München;https://img.uefa.com/imgml/TP/teams/logos/100x100/50037.png;48.218775;11.624753
158;Beerschot AC;Belgium;Antwerp;https://static.flashscore.com/res/image/data/4fAdUAyB-dvLIfKqM.png;51.1849189455585;4.38239955277738
151;Beerschot VAV;Belgium;Antwerp;https://img.uefa.com/imgml/TP/teams/logos/100x100/1913.png;51.1936540230614;3.18049539707358
718;Beitar Jerusalem;Israel;Jerusalem;https://img.uefa.com/imgml/TP/teams/logos/100x100/59034.png;31.751167;35.190617
974;Belasica;North Macedonia;Sturmica;https://img.uefa.com/imgml/TP/teams/logos/100x100/64393.png;41.4462;22.637708
1095;Belenenses;Portugal;Lisbon;https://img.uefa.com/imgml/TP/teams/logos/100x100/50148.png;38.7024172076449;-9.20784517491307
1271;Belgrade XI;Serbia;Beograd;https://tmssl.akamaized.net/images/wappen/normquad/default.png?lm=1457423031;;
1415;Bellinzona;Switzerland;Bellinzona;https://img.uefa.com/imgml/TP/teams/logos/100x100/2600433.png;46.198082;9.022304
126;Belshina Bobruysk;Belarus;Bobruysk;https://img.uefa.com/imgml/TP/teams/logos/100x100/62131.png;53.140278;29.217222
1096;Benfica;Portugal;Lisbon;https://static.flashscore.com/res/image/data/AZHdTBf5-GEKimEim.png;38.7526330362348;-9.18480729209883
365;Berliner FC Dynamo;East Germany;Berlin;https://img.uefa.com/imgml/TP/teams/logos/100x100/50039.png;52.540833;13.476111
211;Beroe Stara Zagora;Bulgaria;Stara Zagora;https://img.uefa.com/imgml/TP/teams/logos/100x100/73511.png;42.432778;25.615278
10;Besa Kavajë;Albania;Kavajë;https://img.uefa.com/imgml/TP/teams/logos/100x100/52872.png;41.188558;19.553247
1443;Beşiktaş;Turkey;İstanbul;https://static.flashscore.com/res/image/data/W0HRCIjl-UcWWlFia.png;41.039167;28.994722
881;Birkirkara;Malta;Birkirkara;https://img.uefa.com/imgml/TP/teams/logos/100x100/62171.png;35.896667;14.4625
394;Birmingham City;England;Birmingham;https://img.uefa.com/imgml/TP/teams/logos/100x100/53342.png;52.475703;-1.868189
395;Blackburn Rovers;England;Blackburn;https://img.uefa.com/imgml/TP/teams/logos/100x100/53344.png;53.728611;-2.489167
720;Bnei Yehuda Tel Aviv;Israel;Tel Aviv;https://img.uefa.com/imgml/TP/teams/logos/100x100/64189.png;32.0520908801477;34.7617393033328
1097;Boavista;Portugal;Porto;https://img.uefa.com/imgml/TP/teams/logos/100x100/52819.png;41.162187418915;-8.64284007390913
1019;Bodø/Glimt;Norway;Bodø;https://img.uefa.com/imgml/TP/teams/logos/100x100/59333.png;67.276667;14.384444
1127;Bohemian;Republic of Ireland;Dublin;https://img.uefa.com/imgml/TP/teams/logos/100x100/52375.png;53.361667;-6.275
293;Bohemians Praha;Czech Republic;Praha;https://img.uefa.com/imgml/TP/teams/logos/100x100/52662.png;50.066944;14.454167
923;Bokelj Kotor;Montenegro;Kotor;https://img.uefa.com/imgml/TP/teams/logos/100x100/77926.png;42.420295;18.764979
746;Bologna;Italy;Bologna;https://img.uefa.com/imgml/TP/teams/logos/100x100/52969.png;44.4922004633585;11.3100949812898
396;Bolton Wanderers;England;Bolton;https://img.uefa.com/imgml/TP/teams/logos/100x100/53346.png;53.580556;-2.535556
1445;Boluspor;Turkey;Bolu;https://img.uefa.com/imgml/TP/teams/logos/100x100/51145.png;40.736306;31.60675
189;Borac Banja Luka;Bosnia and Herzegovina;Banja Luka;https://img.uefa.com/imgml/TP/teams/logos/100x100/50104.png;44.7761;17.1996
1278;Borac Čačak;Serbia;Čačak;https://img.uefa.com/imgml/TP/teams/logos/100x100/73934.png;43.897819;20.341406
523;Bordeaux;France;Bordeaux;https://img.uefa.com/imgml/TP/teams/logos/100x100/50127.png;44.829167;-0.597778
1514;Borough United;Wales;Llandudno Junction;https://upload.wikimedia.org/wikipedia/fr/8/87/Borough-United.png;53.2872652898863;-3.79784621825468
587;Borussia Dortmund;Germany;Dortmund;https://img.uefa.com/imgml/TP/teams/logos/100x100/52758.png;51.492569;7.451842
588;Borussia Mönchengladbach;Germany;Mönchengladbach;https://img.uefa.com/imgml/TP/teams/logos/100x100/52757.png;51.174583;6.385464
212;Botev Plovdiv;Bulgaria;Plovdiv;https://img.uefa.com/imgml/TP/teams/logos/100x100/57466.png;42.139861;24.764444
213;Botev Vratsa;Bulgaria;Vratsa;https://tmssl.akamaized.net//images/wappen/normquad/26462.png?lm=1720550931;43.201111;23.5675
1117;Braga;Portugal;Braga;https://img.uefa.com/imgml/TP/teams/logos/100x100/52336.png;41.562528;-8.429889
1128;Bray Wanderers;Republic of Ireland;Bray;https://img.uefa.com/imgml/TP/teams/logos/100x100/53530.png;53.205833;-6.102778
699;Breiðablik UBK;Iceland;Kópavogur;https://img.uefa.com/imgml/TP/teams/logos/100x100/71235.png;64.103889;-21.896667
540;Brest;France;Brest;https://static.flashscore.com/res/image/data/r9aDJ9eM-Q15G9lAm.png;48.403056;-4.461667
397;Brighton & Hove Albion;England;Brighton;https://img.uefa.com/imgml/TP/teams/logos/100x100/2601105.png;50.861822;-0.083278
202;Brotnjo Čitluk;Bosnia and Herzegovina;Čitluk;https://img.uefa.com/imgml/TP/teams/logos/100x100/75759.png;43.227222;17.703056
621;Bruno’s Magpies;Gibraltar;Gibraltar;https://static.flashscore.com/res/image/data/4KCEDrg5-x24OBPo6.png;36.149356;-5.350342
1021;Bryne FK;Norway;Bryne;https://img.uefa.com/imgml/TP/teams/logos/100x100/50093.png;58.7300652208233;5.6502957597494
334;Brøndby IF;Denmark;Brøndbyvester;https://static.flashscore.com/res/image/data/Yq6zQNkl-YPeI5fwQ.png;55.648889;12.418611
654;Budapest Honvéd;Hungary;Budapest;https://img.uefa.com/imgml/TP/teams/logos/100x100/50054.png;47.4425;19.155
655;Budapesti VSC;Hungary;Budapest;https://img.uefa.com/imgml/TP/teams/logos/100x100/60487.png;47.523611;19.091667
1279;Budućnost Banatski Dvor;Serbia;Banatski Dvor;https://upload.wikimedia.org/wikipedia/en/0/00/FK_Budu%C4%87nost_Banatski_Dvor_crest.png;45.52205;20.516272
191;Budućnost Banovići;Bosnia and Herzegovina;Banovići;https://img.uefa.com/imgml/TP/teams/logos/100x100/69595.png;44.413889;18.535278
924;Budućnost Podgorica;Montenegro;Podgorica;https://img.uefa.com/imgml/TP/teams/logos/100x100/53078.png;42.444728;19.264378
398;Burnley;England;Burnley;https://static.flashscore.com/res/image/data/UaPJjYBr-6PhTI7J6.png;53.789167;-2.230278
1446;Bursaspor;Turkey;Bursa;https://img.uefa.com/imgml/TP/teams/logos/100x100/52695.png;40.210833;29.009444
11;Bylis Ballsh;Albania;Ballsh;https://img.uefa.com/imgml/TP/teams/logos/100x100/64109.png;40.601944;19.740833
652;Békéscsaba 1912 Előre;Hungary;Békéscsaba;https://img.uefa.com/imgml/TP/teams/logos/100x100/50085.png;46.6863;21.1063
856;CA Spora Luxembourg;Luxembourg;Luxembourg City;https://img.uefa.com/imgml/TP/teams/logos/100x100/52804.png;49.6186;6.1097
1098;CD Nacional;Portugal;Funchal;https://img.uefa.com/imgml/TP/teams/logos/100x100/53010.png;32.6705524174805;-16.8835512840505
1099;CD Santa Clara;Portugal;Ponta Delgada;https://img.uefa.com/imgml/TP/teams/logos/100x100/73927.png;37.763708;-25.622589
25;CE Principat;Andorra;Andorra la Vella;https://img.uefa.com/imgml/TP/teams/logos/100x100/62176.png;42.501389;1.513889
1161;CFR Cluj;Romania;Cluj-Napoca;https://img.uefa.com/imgml/TP/teams/logos/100x100/88131.png;46.779444;23.5775
858;CS Fola Esch;Luxembourg;Esch;https://img.uefa.com/imgml/TP/teams/logos/100x100/7607.png;49.492222;5.989722
859;CS Grevenmacher;Luxembourg;Grevenmacher;https://img.uefa.com/imgml/TP/teams/logos/100x100/52976.png;49.686871;6.448505
860;CS Pétange;Luxembourg;Pétange;https://tmssl.akamaized.net//images/wappen/normquad/10541.png?lm=1516112435;49.557212;5.856485
1208;CSKA Moskva;Russia;Moskva;https://img.uefa.com/imgml/TP/teams/logos/100x100/54266.png;55.791389;37.516111
215;CSKA Sofia;Bulgaria;Sofia;https://static.flashscore.com/res/image/data/UqHgBGGG-fRtHs98a.png;42.687583;23.335444
1168;CSU Galați;Romania;Galați;https://upload.wikimedia.org/wikipedia/en/7/70/CSU_Dun%C4%83rea_de_Jos_Gala%C8%9Bi_logo.png;45.420833;28.023611
539;Caen;France;Caen;https://img.uefa.com/imgml/TP/teams/logos/100x100/52933.png;49.179461;-0.396767
1515;Caernarfon Town;Wales;Caernarfon;https://static.flashscore.com/res/image/data/rVBhZCYg-Kd6FFBdj.png;53.134722;-4.2675
748;Cagliari;Italy;Cagliari;https://img.uefa.com/imgml/TP/teams/logos/100x100/59013.png;39.1994883713099;9.1372772790883
511;Cannes;France;Cannes;https://img.uefa.com/imgml/TP/teams/logos/100x100/52930.png;43.553056;6.964608
399;Cardiff City;England;Cardiff;https://static.flashscore.com/res/image/data/4KcsH9xS-Iytof9Vn.png;51.472778;-3.203056
1517;Cardiff Metropolitan University;Wales;Cardiff;https://img.uefa.com/imgml/TP/teams/logos/100x100/59337.png;51.512495;-3.159715
370;Carl Zeiss Jena;East Germany;Jena;https://img.uefa.com/imgml/TP/teams/logos/100x100/50071.png;50.916111;11.583056
1518;Carmarthen Town;Wales;Carmarthen;https://img.uefa.com/imgml/TP/teams/logos/100x100/64281.png;51.859936;-4.302218
1001;Carrick Rangers;Northern Ireland;Carrickfergus;https://static.flashscore.com/res/image/data/nJvUphjl-xOaZHl96.png;54.719722;-5.800278
1519;Cefn Druids;Wales;Cefn Mawr;https://img.uefa.com/imgml/TP/teams/logos/100x100/73933.png;52.977212;-3.069646
1364;Celta Vigo;Spain;Vigo;https://img.uefa.com/imgml/TP/teams/logos/100x100/53043.png;42.211842;-8.739711
1244;Celtic;Scotland;Glasgow;https://img.uefa.com/imgml/TP/teams/logos/100x100/50050.png;55.849711;-4.205589
975;Cementarnica 55;North Macedonia;Skopje;https://img.uefa.com/imgml/TP/teams/logos/100x100/64398.png;41.968119;21.452619
152;Cercle Brugge;Belgium;Brugge;https://img.uefa.com/imgml/TP/teams/logos/100x100/52884.png;51.1934010677865;3.18054179320695
737;Cesena;Italy;Cesena;https://img.uefa.com/imgml/TP/teams/logos/100x100/52970.png;44.1403150783108;12.2618840965386
153;Charleroi;Belgium;Charleroi;https://img.uefa.com/imgml/TP/teams/logos/100x100/52886.png;50.4146701798073;4.4537409785888
400;Chelsea;England;London;https://static.flashscore.com/res/image/data/GMmvDEdM-IROrZEJb.png;51.481667;-0.191111
217;Cherno More Varna;Bulgaria;Varna;https://static.flashscore.com/res/image/data/IyYJsXYg-tjkFB7mQ.png;43.215833;27.931389
219;Chernomorets Burgas;Bulgaria;Burgas;https://tmssl.akamaized.net//images/wappen/normquad/40451.png?lm=1457444393;42.5125;27.470278
1207;Chernomorets Novorossiysk;Russia;Novorossiysk;https://img.uefa.com/imgml/TP/teams/logos/100x100/64499.png;44.713889;37.779306
1475;Chernomorets Odessa;Ukraine;Odessa;https://static.flashscore.com/res/image/data/4dnCrJGG-4bedUOPH.png;46.480333;30.755417
749;Chievo;Italy;Verona;https://img.uefa.com/imgml/TP/teams/logos/100x100/77904.png;45.4358123516654;10.968213739885
1162;Chimia Râmnicu Vâlcea;Romania;Râmnicu Vâlcea;https://tmssl.akamaized.net//images/wappen/normquad/29694.png?lm=1646230100;45.103056;24.352444
524;Châteauroux;France;Châteauroux;https://img.uefa.com/imgml/TP/teams/logos/100x100/64168.png;46.801944;1.721667
1002;Cliftonville;Northern Ireland;Belfast;https://img.uefa.com/imgml/TP/teams/logos/100x100/52991.png;54.619444;-5.947222
154;Club Brugge;Belgium;Brugge;https://img.uefa.com/imgml/TP/teams/logos/100x100/50043.png;51.1931262959891;3.18099299055711
1004;Coleraine;Northern Ireland;Coleraine;https://static.flashscore.com/res/image/data/x2hVtAwS-l2RHTltM.png;55.132778;-6.660278
589;Cologne XI;Germany;Köln;https://tmssl.akamaized.net/images/wappen/normquad/default.png?lm=1457423031;;
1520;Connah's Quay Nomads;Wales;Connah's Quay;https://img.uefa.com/imgml/TP/teams/logos/100x100/64275.png;53.249167;-3.125778
26;Constel·lació Esportiva;Andorra;Andorra la Vella;https://img.uefa.com/imgml/TP/teams/logos/100x100/71943.png;42.476389;1.487778
1129;Cork Celtic;Republic of Ireland;Cork;https://img.uefa.com/imgml/TP/teams/logos/100x100/69771.png;51.885356;-8.467778
1130;Cork City;Republic of Ireland;Cork;https://img.uefa.com/imgml/TP/teams/logos/100x100/52803.png;51.885556;-8.467778
1131;Cork Hibernians;Republic of Ireland;Cork;https://img.uefa.com/imgml/TP/teams/logos/100x100/62245.png;51.891378;-8.436749
1163;Corvinul Hunedoara;Romania;Hunedoara;https://img.uefa.com/imgml/TP/teams/logos/100x100/52339.png;45.761639;22.912972
402;Coventry City;England;Coventry;https://static.flashscore.com/res/image/data/hnpi9tgl-vXejjyvR.png;52.448056;-1.495556
1054;Cracovia;Poland;Kraków;"data:image/png;base64,iVBORw0KGgoAAAANSUhEUgAAAJYAAACWCAYAAAA8AXHiAAABhGlDQ1BJQ0MgcHJvZmlsZQAAKJF9kT1Iw0AcxV9bpUUrInYoxSFDdbKLijiWKhbBQmkrtOpgcukXNGlIUlwcBdeCgx+LVQcXZ10dXAVB8APE2cFJ0UVK/F9SaBHjwXE/3t173L0DvK0aU4y+OKCopp5JJoR8YVXwvyKAMEYQwaDIDC2VXczBdXzdw8PXuxjPcj/35xiSiwYDPAJxnGm6SbxBPLtpapz3iUOsIsrE58STOl2Q+JHrksNvnMs2e3lmSM9l5olDxEK5h6UeZhVdIZ4hjsqKSvnevMMy5y3OSq3BOvfkLwwW1ZUs12mOIYklpJCGAAkNVFGDiRitKikGMrSfcPFHbH+aXBK5qmDkWEAdCkTbD/4Hv7s1StNTTlIwAfS/WNbHOODfBdpNy/o+tqz2CeB7Bq7Urr/eAuY+SW92tegRMLwNXFx3NWkPuNwBwk+aqIu25KPpLZWA9zP6pgIwegsMrDm9dfZx+gDkqKvlG+DgEJgoU/a6y7sDvb39e6bT3w+VAnK0ezIk3wAAAAlwSFlzAAAuIwAALiMBeKU/dgAAAAd0SU1FB+gIGBEcL8Ncrr0AAAAZdEVYdENvbW1lbnQAQ3JlYXRlZCB3aXRoIEdJTVBXgQ4XAAAgAElEQVR42uy9d5xV5bUG/Kz33fv06ZUBhs7A0EQFg4DYC8YY9Q62JJbExKsmmmauMVeHmMSrMcbERM1VY0lQIzbUIBDBgqCCivQ29DK9z6l7v+/6/tj7nDlnZkBAyHe/78f2tx09Z5+297NXedaz1gsc345vx7fj2/Ht+HZ8O74d345vx7fj2/Ht+HZ8O74d345vx7fj2/Ht+HZ8O74d3/6/sjGqRep/9iz3X/WD74246gffG4E9y/3/R74icXW14KoqyQD1/SNYjluzNO/cmmXFV78zf8DV78wfcG7NsuIiXh+qrk77fT1+N1dVSfd5Oo6Eo3SxnJMLIoC/+qs7+3/11Xe/VdrYeVEgzoMAQBmidldp6OUbP/ngdyBKuK/hfxuYUE3OF63W6U9MfPGvRZes2jqyfH/jGG80MTSrPTJadkWKZUc4yzRkKP1Yy1ZdCYnahNdTFx/Ub1+HKdZsGDF43ZJLz9qzdvz01gygVVXJ2WPGcHV1Nf8bf+f//4DFzEREfO9NN51/0qvL/ljWEh8BAEo559QgICYFVo7J//mNny67l1Etel7kY2CZCOvXE82dq5IPFvH60Pd//vcJg2p2Ty/a33qGt6l1pLcz0j87qk0z4XwdVs5fzZl4EEQg2W2w4iahKyCteFZgX1tu8NPwoP7vfFo5ZOkf7r57PYhUhhXnu5mIjgPsSCzWVT/43ohr/7H83f4tibKIlLZ7eZ0rwaT9rI2aEs+Hn19/6bTq6mp9LKxWdXW1uLs60zKNW7M076rHnj9l1M66i4J7mmcEmttG5nbaprA0NDPiRNAJW7G2wbDAUGkuDq6ly/yeAj4IjxektDSI4PEasDwCHSFvtLO8eHVDWd68Xeecuviu7968MgNg1QAdt2KHB6xnpp/725NW7P5JlIQNsOxxiPKzNlaXBeaY9/3XNVVz5yLdknyZz66urqa7q5NfxAFUdXW1EPH4lHGrN18V3NM8I6e2dUxWl5UCEiutlBV2QSSFkZMHz6BSeMpLyVPen82SIhj5uZDZWSBDgm0F1dEJu6UN1v56hFetQ/TTrSCPwWDSHIsSCQOGENJrCGhToC3XH+0oL17aMLzs5ef++7rXFg2f2nDcih0BsOYMOfHvE/ZHru4LWKS0Ftl+ue6sCbd868Vn/pwe6M+uBu6urmZKGYm+39+JqxmzZ8+myspK6gucV78zf8A5T78ys3D11qrchrYZBe22qWyFGIjZsrXSXQCkMEuLKHDCaISmnMShr0yEf9QIGP1LIaVxSD/Yam2jNSNPY25PAFIgOHkMxXfvRWznLk0ASxGC8BjSD8D2G2gsDu3sGNZv/toJFc/d9ZvffJR0lcet2BcDix6+6NLrT3l3/RPeLhsJr4d7ZFpMhqSWbKNmx5CSPz122xXPr5p1fWPv7Kp3RkUHOeHMTDcvnDtswpJVU0vWbzsnd+f+s3P3tZUYURtxKcGW7VomCF/FEMo+ayrnXngWgieNJ09Jccb7agCsbJAGWCuQkL0/TytAa0i/H1uv+k9qfX4+MzQG3vczlNx8HdrfXoq2N99G+6L3KL57nxaQLM0gfIKkNCSa8/3RrlEDP64rK3i+lxXrDvj1cUilWxRm+Zep5908vLnzhzl1XYM4bvc60GNrsg2B5jzP1pb+ue+0Vwx5L5VZjZsWdjPGXuAhwCzCBs+57+7Krdi6o19Jzd7K/M7oCVk1u07w7W8cndUcLvG3xWDZGpYgpRNxKMTIU1oqcr96Juddcj6yZ0yBDAa7gWTZ3QASLp6pG9dCCGjdxzVWGsI00PzSG6ipuglC+uGt6E/j1y4GhOCkRWt/awk3P/8adSz5iHWkS0sRApmG8IFJ5wbQXJa7q2v0kPkbL5r2/O1XXLs8I+A/nlX2phv+9pPbfzry6QX3i86EBhH1OJJJMZuapWkIJHwSXVm+aDxg1icK8+oY6NChQEzm56ZeZzCyEY9Lo72rxIgnso2m9gJvZ8zwxhUo3A0mthVs3UXC9FFoygQUfPM/kHfROSnLpB3OIJniAUQQQgDMBDoI9cQMpMVCWikIKWG1ttG6sedANXaytuMYtfQfyPrKSaRtm6XXm3p5ZONmND8/Dy0vvknRzTUpK2YypMdroG1Ant1eXvRB44QR81efeuJbD1x6xbpeVryqSmDuGJ7txpJ33313L7DNnj0740ck404AQNV657m5Yw4M0p7HVAOz3c9yLyP/vwOsqiqJMWP4H2++8+joz+u+mzBkH0F8N8DApElrIqWl1xC90vnUiVU6lforxdAAbK1TWZyGImH6yD96OLLPm0YFVRdxaNLEDMuUBJOQslfcdujsr3PraK05abW2XfdDND39EgCg9EffwaDf3Q0Vj4MMA9AMFkjFbSocRttbS9D45AvU+c7HrOIRNkSIhceQXmbo3AA6BhS2RctL1tUN6/f6jpGD3n34htM3NtKYrv8z5HfVekoC/N8BOEp+MKFav3DyjL+MXVv/3b6zwz5e7DWg27u0QoyS8RRB9vhRKnX3CkimrKD0lBXDP3Ykh6acjOzTTkHgxPEp4GilAM0py+S6tkMCk8NjcVpcxQDAQgrSAAshoC0bwjTQOv9tbLnwOgjph2d4KY1dtZCl35/pQl1eDKaB5G0TXr0OTXNeoda5byG2c5cWkCyEP5VVctCHjsKgHetftKPdb67oHD14dZud2NpaOWJfXXlRa7s3FGscmJMRNhTtaffkxLt8gYj2Za9cnWO2t2flt0fyvYYRokg0H3WNBQDgjcazPdITSL4uoRIRAIj7vR0xhT2JglA4LKihJeitj48cGXu/srx2VdV17X2FKQDAbjWCjkFsmAGsZ2ddc/P4RZ/+yYrpgwOLCJyw4BleSiW3XMtkSIpt3cl2Sxt0PEZQzhUl04TMyYJZUgSzuIC8Q8vZM2ggvOX9If3+jOAblg0WAJGAIOrbxTGnrE+v57UGxAGqNgC01k7s5bpDFQ5j7YTzyN7dxMoKY9Ti5yjnzOmsLRvoaX2ZHbADEKZjxeyOTrQvehfNL8xD53srYDU1cRJkgkh6DQFpSGifB+EsD5TXtFUo0MU+M84e01JEUQCQzH5KWCbFLC8iMRNdESEt5fNaTELZEEQQtob8gkuvBGBLQtwQsDxk2YYZVn6zLRH0NUVNY1Oy4lA/Y9LWzSOG1I54b8X+Y5lsUCrIJuKv/urO/je/svy1Aav3nhwzzS8GVywOz8gyGvLkA5w9dfIhf2gKSFoBhgSRSGfJqWcwnmTUXXebDhRCkmUnQseyFdy1bAWs+mYIv4c8A8rgGzkU/jEV8BQVQifNmesOd9x8Bxoe+TsAoPimb2DIn+913KFpHuQK6gyAAUBs5260v70U7QveQfjD1ZTYX8eA0gQJggkhDJLCQX3ylwrW0Gm/W6dVDJRWTCQ0a9u9M6wM69/7Isq0y+IVggRL4XygaQiQFFACCHslLL8nahVmN0QDvs3t/QtX7SwMvXvHu+8uwYYNiaOfFaYF8Ff94Hsjvvnpnmf7rd/9FStq9w7ilXbuaPdhHY1CI4L+//0jDPzl7ZkZW1qqn0EBiD4sTtoFdyI5Th7D6RxUfMdu9g4pJzMvl7VyT7Rm7Pr+naj/y9/ASBDDYo0oCfgZAPLP/yqNemsOs1JEQkDbioVpoH3JUtp81jdYmH4Y/fNofM0HLKTMiO0OmBy4Viw9FgOARFMzIp+tQecHKxFZtY5iW3fC3tvCKhKG5jj3RcM4v1QSmSaE8DJlmSRDQZLZWWwU5UGEApA5IUh/ACIYAJkmWNvEcYt1JAoVDpPuDMNu6WDV1k52SztURxdzJKqTYCRIEHmFKQ0SbqlOeAzU+hFecO6EM+9/7rkV1dXV4mhZMSOdc3LfeGvughe/WXX/8/Pz31kzwgr4OGkxoDQo4IGORcAxDRkMQfj9kCKAffc8iNjmbRj69EOQfj/SXUpfgX1fmzANaK2hu8JsZGcRKwWSEuHV67Djuz9DfPse9g4qo9HvvcysNEEzhGlw/VNzUPuXx+D19oenYgAHThwDMiRbjc2IrFpHwUkTMss6UhAADk05mb0VgyhRU8eJffVce9+fUHjt5fCWlWZSG66L7mmxIQmUHhcC8BQWwHPuGcg99wzH2EajSOyvg1XXCLuphazGZuhwxCk3SQnyeSFDITLys1kEgzDyc8jIzyPh97MIBtKTlj5dfM//VvE4q84u2I1NSOzZL+Lbd1N0Yw3Htmyn2KbtSOyrZ7KgEz4/UzQhPPk5Ij5yZOxou0KjR71Oc1WVpPNn1Zzxn7f9s2jlltusuNIQ3WdVx20CeUA+QCv3zlbMZrAYzS/OQ3znXox49Ul4y0rRV7ySdF+a0yrFzBBSYs8v7qXWVxdBhAI8+t2XmDweEIDdP74HXSs+BSAw/KXHIINBYtXtFjrf/RACQRiDC6nys/mcbkE0wBwOO0G7IZNfAtqyIf1+5H7tbNT+9hGYvmLsvfMB1P3+SWTNmIz8S2ci54IzyczL5QMlFT1Bln5c0kqT3w//sCHwDxty8MStr7jQfT8Gg3QPshfoTQQLAnm98Hi98BQWIDC6Iv292e7oRHzHLjTNeUXWP/Q0e4SHlNeIWF+pjBxtYPUyJXOrqsAA1VUOW9RZlmdryxIgN+PzeFLHTY5tTJ1dkgZYK5jBYoRXrMGmM2dRdNsOx60p3Wd8JoSgZDzFthtL2MzhDWsRWbGWOt5ZBiElmp57BR2Ll0PAi4IrL6acGaeytmznbneTRe/QcjASpJs6UfP162nvLx9Ew9MvoHX+24it3wQZDEKYhpMl9gBF3iUXQMALQMMI5oDbE2h9eSFqrr4F6044BztuvgMdH64kISWEaTgWROm+f1cKZMKJ06QAlIK27F67isf7fFxbNrRSDkCVAogcaym7dzLN7vdP34mczzvAZ4pQEMEJYxGaPJG1FWMAECUF9rEI3nsBq6qqShPAb1xw4qeRYf03eR1qVKffKT3BZYUbHNOgFYxgHuJb9vCmM2dRZP2mXuDS2vUZbgwlhABcS1J43SyYWcXQsLntn4uhlcLeux4kggmjtIAG//leJOMk544VgNZUcvO1lDX5FI4370PLm/Ox5+7f0PbrbsOWC6+h9ZO/hjVjzqDml94ASZFy68I0SGuN0MkT2T++Airs3rSGhBHMgRkshL2vnesfeQabps7iDTMuQcPTL8BqbSNhGt2/S2mAD0IHuUDrufcJjHSA0EHiu4NGzXTAz2TLArSm+PZd3dbPY1rt3lDsQOTtUQMWETFXV4tFw6c2dI4a+qEM+UBaUwoM7rbCN5qT4JK+fNI6CtgKrBVkIAvW7mbedPZVfYILAKdOGjMROTRAoGI4ghPHANDo+uBT7Lnj1xTftotlMAS2bW57419MUjIJSgGTGfCUFPPoJS9i8MP/w/kXX8TBynHwlJaR8PpZRboQ27iTt1bdgJZ5C1xwqYxkIffis6ERcU4HM1hpp/boMWEGCyF8AXS9/xm2X3cb1p94AXbd/svU70q3Ysz/t0uFTglMsOqKgAAWABRRtCevdkyABQBzKysJAPYMKXs1PLSf5bjDA989k2MbiaSPWApiZtLKJhkMwK5r480zv3kwt8iamQURJd1h7qXnMgAktu1HwwPPshHMgR1uhW6NYds138eu23+ZoiOc4N4p7chgEKW3XI+K157CmDX/4jGfzucxq/6JoU89CLNfIRFM1D/8VCZz77rS/MtmQpgBsK16ZX6sbIAZMpgFM1gMa08z1/72EV4/+WvYfNG3qPmlN6DCYQjTcLJDIQ7Nkh0VSp1778nPTd97xGaccM61lATt88RrI9r6twBr1qxZGgD+d8YJH3X1L9jsuEMcVIOVHnMlNxkMwNrTxJvP+ybF99c5cQ5rJ/NzXaIQjuknwwm4c796NmQgG6w0pN9HKhxB8feugsjzQVIItb99jDfN/AYSTc1MUrKOJwAiju+vw5677kfHshXgcBRmWSkCoysQnDgWMACCAFuJDCGGkBJaa/jHVSIwcTR0ItKn+yGGQ0spmxwrVgzSBtrefIe3Vn0PayecR7t+PBsdH64kuMx+hiWzrEywfRHgkgBx94zXpwNWSoieu/u5yR3JrFJpQGuXDrKPubZfHPCnVVeLteOnt7YM6ve2kZ/d7Q7TtqQ77AtcOuZYVxnIQnzbLt56ybedOzvpv3pwaUII0krBP2wIQlMmQsej0NEIss+fQkMeuw8V85+BOaiIBHzoWLicN067xHFHrsyn4bFnseueX9CWM76FdRPOpfUTzsXqUafR+klfg72vnW20oeDKr2dIx7R2LpoQAvmXXQDN0e5Mqy+AARDMBNe6OrFYPqztdVz74F+waeosXn/yTOz68Wy0LXonFY9JrzcTbMmL3ZdlEaIbIO6e8frkewDgeBx2RycS9Q2upmx3ao/vr4PV2kYcjaaoHOn3O39DoWNelD6gOi7pDvedNWVB+fJ1N4s120z4/EzMzAcpBE+ObaQVvtEM0yBO2OwEw3noWrEK2665FSNfeoLZsgHhsudOsMlIukMpkf8fM6lj8XLWIBReMwvQmkKTJnLlR/Ow7ervo2PxckQ3b+E1Y0/HkEfvo6JvX83C50WwfAKsPU2I7dzBGlGH9YYfItdH5T+8m0tuvIa1UnBJcAghiB1LybkXn499s//ouD63ZEWmkcp4wcxgAOT8QwBgu6UrnxemCIC1QnRNDcJr1qHuwSfgKSuFf/xICk6awIHxo+EbMQRmaTHJ3Bwmr7fXXa2hwfE4Em3tZLe0st3SDqu2HnZTCyX217Pd0AyrqRmqsZ1UuBOqKwKOW9CxODjqZtZkE7HheIOgFyLLTzIUgFFUALO0mP1jKxDdtJUEfGBbQcQS3n4BYa49JnqsvokVIoDHrVma96f757yfO+dfYxNer1PmIQKzIxztywWmWzNyA3USEla4IcXQ9yydCCJirUFScnz3XqwbPxNWex3lnn8ORr01hzlhEXlM1kph94+qEV2/Bb7hg+EdOhDFN14DIzsLdkcnwqvWUmzrDlbtnSBDwlveH8FTTnR4NQfIGXVIrTUnebSNM6qo8/0VLHxByPwg2W3trCIdEAhABgMAhMNP6WQZydF6ZJw3Qa7V09CxBLSKuiUZAWH6YGbnkCjMgszJYukLEExHB8ZWAjqWgGrvJN3UCTsaZo7EoWEli2AAhMOgQwBwS2HpGXKvANZxf8w6rSdAQyAA4fexJ5YQ7aeP2/uXu747Zc4ZM/cmS3vH1GKR6w5p/PTWtgcefKvwrY/HWh0RYidYzgBQX+BKWi4GSAhiVjbMYCH23fMggieNR/7F56cI1CSfRURQyoa3fACyZ06lrmWfQOZlQ4XDkMEgWCkSUvLgP9zT8+ZgVoqM7CzOmXEq58w4tQ/lgyKR7oKSMpokjyYlci89l9vfXwbEYgiNn4jyh2aj5R+vo+2fixFZsQ4aFqQMgXw+ABqsNJPjNYm7C6+AbTMTQB4ThvC4EYcG2wzVEWW7pdPNIFWPiyhBJBhCONbSb8IpEoj0Kmu6cuOAEqH0GiIBIBFIgdMJ4h2YiY5IKCfe5UvThfGxjLEy3OGOwf0Xc0U5s52Qh1qeyeS5mlyXwjDMXOz4zu2I7dzdHcwTsWZmDTCRo/4c+vgDPH7T+zziuUc5qR4lKQFmYqXJ+ascBp7Z4ba6HyOXFCRWisBMlF4acXlZIRxQJxOHvIvPg5GVS8LrR+f7K1lmhTDgrh+h8oN5GPXBXJTcdA2Mkhyywg1QkbCTkRoGtHuXu/9i11USaQZsDSiboDQRMcGQEAGfUwoLZvXYAyCfF+Qx07JSh/pwdp3a+8wIkzd8H493v9bOTB4iMbN0d2Pevyt4T5GlAPDkyLIVzUP7rfcJA6z4sDp0kjyXFW5yShweA3ZTK3Z856eA1kTalby4GWLSeslgENLvBytFGS47KSokcth3KTMIxeRjwjRImEb3831KFh0FqpASStnwDS5HaKqTOKhIF5qffy1VVM+eOhlD/nwvxqxewEMevY+CUyZAhTthhZsAWwHSYEjBKQvhftWk403tzARbO3+VzthJaSJmIs1wI0/QMevOJtIktCcaDxa0dg0EgErXkBxzYCXJ0rXjp7e2nTDyLVGWDySsL8wO+wZXLulIxLFawTy0L34P+3//v9yL33LLPWDubWmO/rl1bQxTshaXd9lM1ohBUgBtry+EMA2QYaTKIp7CApTceA2PWfYaRn0wF8XfuQqiIOBYsXCnYzCkwQfQhnUDrudj3cFt0voxOzKIY5PBMQOGZF/UQkFz64kAUDV37r/HYvV0h5HRQ6Jg+7DcYcbm9VCSqDN8+dh314OIbNyccol9lia+BHHILneT5G+0ZTMrBXbqaayVYq21UxB3ydLcmWfBzCkEGQbCH691vl8S3FJ01+G0RvbUyRj6+AMY+/kCDHn0PgqddiI0ErDCDU7wzWAk6YUDAA3s5JvMYJ0EEx3CDeFabmc30va0khD32FOvcY5jIdhojyK7LTKqurpaYO5c/W8DVpIs/fVlY5fFKgZtSLpDOsw7KRlvMTORkCApoCNR7P6Rw6SThntaDx08Tsyg0nadfuKZpBMIQwgWpsGua2SSklMEohApbZWKRuEtLabQ6SdB23GoeAStry7IYK1TdThXUqMtG56SYi658RqufO9VVK58HQN/fQcCkyqhpY1EuJGtcBurqFP0TQFNSpAQICkIgogFZdYI+wSOANihQnQ06rriFljhJljhBgfQ4XboaJejk9NRMOJgxKF1FDoWgR1uTx1HUkornkBWXcuk5d84p5AA5sO5BkeSFfYkS4nGdLU88OCS/LL8k7CvheAxernDA1EPPTNFrWwSUrARzEPbgsXc9NwrKLzqUmjLZmEadEAgpenRHYD0PlQrBR2OQHWFoTq7oMMR1vE4JeWZwmOCPCZEKAiZkw0ZDDgyaQnAERly4TcuReu8hZAUQOu8Rej3s1v6VJUKQ5Jm5nRJTXBcJYLjKtH/57cisnEzOt/7iDreWc7hT9dTYvd+1rEYAA2C2SdtkIw3e1IEjss0IbxeyKJsMvJzYPYrZrO0yJF+l5XAKMiFkZcLmZtNMivEZBopGoJtG5ywYDU2Q7V1oPP9j9H0l7nalqb07KrrN23J54MWAQ1HKzM8pPbhdHdYNnrILdjb4CfpYSh9ULL0oGjVDBIaUmZj710PUu5Xz2EjFExXjmaAyQ3KuwVt4TDiO/cgtmU7Ylu3I7Z1JxJ7a8na38iqo5NUa5i1FQNbNmC7jsYhfEAeCRJeiBwvyZwQPCUl8AwdwP7Rw+AfOwq+EUPgLetPqrGTI6s2IrJ6PUInjCVlWUyG0a2edeucEIIhOBNkUiAwugKB0RVccuM1UOEwx2p2ILp+C6KbahCr2UH2vibYbe2swhFCmr5MBHwQoQCbxQVklhazZ2AZPOVl8Jb3J7OkiI2SIjZycjLk0V+g7+q1ZZ81jZqemyd1WCuzsc0c1tA+BcDKu9evp+pjSZD2cRwX8frQKz949t3cR145KamJTwfWF1msnsG+kA5DbIUbMPDXd6D/z2+FTiQIJECCMoBktbZReOUq7vpoFcIrP6foxu2w9taxikfcOzpJHpqO2xCimzQ0Mj0+2wwQO6DTGsxWiogkmDAK8yBYkook2I62ouxnt6D8f36eoSpNFrFThCulq7wdaTVrDU5aygOAQCkbiMUzdf2Ggb6Y+UyWHo5eK6lCOkAHeN83tYIwDNpw2mUcWb5Gh3w+ueuSqW+c/9zjF4MI9O+yWD3dYcHQfidhWy3BYyApYDlUd9jTJRIRG2Yu6n7/ZFIWnPpRGU0KK1cjsbsODAsEkwV5ITweiKDPBRVnSnvS3CanZ53sHsgAXL5ICJ9LJbpEZnsCCnDKUb5cNPzl7xSr2c75l85E9rkz4CksSNUatdKc1kSbkeA5YkS3qbYH0FKKT2kAQSOjaU6731+x7ntsQHr3txsOHFZCpRVISs457zR0Ll9BcduD0O7ayTcvnDvsEaDmaGjfDzu929w/743wkLIo2JZJZemX1QiRxwOrqQENjzxFKhxG47Nzsfnr12HdxPNpxw0/RuvLC6FqO9kM5pIZLIYRzIHweR1boTSRsh1Xopz5DEn3ya43pR6pfqrepxkpEtPWgO2QkDCkE6AnMRADO6rSm7Bu3Dm0/YafoH3JUgJzhopBWzYnS0S9dGdEICHSi8kkhCDBTNA6pRpNKUeBlHK0lyjwy2TMQEpYmfvVsyFMHymCCu6oL5n6Sc1MoEcn9jF2hSl3CGbPktvvml/8x7lnRQVpcHeb/uG4w0yXKJgTNmS2nyg3iNi2GiaYkGYQwmMSkmb/AIEE9YjxQanZWEiWWjTAxC6wegYi3Ww5OMkj9ZS1SwFAQMdiUKoLBIngSWMo/8qvc/5lM+EbXN5tbVxXmdFx5CCFXVK2+2/arLE+500cQy2XIKL10y/lyPI1OuD1ytqZkz4455Vnz2Iiiw4xVjsaFotffPFFCaJEc7+CJaK8GByNcc8754vI0gN+DSmgOqJsba/jlFWSotsSHYhs7P0gpQjGzGMP2FOeBJs+2HScDFVpPoxgDiKfbuHdP6nG+hO+6kywmf82OBpNWSWtNVQ8ztpWnNE8ki7L4W4Jz1EhPfvQcvXScykNTiTAzMifdSEUIiIG4tCGHV+5/4WnT3HrxPRvc4UbNmxgAPh4cOnr4SFlUQGSyTMj3HLGkXBbWtmOvXDraKRsIqUP+sP66n1Kt2ACjg1yxV4pzogcXgssBbuclMN1Occ6LpIy8ZosrRAjw3XKYABmsBgcSaDl+Td5y4XXYf3JM2n3f/0GXStXObSVq6VKdgZpW7FSNrRSDK2dTPJwQJUkf7kPEWC62C9Ny9VLz+Vqs0hKLrnpOvgGDyG2bJ21s8mo+NfK7xwNLouO4HgGs1xy+10Lix975ayoxamO6S/nDg1mZSdlAnRYXz/0okwAACAASURBVE6IzM5pMJPSpJXmVAcQFNCL3XcIRyIBMlzOxxCpID5FizjjmPo2Z45TSwXPOhKD4i4IM4DAxNHIOW8Gcs47HcETxmSMYkpybumtYgfL4lLPp82R6JVhxuNQbe1k1TWwVd8Iq67J4a1aW0l1Rlh1dDlAhDv+IDsEoyAP7QvfR2T5Gi2lKaMjS8NLfnj5GXd99+aVXyaIP2xkvvjii3LWrFlqzq9+84Oxzy36Q2LTPgWvKcAMkoZjfY4QXOTEHikrgQMNKUoDEtuKdSIBzfFUK3qSSBRZAcicbJLBAJMpiLw+FoYTs2nbYrYtcMyC6ugk1RVm1e6c+JR+Cj4I0wPyGE7myZpwAOvCDCYCsXTSQK01J7vEBbzwDBtIoa+cwFnTJlHwpPHsHT4k1bN4OJuKx2E3t8LaV4v4rr2Ib9+F2NadiO/YA6u2gayGZtbNEfd8KKRrudKlNN1Kc4dLdBQVzB5Lix3nTZhz8Zv/+CZmz6YjHRhiHO4Lku5w2cnD55ev2PDj4MY95coxBdSzPexIMkRONsH2BJULJrYVq0gEGk7zrgyE4BlZRv6xIzkwvhK+kcPI7FcEIz+XjYJ8GDlZSdkNH4g8VPE42/WNsNs7EN++G7GanYiu24zohi2Ib94Du70VDAUBH0ufjyAN7gmypPtMunACSAYDLBECawVrex03b5uHpjkvsTADMPsVwDt4ADyDB8A7aCDM4kIY+bkQfh/I6wFbNnQ4ArulDXZLG+I79iCxZ38KPKq5E5rjKQ5PwASRyWQYII8XhuHrI9LRfUZCrkIWICJLa124Zvul/3PzzX+/45FHFnB1tTgScB0Za+5mOm9979a55c8vvqwvd3gkhKn7hTjjagkJUjbZsTBrxCG9IfjHDqfQ1EkcOmUisk4/NdUSb3d0QkejJHNzMgeoba5BwyPPuK4qCpISMjcHMjsI38ihyD5r+gGtR3z3XoRXrUPHkmXoWraSoutqWMW7IMgP6fGDDOlkfX1YsoyULxWDOkI7TlhgFQdDpyxtkuTtfn2mxXHB4zSeGMmG3Uy3ncHlHdntrXyWZeydMOCT25/+5blrxk9vAzvK8WNqsQBg7osvillE6sk///HN/h+suYw37pHk8x7xD0rp5JPZErNTbI3HYXMXpDfEodNORO7XzkPOuafBX1nBScVB18pV2HvnfWh7czESTfsJAMzcYso+61Qe8vgDzvCQcAS1f3yUCAYbuflEhsE6EoOKdEEjDF/pMAx6eDYK/uMiRzItutUM3vIB8JYPQP7F5wMARzbXoO3Nt9H2+kJ0fbgaOhxhSSHIgL8XLZIelyUtmXapcvKYEMLTI4fSB8mveoOHFR/gNV8qtZQx07T7bW88+ee/evxnBPwXz5olAahjDqykO1xSOfztkcMH7M7euKc84brDo0GYsnYoBs/IMsr/jwuQX3URByeM7RH0atr7q4d47933QyOKvLPOR+mZ3+b4jj1ofu51+IYPhQwEnPauimEIVFQiunkLSr5/LQ+4+8dktbYxR6Kof+RZ7L/vT7ztqlvhqxiG4LjK7pkTzNBKwW5tQ+29f0JoyonIveBMlP34RpT9+EaEV69D8/Ovo/W1BRTdXMME2c29uVaM0v1vkqwlEDRzNwOhv6h48+/diIUdttTADzf84OHbbvuIHnrotcNdOOKIgZAU3r/2ozv+d8QzC26IdEVTI4+OxB32zBCtcAMGPXQP+t16Q68MSnq9aHl1PrZcej2EGcDg//0Niq+9ott97a9zmidcCyKkxMazL0fb4sWUf/FFXPHaUxnHrqs8F1Z7EwbM/gkG3PWj7kYPt1O65hu3oGHO3yAQhLe8P1UufZW95QO6Y7RoFO2L3kPzc6+ifdFSstta+ECuMhnkI42M7YuQPXogcUs+qaGIX8QwJVf5YOWJx42WEwbtmnvvjWc/cv6swyr1GEf6fefOnSsAqJ2nnvByv8Urr6U1O4wv4w57I95E+4J3qfSW6536mhSpsUEA0DTnFTBsCk2ZwMXXXpExlysZcwkAWjMgAe+QgSAYHP54Na2f+nWW2UHyDOjHsS3boLtijkscPrjbaloWpNeL2j88jqY5L8EbHAjhMym2ewfa5i+mkhuvYRWNggwT5Pcj/+LzkX/x+Yhu28Gtry1Ey4tvILJqI3Q4wgIBSK8PZEgigLpLNqBe1QPGkbNIRGlxlxuU2wraSqQNb7MOSmsmu4CITJnweu3CNXsGXfKXN55aumbp1+4eP73t7kPs5DliYCUFgE+OLFsxrn/B5sI1O8YmGDYASURfWjAmpB+RzzfCam1jT2GBY7HS27bCUSIYzHZ3dT8ZF2kAkc/WwF8xDDAMAAZ8o4Y7gXOnzcLvhY5EuPGJf4Ch4CktpfJ77ub8qq+lGHDp9aJj2Qrs+em9AASyL5yK4EnjeOfP7kTLS/NRcuM1II/H6aZWCsq2Ib1eZ2RRmqtseXk+2ucvociaLeyAzAth+iE8JjGICZwZ/Dtg40O3Qm7hXGlwLA6VRrsI0xnY5i8rh1lWRGZpMRtFeSRDIRa+7slBOpZw+LfOTthNLbCb25DYW0vxzXtlzOe3S979fNo9T8+/D8zfwyHqtYwvce1T7WEt/3nb26X52WOtzqijhGSGkIK10nSoioee5lj4PLDqGjm6ZgN5zpzOjsap+218I4cyFryDyOcb0Dr/beTNPDv1XP0Tc7D9hlspWDkOo5b8A7KkmP2jhwPQTm/j7CeQPXUy2pcspS0zr2PV0cVmUYFThnFb5BP1DbTtqptBtmBveX8a+vRDDK2x/95HqPP9lRxeu6E7HhME6fUivnsvIus2gS0bnoFlCJ04HsEJYzHwl7dz18pV6HhnGTre+ZDCn6xlq6mV05Ua6ZkeHdBduQBKWE7XDro5tyTt4hsxGP4xozhwwhjyjRzCnv6lZBQWsOiWIB2SS7E7OnnTmVUU+XSLTCQMPfifH9zw12EPL/92dfXTh0JBfBlg9eqWlqu3mxT0u6OCxGEHnqlexIQN8njAsND10Wecc+Z0x82lSUOKb7oGTc++THZbG2+74geUf/lMNvsVo2v5p2hdvABmoIRLf/o9mIUFpJWCd9hgBMePh+ropOjGrZw1aSLlnDmdBz32K2y/7jZs+vrlGPboH6nku9+Ejiew/dofwtrTxAQJq7aZN519JXIvPAO+kUO4Y8UHaJn7JoLjKp2Yz/Ri/+8ew767HoSORKHQAQDw5Pan3K+dxaW33oDQpIkITZqIsttv4UR9A0VWr+euj1YhsmYDYhu3OdxUU5fLz+kDhgdJBamnvB97Bw+Af0wFgiePh79yJMySIk4bGpwCknaJVWmYVP/U89z4+HOAUuQbNZyHPvVQr0FurBWM7CwM/dsfeP3JF4G1qWnLfjHipSX3/OSVFz6hS69Y90XxFn3pUMgVAL70zYc/zH9+8djUUFy3TR2mQYcbwHMszDInB3Z7K/IuOw8jX3oiYzogs4aUhuOqbv8NIp9vgB1pIYbF3sJByL/sApT88AYEKoYf0mdGNtcgtmELIms3oeT711PjX1/gnT/5GQCg5NrrkXPe6dTy0hvctewzspvbGBbgqxxEYz6Zz9LvR8eHK2nDqRexYeYCUiB31lnwDRuCyJoNaHn5TQBA/ztvpbL//hGTkH2K/hJNzbBq65HYsx92Uyt0IgGOxR2XFgrAyMmGzMlKKkhhFBZ0ExFaw25phaewAE0vzKOGR59mgkEj5z/NFAw6agspwPE41o47h5LqEY0ojXj+SRRecXGvadHJGLPh6Rew/brbYPgKlJ+1sefSaW9ccP/1l/OTi+LHdB2h5KzweQ88eP+akhP5E7PCXukbrVf6RutPgmP0Ct9oPhzFQ/L4T3LG6RU0TK+uPJ3tWEwrZq1sWyulnD1hOUpgZh3dsUtHarbreGOTZubU47Fde3TX52t127vLuOWf/9KNz7/GjXNe1o1zXtbNr72l2xa/z50rPst4HTNrOxbT4Q2bdN2jT3OipZXTn2tb/D5/kjNOf4QBunXhEs3Meu+vH9IfYYD+mAbr3Xf+JuP4rs/X6lXDpvJSmLzzp7M5+f7Ktl0ls9KJllaONzZpu6sr43uk76qPx6I7dukNZ83SK3NHc92jTzMz6x0/+IVeCpM/KRyn43X1qc9jZt0093X9IUr0qmFTedPF1+oP0U9/XjGd7a4u59ymn9+0c7z16pv1h+inP/GMsj8rP5nn/Oo3P0i/9kfdFaZvm/vnvVFamn+brG8zYXhTOi0Va2Ppyz18y2gDZBhI7K+HXd8Ib/kAJ8ND5rx1AcBTPgCxrdvRseg9dH28CtHPN1F8Xy1UUwfrWAQ6HndpJJXG8DuFAjJNSE8AsiiLvMPKOTChEqEpJyI0eSJKbryme7kUN+vMOXM6h6afQI1vvoDm51/n3HPPABndbHn2OTMc66o1QQgEJ4zlEa/+L0fXbkLwlInQyqFLVDSK/Q8/iZaX30J03VZWkS4I8sI3ejDlXHgG+v34RnhKirnjw5W0/aofQHWFOX/Whc7I8GgU0u9H+9tL0bp4Abw5gzh35lkAAP/o4WSihNm2yW7rYE9JccrFNT75AmlEOefsqTzw/l9gTcUMimzegLo/POHIwi07I451zSGVPzSbO5d+TLq2E9jTivK3lv38pgUvzqeDUBBfGliuOcTt0yo++dfowctL1+2aEWPSAEvWDJm5iu5hBfDkMWC3tXNsx27y9O8HCEox7vH9deh8dznaFr6DrmWrKLF9H2t2R/bAy8nSBwkvjKDvIMoBBidsWLsaObFzP9oXL3UKs94QfBVDkX3eNMq98GyEvnJSqkzU7+ffh9XQzC0vv0UDf/sLzj77NBB+C2YbsY1bkTPjVNLxBEgI6ESCguMqOTiuMsXHqWgUWy/9DrUseJMFgsj76tkUmDiWY5u3oXXuIu7a8Dt0LPwAFYv+TtlTJnFo6klomvMSGh//Bwq+cSllT5nEANDxr/dBMCl0+kkpXs0ozHduovYE200tQIVzE3atXIWOxR+y6S1C1umnkk4kuOCqi7nuwSccWfg3LnNu3nSXKAW00uwpLMCgh2bzlku/Iwxfnp23ZmfJeS+++9+PANfcDaD6y+qxDpgdVlVJDDw12jZ57CIuzOrulmaG8PmgYm2H7A5T/YcJ26EHYMHaV8ckJXMshpZ5C7D18u9h3YRzUXP1LWh+9jVY2+tYeBxtlBkshgxmgXxeR4JLbuOqrVN/M9raNUNIQcLnJSOQRWaw0BmsRh5E19Sg9reP8ebTr+T1J55Pe35xL3V9tgbZUybx2I//iYqFf4Nd34jQieORf/VFUOhA7QOPI7K5hoXXwyQFRNpAYBWPOwN757yC1gULYXqLMOTRe6nijWd54C9vx4h//AUj3nwcntz+1LXmM6r93WMAgPLf3UXe8oHEloU9P/k1J2Oyrg8+I8CRGKcsRVEBEUxojsNuaOrOlB951pHMJIDtV/6QVxWdgPoHnwHBhN3Uin33PNT3BZGOjiz/kpnIv2wmVKxDxsIJXfrplivvf/6p6VRdrftyiUfFFc4eM4Yxdy4+Hlz6er8BhT/11bflMhmuO9S91tc5JLTatjulWSD86Vqojk6qe+hJpJdOzGChk4Jr7h7r2Ks6kdJ3MXUn3Cn5cjcD7vJJ0CkeyZlhHwKgEd+4h/dt+ANq738cWadNQsE3LkHh1f/BSZc8+JF7obrCaJ73Cq8/cSb6/exG5F5wBuuEhfo/P0V5XzsfhVdczADQufQjEAz2DC6jom9f7Qj+bBsgwXkzz0Zw/Bi0v9/CkY/XkoYzY3XgvXdg29W3onP5R2h6YR75hpVzfP8e9uSUIefs6anfaxYXsAwGnMbUZmcd9djO3Wh9eSExLC749uXImn6Kk/nlZKPr48+x/74/ov6Jp6ngyotxwGVfAAy87060L/qA2JIquGmvOe71ZT8F83IAGtXVR91iOfPhAXrgkss3do4sX+rzetA9aZkhzeARmEGnHcvw5qHxkX9gx3/ewfHNezkpC4YhUxNYerL9qXaDJKjcMgr1UIdSD8lL2uPOa12wstLOcLVgMYTwo3PxR9h+3W1YPXwK7br9lxReuwFGdhYqXnsKI555Ar7hg7H77tlYM/l0rJt2Dhqff443XVmFxmfd2QhuqMe2BlhTssMj2X2jbYvTL5CKx1F41aXIvdixTLX3/pnr/vRXMGwKThlHvsHlqZY0mZMD+AUs1FNsY41rrZ4m1dnJgcrRNODeO1D0rSoUX3sF8i+ZiQH33I7Cb1Uha/Ip3PLim6zicbdWmz6S0rFa/mFDUHLTt9iOtYoYiHM/23TBw3/607lE5MjWj0XwPvfFFwWIVMuvfvN2yXufX4S6dqdbmhnk8cAON/DhkKWc5HJcM2MG8514SOlDAGVmCpwxvypN68V9PJeilbtbHlygOSAjAmQwiyVyYO9r59rfPoKGP/8d2edMRdF1l6PoW1Uo+lYVIhs3o2PxMiT21oEMIv/YSmSfPc0J8M+ehsY5L5C1t47rH30G/W69AeQxQQCaX3oD0VVbAWjKOmtKxu8o/91d6FjyIcU37ubEtv0geDjn/NPTKg8GZCgIf+UwBAPjkDVtksP5fe+b3P8XP4SRndUrHBGmgeHPPHzgSFe7EmitoC2g9IffocYnXwB3Wpyzq9kYvnz1f4J5URWRPibASioeVlUOXVI+pKQ+WNtaoghp7tA8TM1XpkrjUADVV0GXerg99ADRAcm8tGJxrxqG0kTQII/JpigG2wpt895G67yF8FcMp8JvXcaF116O0luuzyArtTucpODKS9D25tvc9PJc7LrtTmp7ZRF8Y4dzfPtualvwDmuEkXPqGVx62w2A1iRNE9qy2T9sCPrffRvv/MnPIK1sECRyzj8jZa00ACM7C5XvvZr6TBUOQ/j9iKzdiMSeWkrsq2XV3gEdjqYWbiDDgPB7SOblsVlUAKMwD56BZTD7lTh8mRApqHhKirno21dg/31/QtSXi6zPt5z5y8cfOZGADCnzUa2pM0Czq6vplM17Xxv4ygcXZax7qDRYikMiS1f4RrOKtbEZLOwzbjrcYmyKydacmuEAQ6REqgzi1DFKU892sR4rKnG6+0wNWzMyNe8yK5eyZ0xG3mUzOefMaUhXQySzw4ZHn0HL3DcQWbOZVFsni6wgBcaN4twLz0DJLddDhIIZI56S61rvm/17GEX5yD7tFKQvHKqiUcRqdiC6dpNDu6zfgvjOfWTVNrCORPsoQPetA0sx/HkOw+8bMQSBiWMRPHk8BcY72e3ayjOhG7qUP+iRay846b4rX3z2v7iqSiYXkT+qwErXw1c+8fof7N3NR6SHd4DVwmaw+NCAlQYkthU4Ec/QwCfVl4B0Oo8z5nJ26+QJJoTP5xzjJgWkOUMmnS57QR/FNxICTILZVlDxDjAUzMJCBE8eR1nTJ3PoKyeSb9QINstKMwJcFY+DvCbEYYS9KhxG1yerKfzxZ9y14nNE122hxM79rOJdmYpTryfVF3moVA/bDLYza5ICXpjlxZR1+lc4+vlmxNft1B4hZP3o0vVXr3nkK400pisppzKOJrAy9PBvFfw8uKuxRKUEgEdfsJbZROrckdLrFmNHDWPfyCHkGzoIZr8STp/AAgCqK0yqtZ3tplbEanYgtnkbYpt2IFazE3a4BcmGWXg8ADSzrdHTpXIPd+kGJQA0EcBGMMcBe3sCHQs+4LYFi0Ew2SjMg3foQHgHD4BvxGDyDC5nb3kZRDAI4TGdEUfu9+RYHCoSJdXWwVZtPSX213Ns8zbEt+2i+K79bHcXsyHIy+TxwgwGugGi02aFHc41cGeoEkx3fqlT+7X3tXPzs69BSD/Iaworbumsxo7KH93852l3AAtAjvrhqAIrmR3ivKptb73ywQd5n2y7LJokS5UGMTHTUehZkwKsGSrcCQ0LntJSyj3tDM4+5zRkTTkJ3uFDkmQmH8Cw9Fnl15aNWM02dC77BO0L3nFXTm2AgBfCGwJJyY47Yk72H6Z3Xqf+O+kulSYNzTAkpCcLEjlIzoaIrNyA8Io1YFicoYUyTacNzRaA4YwLYMtyPa7FKetKBgvDiyR4v4h26UXBoLebpx4nJylxTZdAJwf2pj7LY+qs1qgxamfdRQAWHPXgPT07TOrh+w349DLa0SDYazrZoUsRHJmUxgWUzbDCLRCmD9nnT6OCK7/OOefNgKekOEMDmZoI06fYi1JTWpKxCwkJmEZy9BBKvnM14vvr0DZ/MVpeeB2d76+EDsfSpyanrFjPsY+upsrJOp3OE2LFKcE6GZKkEeieXeXqslIzJzQYphP5sUGA4e8VMya174dqidIUhZTqDj1I8kJp3597zjDoMexZJSwE9zTPGLdmaR6Nn97KzHTUgZWuhx9RXrQ3Z3vdAEsQfynhvxtD2eF2iIAfRddejpKbvoXQpInd0pB0IAnqk+AT7mTljLiViMHOADVnOId7cQXgLStFyXeuRsl3rkbXZ2vQ9MxctLz4T0rU7efk7HeC05KWEumlz4E4AOAoeUmTSlJkutNUDNc9TIJhO+fvSO198nUijWbpab4pLRlJHv/FYytZWCR0oLltZNXz8yvXAstAs0kcbWAl3eGcM2bubR1StkSGfKlJy4dDGaSDihMW7HA78mfNROXyVzDsqd8jNGli9zxQpXpPYzkAJ5OUBqRA5X5Gai3q5LJvJDLeP3TieAz+wz0Y+/kCDHroHgROGknOmMY2ZpCjVJWiF7XxZXVKlARekuA9GiIVIjCRM2qAujGsiZhxmNJoBsGQnNtpm4NqdjslgKr1Rx9YKbIUwN6KQfOs4lxQovfqYV9cO3S/mq1glOTQyH8+hRH/+AuCE8Y6C0m6S5McDEjp5js1DIOdXWnFqdFBWjOIWIi+lud13j993mi/W29A5Ydv8sjX/orci88GSwtWuAE6EgOkYHJnm6YWF+Cj0wnAh6uH7zHMltyisk5YrBMWq2iMdSzOyrJZWTbDVr1ecyjjklgIppiNgo74FGYmzJ2rjWMBrOR8+HmXTfugcuFHW/O3143odoeHeqdKwHBS6qwTJyNv5tndcZMUB1mrhTPnIUjhLox0oMQagGVDWZa7nt8BZk8lZzOkjYJMNlBE1m9C8/OvUstLbyG2eQczFEsKOANOnKHmB2zNP1SrdUigIupWgSq7hwZeQJAXMhCEzPETeYy0lcGUsx5PZ4JVIgJtJVWs6WMGPBkJQl/ewLO/cVgxNgQbga5jAiwiYka1oOFTG27osbb0kUwAlDnZ7C4kwDjA5Dp2p9/BNOCcWyMFnERTM3RXGDocgY4nnDvS54PMCsEsKnS1XUYG0NLB1NuKUSqLBIDAmFEI/OoOLrvzNnQu/Qgtc/+Jjnc+ovi2XcywuhsoTIN6ji86bMD12c6lwQkb2kp0jx7wBuAdPZD8Y0eyf0wF/JUj4B00AEZRAUQoyMLjSUm9WWnoRAK6Kwy7sRmJ/fWIba5BdOM2RNdupNi23bDaHJm2kH4kGzG6p1SzsEnA0x7uf86tf+z3HLD1mADLcYeVhFlAXeWwRQPKPrlFbqk9rG7pZAmIYcEsKyaSkrUd7z0SUWmnmUEagHTY547P1qLro88Q/nQ1xbftZmtvA6lIGJywGXEAhnYsWcAHs7iAvCMGc2jyCQhNnUShkyekllg56ALj6VbMBRj5/ch1V7BX4TB3fbKaOt/7iDvf/xjR9VvJrmtmjbhrCQwSZACGh4UUqWEiB6guceq32gps29A956bm5CFQMQzBk8cjdMqJCE4aD+/QwRmjBr5wKywA3AFy3RZdc3zbLoQ/XoX2fy1F57sfUWznLkdh4styl7KxYRPYm1A542w5DMcSWOmLaVa+9cGmwi21qfawQ6MWDMA1HJ7+/Zw0PW3UD7MGgVJK0o4PV1LLC69z+8L3KL5lDzPHdXLYrZMRGsSsSZBgnQAJAutIF8ebuhDbUIPWeQtJwIS3YhDlnDeD86/4miOok90c1xcBDEohueS1DAaRvmBUoqmZY5sdCxBZu4nj23cjsXs/rIZmqEiMOWKB2eb0KTDpsaaACZJeiDwfjJxC8vQvYu/QwUhOeg6MHQWzfEAGt56kXZJhAQt8UW7hKIrS555K4bS0DRuCwqsuhd3RyR2Ll6L5hXloe+s9sjsb2DBziYi012KZ3x7JPyY8VoZ3SmsPK8oNjKWw5bSH9Qji+3KHZJgpP+8dPLBXDCVdQLW8Oh/1f34GnUtWsOY4GyKkJZlkSq80DQEO+oCABwmPAcsgWwEISMPQcYv8CRuIJEDhGOK2hiIoa2sd6jY/SQ0P/x2h6Seg8LrLUVB1UWq2lT6Im0zGctpZDcOZz6UVyDDgKSyAp7AA2VMnZ1AkdksL2W0dbLe0kmptZ44noOMWQavuGQ8BP0QwQEZ+Lhs52TAK8rjnrK1U1pueebu0S9LK0yF5CgJk5rDcdCrHyM5yRH+XzERkcw03PvkcNT31EqPDgidhwW9x3rEGVvd8+NMmvDJgySe3mJv3G/B7k0q6g69zaJCzfK8MwTu0vJvINL0QEuhYtgL77v4d2hcvhYRPS48PPu2VHq+BzqIQWvKCu8LF+aujQwdsT/Qv3tFmyr06EIimznkk4s+11IBgS+fY4P7Gkb49taOymjpKvHtbkIhnwxKkwu+vRsf7H4va/3kkpVhIdlkrZTsxXZoV02mLTbl/KVmDZ6UzFkCAIBamAU9JMbvk7sGqBL0e6zW0TVDGqhlHdUsHWdoI8EDFcAy6/y7muIX6Pz4JePMR2VaTfcyBlXSHv71i8qqT/rZgU3FN/dikHv6LX+2s4WyU5JBnQBm0UpxsQtj1i/tR/+BfARIwfHnKYyuD8gJoH96vvqVi0MK9FYPmzbts2geLhk9tOETb6rlp4dzyk7bVTeu3uuarWeu3TcupqS2RLYyo8LG1tU7tufM+qvv9k1Rw1cUo/u7VIMY0IwAAEApJREFUCIwZ5VinPoL91MqxGdma68qT03RSs+C5O4Zylj88eBDaYxT3YY3hTiUM3AdlgF43ygGTBzd5UdEohMdDZklh6g1zyRh8zIGFtPnwjbf/17zSj7eMpWS39Be5QwNgFYdv+GDI7CwWUiKyfhO2X3MbdX36ORu+AiUs2zD90vh/2rvS4KiuK33ufe/13q3W0kJoMSAkBBKWEZsNMgFMwo6xjVuDxdhMnNikGMfMpGymiEnpwYCHEGbKcQXiJSR2IMvQ4AGzC4+BMQZswBhhySwCxKIFLailllq9vHfP/OhVEhLCEAGV+1Xpj6qr+713v3e+c889S0Ne1vlrwzPf3zNjwl/+NHH6NQAA+LfgBdjtgsNu7zo0UlaGhBDfOoByCPx9sHDPpoz84+XTkw6feslcVjHUVNMstIEVsMmn1ry9ntT97r9JzLTvge3FuWCZNA5CDnIoKQ4AgFESbvwb6oca1T05ypckgRFzhGB4biUidGqG+x2CXu0IREnUsKmuLFNnq9Tl7jjorhBBQMFiDvyEn4Ep3pbUG8QK41xG2rbURPO/6BqajLeSw4jz6QfdkHSkggCNuz6BC/NeJaypDUVdvKrz+8WmYQOc5ycNX/v7l2e9XZyRXwtrVgNCMLEfi5AQgsThUOHW49KILMskOzub2AsKGJlaUL4O4G0blv5eXr1jcr9Pj82Pr6iZbq5qFCW0gF8hqnPLXmjcspfqszNI7JxpGPvUVDAMHwqUiu18E2QqMCpEhgyEclMDi086EC0craKUwm03vY2WxnDYJWoD3doa6Ena1BycJ+0NHCVptUj1OhBizCDZEkC0mNuRL/qFuRnJxDhrhL8tbt13OWH4zvE9QNTse+aF/036+Ojj3Y1L6djKKGvnRgAAODvjBRC1MUgYosakEa5PGHboZMETP1/83A8/C1km2LSJ3Y2ZxrIs06LSUhJKWgMAWP7e2lF5B776ofnU2Wfiqpr6ULcfPEAQ/QpTWQsQSUcNeUPAMjEfYqZNIMa8h1EMvskdF6jbSRPdSVgXMnazhrehpL/WEyXQevQkeL69GK61VN0tAApC9HwhEAlQo46I1hiQkvugPjsDjI/mgXnMCNDlDArniUUHiENtnho2b4dy+wJm0VmFihEDiqd/vmtKbxALQk27Nry2+PVHNnyy2nejVUWB0q4sFhVEZB4PCDYTSfrXF/Ha0v8CKuqQeBWgqTH0yrM/eH/dwplLizPya+8moW6eFCCT6IZjC/dsynh0/bZnEy9UzbFWOUdYXT6iKip4GKqhACUBATT9UwXDiBw0jRkJxpG5RD84AzR9ErF7C91FwJR2n/7HVBX8ldXgKb9EWo+fwtYTp8F96ttg0p87OK0wEHqhVCSMAKEICEwN7jIEFiG/EkrRAQYqEQwmoh+STmKmP4GxT00F0/Dc8EuCXi8Ien0nYk07tHNqr0jhMhkAZIBTY4fvHrD/658bapusqqgJV0vf7BETSoH4EapWrCOUahnxKsAeiqPlBRNXzv3lm0VAiLpp0yaBFBSodzT+45ZJAYGCXFmWaZEMEJTJVTYs/c3P/nnt44MramZZq50zLNWN/cwuEVRFC15CQLnSoDor9kLjll1AQKJCQgxo09NAlzkAdIPSQds/DTSpSUTqm4iC0QjUbCLUoEciSe2HZgYX0O9uI8zVgkpTM/irr4P3ShV4yy+Dp/wieM9fAd/lGlCbGlUENTKsStJQg2ihkhg8J9RpwGsUQJC04DPpFYhq/6hpaZNAVUHv8gL1+EBVVPCrCKof1LYT56DlRAmpXvUOsUwaQxJ/8jxaZ08NjONjjKDCOp289IrFCu6VCUGkO6baPxrw6ekn3YLQSQ6jtDMSaRYphkh19tnxi59fs/pXodz6Ox0kdKcyGUrDnVz+eeKs3zjGpp678gPj1YbxBmdruqXFq5d8LLJAjDHGFIzMIAQgIFFi0AbGyGm0hJr1QLU6JLpI4Ql6/MC8HsJcbcB8XmQuN6DXyyLfEbFEEqVhEvk1FFq1InrjjbVuq+WU2q/vBWdy/CU3FWp9acm1bQmmFo/L7dGZDToAAOOVWpvY4DTHAGZanO7B2mvXs0yVDVn6mhsSdbrBryIooqAwr1tg6AXz2NGQ/MYrEDv9+1D3RwdcnL+IWXRW4eL4nI9n7t08uxeJFZDDdxcvmT9q/e4PWHNbl3IYJhYhQBSVkXiDcP6FKSvnrl61FEGmIccc7i0IghzMo4oQ3IalpsJljvQRZZfGmS5XPWZy+/IMztZ0vV/Va1t9EBKdEOECbhNCYECF0vU9BUc6CTQQJRMEAkKwZ4RXItCmk9Bn0t5wW/SXmij7ypfev6RiYPLXh34083yPwy5ReLjks1j70ZKMAecuT0i6dmOG/tS5kZaaRiO6fOATBYV52gQGbuizYD4I1hio+eVvmVlnFs48krrxmS/2Pd97xAq+3fP270p96ZU3j1vKqvuouig57Hg4CwCEIdNpBeGCffwfZ69f+yKSZXifkKrTvQVzvaFjA9gQ0TKcznRLZd3gGLd/qFh5vY9Ghb7aNm+S4FUMoPpFyYeShBREpoIQtbNUmQIKFQAlAj4AVCXBo1h0zT4q1CsWY6U3RlfuMpnLKhOMF64+OaF83RT7FSDEF1aJUO6e3S4AADjsdrAXlGHHhguhYLbd4QBwOFi7tuiIwvL31w0fcvJ8YcLRkqfjK+r6hQimepoFKuiBSJKqRyaeGP3QmvmfFb9OenUBgjGabTP/YUPGJyXz2pWHdX5FA/3GH8s8uvi3S6afzh3XeDfm6PWGJZNlmRSVlhJw5GBXnYZtWGqafOCyFf9nmz613hUba7XGxTW547SiaKJt/rAWMr3k9ypKi89mdTfq9XUNWq2rfvzoG8UT+jnrSE5LV+oA9sDv38GLGL6P6N3xvP27Umft/r+fJO089OOE8vo+nsBAGBUAQC8R8fOHUxYtOFz8du++2cEY07uLl8w/kZSHx2mmGuql1e5PP0Q9KWbhwYzH6hfJcm7It4EHE0SWZYogU7TbBQSZ4l0K8yAAiXynTIPPiPzN7iFqDV776K9Dt84o2HgkKY+dIgPxmC7bfzzmYfbuvH8q7K041k3l8Mc/W3Mo7uvL/Xy6zrtDwpCJBlEomTzilRc2fbj2dnuMPyiEQ0QIDveODJ+0l3ZeE0dOwOLIAMsAoKioCCOdz+/d5iVkJDK2HZATztX298Qb4ct/fOLpn7711tZef5ihi9v18qubv9EOxmP6IR2sVrb/tJCJO4aN3wdXD+uDVo4Ax32FgBUOrMsiWc7dOjT/4KcJOS3LlyzJvydvaci/2J0//cgpMQuP6bL90cQ6IQzCQ2kj3f+xcGFgxsiDK4F/DyAh92bmijdSlo15/DnIztYA3KU2RrfBcgIAULjMka6/WjtYQQQgSKNohyJTQbHomq8+OaEcAMgyvnj3M5CAzGRZpjuWrqwsOnLoL1BW5ut1YoUQ7/WambtNuok3SnwaiRkvNtge2bBrNADg3Rh8zfE3NxgMo6xXrxOrqKgIAQC+NNIKjLfUUULCDdqiAoHMoDCaUH7tmeBlI1+6B0ATg9brnhArVL2zY+nKymuJ5s2SQIAwFuh2EFFt6kMAc8X1MTNXvJFCAFDmftYDh3uwYDIiAFmz9hdvnh2WukU0iAIoLKosCohKiRrrVpKnfPHt1HZbcQ5OrO5NJsDp3HGNczYvf/78c99/C1OshHj94YxLpBQNHgbJtc3TuoztcHBi3Ww3IcsyhbSxbQvXvfSLhpT4oxIyGjn2R+phCPHVzknL31s7ijgcarRjyMGJ1f1Owm4X6khOizMl4aBg0gX8raAcMo3AzLWt1vz/3Lhp1ew5swjI7E5H1XH8HRALINgfHoCcH5iy3WnVtxGVCWFHHoEwAiyxvL7/48fKt6yaPWdWyPnny/ZA7BLv+e8jXD2s3z13xaepR88/Fp4eFvmIqvP7xQsp+iNPff7OJEwb6wm7+RzcYnXlayEEfK3a5NhtqlkbkcPo8IMkgsWt5hb+6sPUQBGVzCWRE+sWchgMJXyVk7nLadE528lhB6TWu2L5knFi9diJBwD4dVHRGXda4pdakXaKxosKA0WgTWXZAyr5knFi9VwPQaZAiK81d1CZohc7yaEgEPANyzo+UpGqA44ZP+bhxOqBA09AZjYsNUmfHRsuuLyAlEblWxNGGIJSWW2VfzRZy5eME6uH3nuAQ4+u/HOMoa45QyG0QypN4OzQUuMcsWh9cWZQPrnzzol1xzpJFFFQYlqYccj2fTMAAIpK+REPJ9YtdTDAkR1vrKhz2yzlmsDIStYx5KBTGSTVuWYBoia6aoSDE6tLmyTLAef9zMCkNY02nV/j9YodQw5tlKLFreYunjdvWFAOeQT+PoZwP1zEgQMHEAHIuLPfns2bkF8Vo7J8bbPXiCQ8MIEAIarVy3SKWWraeuXCvv02G10WnILBwS1W15IYbNL20+0frf/i3xc87RoYf13w+Gi05VJVhL5O7zQblpqIw6Fyq8XRc10MloJvnVGw8Rvt4HZVPMelLOWLhFzc8Nri1/mT4hbr9uDIQQQgVzOTN7ti9UgCgwMCpBMpoS4fG/TBntV/HTn+3UDdYWjcDAcnVrcmqwgJAG5/xX7Y0zf2ioQgAAR6AwTnahGh2acOPX395Q8L5eX8UJoTq6fhB0SQaXFGfq2zr3WnIHTmDAqE+FWEvueqCwtfXZAZqm3jy8mJ1SNcG/TQPlesHonP3/46EYgiEKZ3K8m5l+sHA/CCC06sHiFwyPzei3MOumyWMgkZDctheBdJuPxxYn2H0AMAOZ07rrFhSL8d7fLhAx9ASWWkzSBWlfRLOAMQyevi4MS6ldUKE0np6GchYRQZsNyMc3/+9TsXAQBkmafScGL1xIcHmQGiRl92YUynVBqClBEKtKR80MyVS5OCxOLSyInVM+Q5/hBjaGjpyzqm0iAQP6+W5sT6rjg5ZnCLSqH5piEHSlHvQ4j7pmJitMPPwYnVHQLjfdPGttWm99kf8qvaaSVjRFURbG7/RN48hBPrtqiFAMQxZdRb5X00RwyqKhKVsUh/B0L9lKhWty951M6D3+NyyInVQ++dICDCjqUrK3/38iz7meFpW9QYrRCejRuUQ6MHIKPGPYPLISfWbZEr1IZwztF9hQ1ZqcU6RY0ESwlSBaGdHCI/kObE6glCzUOAEF99iu3jdtXSUbvDkByC3c79LE6sniHUPGRPkq64KcHUIDAMV0uHemllVbUUAACAw8H4snJi9dxqIcKguL4X6uNNByQh2Ls0SC6PQCHOo44OZDrw3SEn1m05XMuILMusKtGymxkk0Pn9osbPqEZRRVFhkHLDlzz++KVpALw87H6A+MDwKrjj2/vokD22kotb43SGnI6fcV27YuVyeL+s14OI7GzNzMKnbdH/uvzkVPfpuQtaQw3sOTg4ODg4ODg4ODg4ODg4ODg4ODg4ODg4ODg4usX/AzmNs5PnOBNYAAAAAElFTkSuQmCC";50.0579057461166;19.9201948386492
1005;Crusaders;Northern Ireland;Belfast;https://img.uefa.com/imgml/TP/teams/logos/100x100/52992.png;54.624294;-5.921925
1273;Crvena Zvezda;Serbia;Beograd;https://static.flashscore.com/res/image/data/AZ6dTVzS-4OAEfiPE.png;44.783333;20.464722
657;Csepel FC;Hungary;Budapest;https://tmssl.akamaized.net//images/wappen/normquad/4668.png?lm=1490383740;47.418891235832;19.0728155967261
1522;Cwmbran Town;Wales;Cwmbran;https://img.uefa.com/imgml/TP/teams/logos/100x100/59011.png;51.642778;-3.02
1308;DAC Dunajská Streda;Slovakia;Dunajská Streda;https://img.uefa.com/imgml/TP/teams/logos/100x100/50156.png;47.998889;17.618333
944;DOS;Netherlands;Utrecht;https://img.uefa.com/imgml/TP/teams/logos/100x100/64210.png;52.1061462081624;5.09845266632916
945;DWS Amsterdam;Netherlands;Amsterdam;https://tmssl.akamaized.net//images/wappen/normquad/8689.png?lm=1586974013;52.3868620189851;4.82774330564292
901;Dacia Chișinău;Moldova;Chișinău;https://img.uefa.com/imgml/TP/teams/logos/100x100/79949.png;47.022778;28.835278
156;Daring Club de Bruxelles;Belgium;Bruxelles;https://www.footballdatabase.eu/images/photos/clubs/a_3/3520.png;50.8545589873456;4.31037882971831
808;Daugava Daugavpils;Latvia;Daugavpils;https://img.uefa.com/imgml/TP/teams/logos/100x100/87914.png;55.874667;26.550619
807;Daugava Riga;Latvia;Riga;https://img.uefa.com/imgml/TP/teams/logos/100x100/85936.png;56.954997;24.158839
658;Debreceni VSC;Hungary;Debrecen;https://img.uefa.com/imgml/TP/teams/logos/100x100/52958.png;47.553889;21.633333
1394;Degerfors IF;Sweden;Degerfors;https://tmssl.akamaized.net//images/wappen/normquad/3641.png?lm=1525078982;59.238333;14.443056
1447;Denizlispor;Turkey;Denizli;https://img.uefa.com/imgml/TP/teams/logos/100x100/73447.png;37.7658976771325;29.0823341962054
1365;Deportivo Alavés;Spain;Alavés;https://static.flashscore.com/res/image/data/hrI86AzS-4U3vjZKk.png;42.837222;-2.688056
1366;Deportivo La Coruña;Spain;La Coruña;https://img.uefa.com/imgml/TP/teams/logos/100x100/59044.png;43.368714;-8.417516
403;Derby County;England;Derby;https://img.uefa.com/imgml/TP/teams/logos/100x100/52917.png;52.915;-1.447222
1132;Derry City;Republic of Ireland;Belfast;https://img.uefa.com/imgml/TP/teams/logos/100x100/50086.png;54.990556;-7.336111
1477;Desna Chernihiv;Ukraine;Chernihiv;https://img.uefa.com/imgml/TP/teams/logos/100x100/2605051.png;51.501667;31.327222
922;Dečić Tuzi;Montenegro;Tuzi;https://img.uefa.com/imgml/TP/teams/logos/100x100/2600105.png;42.359917;19.326333
278;Digenis Akritas Morphou;Cyprus;Morphou;https://tmssl.akamaized.net//images/wappen/normquad/4582.png?lm=1731273578;35.146111;33.314444
551;Dila Gori;Georgia;Gori;https://img.uefa.com/imgml/TP/teams/logos/100x100/64467.png;41.983056;44.103889
553;Dinamo Batumi;Georgia;Batumi;https://img.uefa.com/imgml/TP/teams/logos/100x100/59885.png;41.635278;41.619167
1179;Dinamo București;Romania;București;https://static.flashscore.com/res/image/data/Wfyr2BEa-EyedO184.png;44.46889;26.07492
127;Dinamo Minsk;Belarus;Minsk;https://img.uefa.com/imgml/TP/teams/logos/100x100/50161.png;53.895186;27.560056
554;Dinamo Tbilisi;Georgia;Tbilisi;https://img.uefa.com/imgml/TP/teams/logos/100x100/52705.png;41.723056;44.789722
0;Dinamo Tirana;Albania;Tirana;https://img.uefa.com/imgml/TP/teams/logos/100x100/52792.png;41.319006;19.811196
246;Dinamo Zagreb;Croatia;Zagreb;https://static.flashscore.com/res/image/data/YktDsvYg-GU4hlIMk.png;45.818889;16.018056
902;Dinamo-Auto;Moldova;Tiraspol;https://tmssl.akamaized.net//images/wappen/normquad/38921.png?lm=1554051128;46.82366;29.54723
660;Diósgyőri VTK;Hungary;Miskolc;https://img.uefa.com/imgml/TP/teams/logos/100x100/64176.png;48.099444;20.717222
1395;Djurgårdens IF;Sweden;Djurgårdens;https://img.uefa.com/imgml/TP/teams/logos/100x100/52809.png;59.29081;18.08534
129;Dnepr Mogilev;Belarus;Mogilev;https://img.uefa.com/imgml/TP/teams/logos/100x100/68224.png;53.905278;30.340556
1479;Dnipro Dnipropetrovsk;Ukraine;Dnipropetrovsk;https://img.uefa.com/imgml/TP/teams/logos/100x100/50158.png;48.460333;35.032472
796;Drita Gnjilane;Kosovo;Gjilan;https://img.uefa.com/imgml/TP/teams/logos/100x100/2608290.png;42.4668;21.4645
1134;Drogheda United;Republic of Ireland;Drogheda;https://img.uefa.com/imgml/TP/teams/logos/100x100/52378.png;53.723333;-6.357222
1135;Drumcondra;Republic of Ireland;Dublin;https://tmssl.akamaized.net//images/wappen/normquad/33019.png?lm=1681414423;53.401179;-6.245063
794;Dukagjini Klinë;Kosovo;Klinë;https://static.flashscore.com/res/image/data/pI0wcjBr-xYhfP1f5.png;42.617018;20.58092
1310;Dukla Banská Bystrica;Slovakia;Banská Bystrica;https://img.uefa.com/imgml/TP/teams/logos/100x100/52663.png;48.731947;19.131503
295;Dukla Praha;Czech Republic;Praha;https://img.uefa.com/imgml/TP/teams/logos/100x100/2600880.png;50.111944;14.3875
223;Dunav Ruse;Bulgaria;Ruse;https://img.uefa.com/imgml/TP/teams/logos/100x100/52888.png;43.848056;25.963056
661;Dunaújváros;Hungary;Dunaújváros;https://img.uefa.com/imgml/TP/teams/logos/100x100/69169.png;46.955833;18.947417
1136;Dundalk;Republic of Ireland;Dundalk;https://img.uefa.com/imgml/TP/teams/logos/100x100/50055.png;54.0;-6.4166
1246;Dundee;Scotland;Dundee;https://img.uefa.com/imgml/TP/teams/logos/100x100/53033.png;56.475264;-2.973194
1247;Dundee United;Scotland;Dundee;https://img.uefa.com/imgml/TP/teams/logos/100x100/50079.png;56.474703;-2.968961
1249;Dunfermline Athletic;Scotland;Dunfermline;https://img.uefa.com/imgml/TP/teams/logos/100x100/53034.png;56.075278;-3.441944
1008;Dungannon Swifts;Northern Ireland;Dungannon;https://img.uefa.com/imgml/TP/teams/logos/100x100/85008.png;54.4895;-6.746
131;Dynamo Brest;Belarus;Brest;https://img.uefa.com/imgml/TP/teams/logos/100x100/64374.png;52.089828;23.683914
590;Dynamo Dresden;Germany;Dresden;https://img.uefa.com/imgml/TP/teams/logos/100x100/50106.png;51.040753;13.74807
1478;Dynamo Kyiv;Ukraine;Kyiv;https://static.flashscore.com/res/image/data/KG9zc9yB-M1Cjh44S.png;50.433361;30.521861
1209;Dynamo Moskva;Russia;Moskva;https://img.uefa.com/imgml/TP/teams/logos/100x100/52704.png;55.791389;37.559722
1056;Dyskobolia Grodzisk Wielkopolski;Poland;Grodzisk Wielkopolski;https://img.uefa.com/imgml/TP/teams/logos/100x100/64228.png;52.2294221346501;16.3783672557178
459;EB/Streymur;Faroe Islands;Streymnes;https://img.uefa.com/imgml/TP/teams/logos/100x100/77483.png;62.1941;-7.0431
280;EPA Larnaca;Cyprus;Larnaca;https://img.uefa.com/imgml/TP/teams/logos/100x100/2604226.png;34.914167;33.628333
157;Eendracht Aalst;Belgium;Aalst;https://img.uefa.com/imgml/TP/teams/logos/100x100/59876.png;50.9503397396029;4.04422008386956
636;Egaleo;Greece;Athens;https://img.uefa.com/imgml/TP/teams/logos/100x100/77896.png;37.987169;23.676011
1;Egnatia Rrogozhinë;Albania;Rrogozhina;https://static.flashscore.com/res/image/data/pWu5xJBr-byNKiB8E.png;41.076806;19.661639
591;Eintracht Braunschweig;Germany;Braunschweig;https://img.uefa.com/imgml/TP/teams/logos/100x100/65172.png;52.29;10.521667
592;Eintracht Frankfurt;Germany;Frankfurt am Main;https://img.uefa.com/imgml/TP/teams/logos/100x100/50072.png;50.068572;8.645458
372;Eisenhüttenstädter FC Stahl;East Germany;Eisenhüttenstadt;https://tmssl.akamaized.net//images/wappen/normquad/551.png?lm=1564149906;52.145;14.672778
833;Ekranas Panevėžys;Lithuania;Panevėžys;https://img.uefa.com/imgml/TP/teams/logos/100x100/59035.png;55.739167;24.359444
1171;Electroputere Craiova;Romania;Craiova;https://tmssl.akamaized.net//images/wappen/normquad/6438.png?lm=1427655233;44.294639;23.807778
750;Empoli;Italy;Empoli;https://img.uefa.com/imgml/TP/teams/logos/100x100/64107.png;43.72648805601;10.9550026933861
279;Enosis Neon Paralimni;Cyprus;Paralimni;https://img.uefa.com/imgml/TP/teams/logos/100x100/52765.png;35.030833;33.987222
281;Ermis Aradippou;Cyprus;Aradippou;https://img.uefa.com/imgml/TP/teams/logos/100x100/77891.png;34.937417;33.620917
369;Erzgebirge Aue;East Germany;Aue;https://img.uefa.com/imgml/TP/teams/logos/100x100/52944.png;50.597778;12.711111
336;Esbjerg fB;Denmark;Esbjerg;https://img.uefa.com/imgml/TP/teams/logos/100x100/64140.png;55.481944;8.439444
1448;Eskişehirspor;Turkey;Eskişehir;https://img.uefa.com/imgml/TP/teams/logos/100x100/64266.png;39.7623402350644;30.4678277656227
1375;Espanyol;Spain;Barcelona;https://img.uefa.com/imgml/TP/teams/logos/100x100/54189.png;41.347861;2.075667
1101;Estrela de Amadora;Portugal;Estrela;https://tmssl.akamaized.net//images/wappen/normquad/2431.png?lm=1598342709;38.7521159088652;-9.22787524607532
224;Etar Veliko Tarnovo;Bulgaria;Veliko Tarnovo;https://img.uefa.com/imgml/TP/teams/logos/100x100/52889.png;43.077222;25.620556
282;Ethnikos Achna;Cyprus;Achna;https://img.uefa.com/imgml/TP/teams/logos/100x100/3306.png;35.146811;33.314444
861;Etzella Ettelbruck;Luxembourg;Ettelbruck;https://img.uefa.com/imgml/TP/teams/logos/100x100/75805.png;49.841111;6.095556
619;Europa FC;Gibraltar;Gibraltar;https://img.uefa.com/imgml/TP/teams/logos/100x100/2606416.png;36.149376;-5.350342
404;Everton;England;Liverpool;https://static.flashscore.com/res/image/data/EwJqZUZA-bRmKmISE.png;53.438889;-2.966389
862;F91 Dudelange;Luxembourg;Dudelange;https://static.flashscore.com/res/image/data/vRaZvZfM-tMgHdBpr.png;49.472222;6.084722
834;FA Šiauliai;Lithuania;Šiauliai;https://static.flashscore.com/res/image/data/4Wttb0hl-8j4GrWnF.png;55.933333;23.316667
835;FBK Kaunas;Lithuania;Kaunas;https://img.uefa.com/imgml/TP/teams/logos/100x100/60577.png;54.897222;23.936944
1420;FC Aarau;Switzerland;Aarau;https://img.uefa.com/imgml/TP/teams/logos/100x100/50035.png;47.383333;8.06
946;FC Amsterdam;Netherlands;Amsterdam;https://img.uefa.com/imgml/TP/teams/logos/100x100/64205.png;52.3434414628705;4.85407238850902
593;FC Augsburg;Germany;Augsburg;https://img.uefa.com/imgml/TP/teams/logos/100x100/2600978.png;48.3225;10.882222
827;FC Balzers;Liechtenstein;Balzers;https://tmssl.akamaized.net//images/wappen/normquad/5374.png?lm=1416137068;47.073881;9.495553
1367;FC Barcelona;Spain;Barcelona;https://static.flashscore.com/res/image/data/8dhw5vxS-fcDVLdrL.png;41.38087;2.122802
1103;FC Barreirense;Portugal;Barreirense;https://tmssl.akamaized.net//images/wappen/normquad/5707.png?lm=1438936259;38.650736566604;-9.06458935442273
1176;FC Botoșani;Romania;Botoșani;https://img.uefa.com/imgml/TP/teams/logos/100x100/2605104.png;47.7483;26.6519
1177;FC Brașov;Romania;Brașov;https://img.uefa.com/imgml/TP/teams/logos/100x100/53026.png;45.664806;25.585583
555;FC Chikhura;Georgia;Sachkhere;https://img.uefa.com/imgml/TP/teams/logos/100x100/92452.png;42.3433847323592;43.4117358556301
864;FC Differdange 03;Luxembourg;Differdange;https://img.uefa.com/imgml/TP/teams/logos/100x100/52309.png;49.522158;5.875475
809;FC Dinaburg;Latvia;Daugavpils;https://img.uefa.com/imgml/TP/teams/logos/100x100/60607.png;55.874637;26.55053
1232;FC Domagnano;San Marino;Domagnano;https://img.uefa.com/imgml/TP/teams/logos/100x100/64505.png;43.9453;12.4661
27;FC Encamp;Andorra;Encamp;https://img.uefa.com/imgml/TP/teams/logos/100x100/64115.png;42.530338;1.571699
135;FC Gomel;Belarus;Gomel;https://img.uefa.com/imgml/TP/teams/logos/100x100/66169.png;52.436667;31.012222
559;FC Iberia 1999;Georgia;Tbilisi;https://static.flashscore.com/res/image/data/bujrJCEa-rVsp3mPF.png;41.709722;44.746111
136;FC Isloch Minsk;Belarus;Minsk;https://static.flashscore.com/res/image/data/IebNiaCa-WjYPq7GL.png;53.860667;27.568611
371;FC Karl-Marx-Stadt;East Germany;Chemnitz;https://img.uefa.com/imgml/TP/teams/logos/100x100/52794.png;50.842186;12.945669
1338;FC Koper;Slovenia;Koper;https://img.uefa.com/imgml/TP/teams/logos/100x100/69617.png;45.542222;13.730278
67;FC Kärnten;Austria;Kärnten;https://img.uefa.com/imgml/TP/teams/logos/100x100/77867.png;46.6200011966422;14.3409605188985
1423;FC La Chaux-de-Fonds;Switzerland;La Chaux-de-Fonds;https://tmssl.akamaized.net//images/wappen/normquad/2055.png?lm=1667488753;47.1121448833789;6.83603259579852
1313;FC Lokomotiva Košice;Slovakia;Košice;https://img.uefa.com/imgml/TP/teams/logos/100x100/64521.png;48.740836;21.244497
28;FC Lusitanos;Andorra;Andorra la Vella;https://img.uefa.com/imgml/TP/teams/logos/100x100/75986.png;42.47639;1.48767
797;FC Malisheva;Kosovo;Malisheva;https://static.flashscore.com/res/image/data/6NTRAvFG-GlZoDEhC.png;42.4822;20.7247
1482;FC Mariupol;Ukraine;Mariupol;https://img.uefa.com/imgml/TP/teams/logos/100x100/64309.png;47.143722;37.558333
137;FC Minsk;Belarus;Minsk;https://img.uefa.com/imgml/TP/teams/logos/100x100/2600108.png;53.861667;27.578611
865;FC Mondercange;Luxembourg;Mondercange;https://img.uefa.com/imgml/TP/teams/logos/100x100/70419.png;49.536817;5.982933
1314;FC Nitra;Slovakia;Nitra;https://img.uefa.com/imgml/TP/teams/logos/100x100/52798.png;48.321857;18.087506
798;FC Prishtina;Kosovo;Prishtina;https://img.uefa.com/imgml/TP/teams/logos/100x100/2608287.png;42.66297;21.15688
30;FC Santa Coloma;Andorra;Santa Coloma;https://img.uefa.com/imgml/TP/teams/logos/100x100/62180.png;42.501389;1.513889
828;FC Schaan;Liechtenstein;Schaan;https://tmssl.akamaized.net//images/wappen/normquad/2043.png?lm=1725522448;47.1655;9.4926
467;FC Suðuroy;Faroe Islands;Vágur;https://img.uefa.com/imgml/TP/teams/logos/100x100/64151.png;61.465833;-6.836389
566;FC Tbilisi;Georgia;Tbilisi;https://tmssl.akamaized.net//images/wappen/normquad/13011.png?lm=1420655257;41.780833;44.776111
1428;FC Thun;Switzerland;Thun;https://img.uefa.com/imgml/TP/teams/logos/100x100/80409.png;46.744817;7.606075
899;FC Tiraspol;Moldova;Tiraspol;https://img.uefa.com/imgml/TP/teams/logos/100x100/60611.png;46.838633;29.5575
866;FC UNA Strassen;Luxembourg;Strassen;https://static.flashscore.com/res/image/data/UgZll1yB-OtNCFOTr.png;49.617859;6.07167
811;FC Ventspils;Latvia;Ventspils;https://img.uefa.com/imgml/TP/teams/logos/100x100/64359.png;57.38794;21.5721
138;FC Vitebsk;Belarus;Vitebsk;https://img.uefa.com/imgml/TP/teams/logos/100x100/64296.png;55.198333;30.229167
1429;FC Wettingen;Switzerland;Wettingen;https://img.uefa.com/imgml/TP/teams/logos/100x100/52825.png;47.4640226858873;8.31306753772449
1430;FC Wil 1900;Switzerland;Wil;https://img.uefa.com/imgml/TP/teams/logos/100x100/79950.png;47.4584539550634;9.03688052556372
47;FC Yerevan;Armenia;Yerevan;https://img.uefa.com/imgml/TP/teams/logos/100x100/62182.png;40.181944;44.49
1431;FC Zürich;Switzerland;Zürich;https://static.flashscore.com/res/image/data/8vRMwBXg-rXtfmGF6.png;47.3831680376238;8.50418789246601
1169;FCM Bacău;Romania;Bacău;https://tmssl.akamaized.net//images/wappen/normquad/3533.png?lm=1462692000;46.557222;26.913333
700;FH Hafnarfjörður;Iceland;Hafnarfjörður;https://img.uefa.com/imgml/TP/teams/logos/100x100/59329.png;64.075833;-21.938611
97;FK Baku;Azerbaijan;Baku;https://img.uefa.com/imgml/TP/teams/logos/100x100/68201.png;40.397333;49.852444
1272;FK Bežanija;Serbia;Novi Grad;https://tmssl.akamaized.net//images/wappen/normquad/10319.png?lm=1420206235;44.8081519474882;20.3738705542465
1277;FK Bor;Serbia;Bor;https://tmssl.akamaized.net//images/wappen/normquad/31146.png?lm=1535441602;44.071944;22.102472
1024;FK Haugesund;Norway;Haugesund;https://static.flashscore.com/res/image/data/vg5HTUCr-xYzsuAmf.png;59.413;5.279
300;FK Jablonec;Czech Republic;Jablonec;https://img.uefa.com/imgml/TP/teams/logos/100x100/62169.png;50.715;15.162222
1281;FK Jagodina;Serbia;Jagodina;https://img.uefa.com/imgml/TP/teams/logos/100x100/2600521.png;43.96885;21.268411
813;FK Jelgava;Latvia;Jelgava;https://img.uefa.com/imgml/TP/teams/logos/100x100/2602254.png;56.6608;23.7558
105;FK Karvan;Azerbaijan;Yevlax ;https://img.uefa.com/imgml/TP/teams/logos/100x100/88566.png;38.7472;48.8571
1210;FK Krasnodar;Russia;Krasnodar;https://img.uefa.com/imgml/TP/teams/logos/100x100/2601038.png;45.044167;39.029444
814;FK Liepāja;Latvia;Liepāja;https://img.uefa.com/imgml/TP/teams/logos/100x100/2606320.png;56.502918;20.995163
806;FK Liepājas Metalurgs;Latvia;Liepāja;https://img.uefa.com/imgml/TP/teams/logos/100x100/59881.png;56.502948;20.995163
846;FK Mažeikiai;Lithuania;Mažeikiai;https://img.uefa.com/imgml/TP/teams/logos/100x100/59331.png;56.2942;22.3405
932;FK Mogren;Montenegro;Budva;https://img.uefa.com/imgml/TP/teams/logos/100x100/71802.png;42.286328;18.850715
1211;FK Moskva;Russia;Moskva;https://img.uefa.com/imgml/TP/teams/logos/100x100/77489.png;55.716389;37.656389
1282;FK Obilić;Serbia;Beograd;https://img.uefa.com/imgml/TP/teams/logos/100x100/59874.png;44.791583;20.494639
837;FK Panevėžys;Lithuania;Panevėžys;https://img.uefa.com/imgml/TP/teams/logos/100x100/2608927.png;55.739367;24.359444
933;FK Podgorica;Montenegro;Podgorica;https://img.uefa.com/imgml/TP/teams/logos/100x100/2607980.png;42.41175;19.217361
816;FK Riga;Latvia;Riga;https://img.uefa.com/imgml/TP/teams/logos/100x100/2607924.png;56.961372;24.116408
838;FK Riteriai;Lithuania;Vilnius;https://img.uefa.com/imgml/TP/teams/logos/100x100/2606168.png;54.668911;25.294444
1212;FK Rostov;Russia;Rostov-na-Donu;https://img.uefa.com/imgml/TP/teams/logos/100x100/64500.png;47.209444;39.737778
194;FK Sarajevo;Bosnia and Herzegovina;Sarajevo;https://img.uefa.com/imgml/TP/teams/logos/100x100/64378.png;43.873889;18.408611
1315;FK Senica;Slovakia;Senica;https://img.uefa.com/imgml/TP/teams/logos/100x100/50100.png;48.684133;17.376808
1284;FK Sevojno;Serbia;Sevojno;https://tmssl.akamaized.net//images/wappen/normquad/70763.png?lm=1586441770;43.8413426179548;19.8950600406985
1297;FK Smederovo;Serbia;Smederevo;https://img.uefa.com/imgml/TP/teams/logos/100x100/64287.png;44.660633;20.901733
841;FK Tauras Tauragė;Lithuania;Tauras;https://img.uefa.com/imgml/TP/teams/logos/100x100/64352.png;55.2614;22.2794
305;FK Teplice;Czech Republic;Teplice;https://img.uefa.com/imgml/TP/teams/logos/100x100/64387.png;50.64;13.818056
1213;FK Ufa;Russia;Ufa;https://img.uefa.com/imgml/TP/teams/logos/100x100/2606415.png;54.826111;56.061667
1316;FK VTJ Koba Senec;Slovakia;Senec;https://img.uefa.com/imgml/TP/teams/logos/100x100/74073.png;48.217703;17.410412
937;FK Zeta Golubovci;Montenegro;Golubovci;https://static.flashscore.com/res/image/data/h24bQ1zB-4Uy7FtTH.png;42.328611;19.240556
307;FK Zlín;Czech Republic;Zlín;https://img.uefa.com/imgml/TP/teams/logos/100x100/65129.png;49.231389;17.669444
839;FK Šiauliai;Lithuania;Šiauliai;https://img.uefa.com/imgml/TP/teams/logos/100x100/77906.png;55.936667;23.295556
1250;Falkirk;Scotland;Falkirk;https://img.uefa.com/imgml/TP/teams/logos/100x100/89723.png;56.005136;-3.754269
133;Fandok Bobruysk;Belarus;Bobruysk;https://www.footballdatabase.eu/images/photos/clubs/a_4/4796.png;53.140578;29.217222
1172;Farul Constanța;Romania;Constanța;https://img.uefa.com/imgml/TP/teams/logos/100x100/2604753.png;44.236111;28.565639
1449;Fenerbahçe;Turkey;İstanbul;https://img.uefa.com/imgml/TP/teams/logos/100x100/52692.png;40.987778;29.036944
664;Ferencváros;Hungary;Budapest;https://static.flashscore.com/res/image/data/OvQtjVhl-QoejpLb1.png;47.475556;19.095278
952;Feyenoord;Netherlands;Rotterdam;https://img.uefa.com/imgml/TP/teams/logos/100x100/52749.png;51.8937793990742;4.52316863932759
1138;Finn Harps;Republic of Ireland;Ballybofey;https://img.uefa.com/imgml/TP/teams/logos/100x100/64238.png;54.798;-7.7785
480;FinnPa Helsinki;Finland;Helsinki;https://img.uefa.com/imgml/TP/teams/logos/100x100/64159.png;60.185833;24.924722
741;Fiorentina;Italy;Firenze;https://img.uefa.com/imgml/TP/teams/logos/100x100/52817.png;43.7808992543384;11.2827176719421
72;First Vienna FC 1894;Austria;Wien;https://img.uefa.com/imgml/TP/teams/logos/100x100/50112.png;48.2487630269486;16.3596776391046
1164;Flacăra Moreni;Romania;Moreni;https://img.uefa.com/imgml/TP/teams/logos/100x100/52820.png;44.981667;25.649444
14;Flamurtari Vlorë;Albania;Vlorë;https://img.uefa.com/imgml/TP/teams/logos/100x100/50070.png;40.455922;19.488986
443;Flora Tallinn;Estonia;Tallinn;https://img.uefa.com/imgml/TP/teams/logos/100x100/59341.png;59.4216368491423;24.7318520784244
882;Floriana;Malta;Floriana;https://img.uefa.com/imgml/TP/teams/logos/100x100/50092.png;35.893333;14.505833
954;Fortuna 54 Geleen;Netherlands;Geleen;https://tmssl.akamaized.net//images/wappen/normquad/38151.png?lm=1698090802;50.9921319505551;5.84324280120065
597;Fortuna Düsseldorf;Germany;Düsseldorf;https://img.uefa.com/imgml/TP/teams/logos/100x100/5926.png;51.261667;6.733056
955;Fortuna Sittard;Netherlands;Sittard;https://static.flashscore.com/res/image/data/4OfNxzwS-v57MjCA7.png;50.9918366629153;5.84391041729255
701;Fram Reykjavík;Iceland;Reykjavík;https://img.uefa.com/imgml/TP/teams/logos/100x100/50088.png;64.1331;-21.8908
598;Frankfurt XI;Germany;Frankfurt am Main;https://tmssl.akamaized.net/images/wappen/normquad/default.png?lm=1457423031;;
1025;Fredrikstad FK;Norway;Fredrikstad;https://img.uefa.com/imgml/TP/teams/logos/100x100/64211.png;59.213;10.927
1026;Frigg Oslo;Norway;Oslo;https://tmssl.akamaized.net//images/wappen/normquad/30831.png?lm=1695980018;59.9271033290511;10.709605282317
405;Fulham;England;London;https://static.flashscore.com/res/image/data/naaAVOzB-ImMEe0UF.png;51.475;-0.221667
1312;Futura Humenné;Slovakia;Humenné;https://upload.wikimedia.org/wikipedia/en/thumb/7/79/Hfc_humenne.png/100px-Hfc_humenne.png;48.92947;21.90511
702;Fylkir Reykjavík;Iceland;Reykjavík;https://img.uefa.com/imgml/TP/teams/logos/100x100/75049.png;64.113333;-21.792778
1027;Fyllingen Bergen;Norway;Bergen;https://tmssl.akamaized.net//images/wappen/normquad/6346.png?lm=1480871485;60.3419695194651;5.26767983803959
1396;GAIS;Sweden;Göteborg;https://img.uefa.com/imgml/TP/teams/logos/100x100/91862.png;57.70623;11.98014
1105;GD Chaves;Portugal;Chavves;https://img.uefa.com/imgml/TP/teams/logos/100x100/53016.png;41.75057041177;-7.46492153427369
1107;GD Estoril-Praia;Portugal;Estoril;https://img.uefa.com/imgml/TP/teams/logos/100x100/87944.png;38.715882716075;-9.40640009748726
1106;GD Fabril;Portugal;Barreiro;https://img.uefa.com/imgml/TP/teams/logos/100x100/64233.png;38.6576141472481;-9.0538193595741
978;GFK Tikveš;North Macedonia;Kavadarci;https://static.flashscore.com/res/image/data/h6f4Doh5-pzWJOM6s.png;41.435111;22.023361
1058;GKS Bełchatów;Poland;Bełchatów;https://gks.net.pl/wp-content/uploads/2017/01/xgks-belchatow-logo-1-128x128.png.pagespeed.ic.seNeVnKXpq.png;51.365751955919;19.3817966276474
1059;GKS Katowice;Poland;Katowice;https://img.sofascore.com/api/v1/team/3112/image;50.2798750490757;19.0014630030037
1060;GKS Tychy;Poland;Tychy;https://static.flashscore.com/res/image/data/S6X690Cr-E9hpVUbf.png;50.1242612164056;18.9904739042921
558;Gagra;Georgia;Tbilisi;https://img.uefa.com/imgml/TP/teams/logos/100x100/2600544.png;41.7916546626126;44.7800397424345
1451;Galatasaray;Turkey;İstanbul;https://static.flashscore.com/res/image/data/ziy5KsdM-dEXkR0Wq.png;41.102778;28.990556
1139;Galway United;Republic of Ireland;Claddagh;https://img.uefa.com/imgml/TP/teams/logos/100x100/52727.png;53.284722;-9.056389
48;Gandzasar;Armenia;Kapan;https://img.uefa.com/imgml/TP/teams/logos/100x100/92219.png;39.207787;46.400674
1165;Gaz Metan Mediaș;Romania;Mediaș;https://img.uefa.com/imgml/TP/teams/logos/100x100/75823.png;46.172583;24.35275
1453;Gaziantepspor;Turkey;Gaziantep;https://img.uefa.com/imgml/TP/teams/logos/100x100/60563.png;37.123889;37.3825
1397;Gefle IF;Sweden;Gefle;https://img.uefa.com/imgml/TP/teams/logos/100x100/89251.png;60.692153;17.135373
161;Genk;Belgium;Genk;https://img.uefa.com/imgml/TP/teams/logos/100x100/61582.png;51.005;5.533333
753;Genoa;Italy;Genova;https://img.uefa.com/imgml/TP/teams/logos/100x100/52972.png;44.4168004871883;8.95217160676462
160;Gent;Belgium;Gent;https://img.uefa.com/imgml/TP/teams/logos/100x100/4608.png;51.016079;3.733786
1454;Gençlerbirliği;Turkey;Ankara;https://img.uefa.com/imgml/TP/teams/logos/100x100/53055.png;39.9798430765437;32.6140250054612
1368;Getafe;Spain;Getafe;https://img.uefa.com/imgml/TP/teams/logos/100x100/87960.png;40.325556;-3.714722
1108;Gil Vicente;Portugal;Barcelos;https://static.flashscore.com/res/image/data/OlcT5cjl-MsGVFYVb.png;41.5510267513662;-8.62319717291954
1369;Girona;Spain;Girona;https://static.flashscore.com/res/image/data/xGkOqFDa-vPm0hQMN.png;41.961389;2.828611
1009;Glenavon;Northern Ireland;Lurgan;https://img.uefa.com/imgml/TP/teams/logos/100x100/50087.png;54.453889;-6.336389
1010;Glentoran;Northern Ireland;Belfast;https://img.uefa.com/imgml/TP/teams/logos/100x100/50056.png;54.603056;-5.891389
1160;Gloria Bistrița;Romania;Bistrița;https://img.uefa.com/imgml/TP/teams/logos/100x100/59037.png;47.130833;24.502778
956;Go Ahead Eagles;Netherlands;Deventer;https://img.uefa.com/imgml/TP/teams/logos/100x100/64207.png;52.260278;6.1725
1370;Granada;Spain;Granada;https://img.uefa.com/imgml/TP/teams/logos/100x100/2602893.png;37.152967;-3.595736
1432;Grasshopper;Switzerland;Zürich;https://img.uefa.com/imgml/TP/teams/logos/100x100/50004.png;47.3823544173203;8.50325448379219
73;Grazer AK;Austria;Graz;https://img.uefa.com/imgml/TP/teams/logos/100x100/51152.png;47.046111;15.454444
1260;Greenock Morton;Scotland;Greenock;https://tmssl.akamaized.net//images/wappen/normquad/3026.png?lm=1423125916;55.941389;-4.726944
1251;Gretna;Scotland;Gretna;https://img.uefa.com/imgml/TP/teams/logos/100x100/92320.png;54.993214;-3.071919
703;Grindavík;Iceland;Grindavík;https://img.uefa.com/imgml/TP/teams/logos/100x100/64183.png;63.844636;-22.429628
948;Groningen;Netherlands;Groningen;https://img.uefa.com/imgml/TP/teams/logos/100x100/50144.png;53.206111;6.591389
517;Gueugnon;France;Gueugnon;https://img.uefa.com/imgml/TP/teams/logos/100x100/75760.png;46.5950777350557;4.05602769374773
516;Guingamp;France;Guingamp;https://img.uefa.com/imgml/TP/teams/logos/100x100/60442.png;48.566285;-3.164599
1062;Gwardia Warszawa;Poland;Warszawa;https://img.uefa.com/imgml/TP/teams/logos/100x100/64220.png;52.1989520105647;20.9918425305185
666;Győri ETO FC;Hungary;Győr;https://img.uefa.com/imgml/TP/teams/logos/100x100/52287.png;47.695769;17.663827
460;GÍ Gøta;Faroe Islands;Gøta;https://tmssl.akamaized.net//images/wappen/normquad/10537.png?lm=1472420172;62.199788;-6.74552
1061;Górnik Zabrze;Poland;Zabrze;https://tmssl.akamaized.net/images/wappen/normquad/428.png?lm=1444671509;50.2962267009676;18.76864413184
1455;Göztepe;Turkey;İzmir;https://static.flashscore.com/res/image/data/fiv9SEWg-OGqQfjL1.png;38.3967284784058;27.0758963520599
883;Gżira United;Malta;Gżira;https://img.uefa.com/imgml/TP/teams/logos/100x100/64201.png;35.905;14.494444
461;HB Tórshavn;Faroe Islands;Tórshavn;https://img.uefa.com/imgml/TP/teams/logos/100x100/59025.png;62.019349;-6.781139
958;HFC Haarlem;Netherlands;Haarlem;https://img.uefa.com/imgml/TP/teams/logos/100x100/52328.png;52.410278;4.648889
483;HJK Helsinki;Finland;Helsinki;https://img.uefa.com/imgml/TP/teams/logos/100x100/50052.png;60.1875;24.9225
250;HNK Cibalia;Croatia;Vinkovci;https://img.uefa.com/imgml/TP/teams/logos/100x100/69081.png;45.283742;18.797382
200;HNK Orašje;Bosnia and Herzegovina;Orašje;https://img.uefa.com/imgml/TP/teams/logos/100x100/76315.png;45.029167;18.687222
252;HNK Šibenik;Croatia;Šibenik;https://img.uefa.com/imgml/TP/teams/logos/100x100/64384.png;43.743553;15.896058
484;HPS Helsinki;Finland;Helsinki;https://tmssl.akamaized.net//images/wappen/normquad/31711.png?lm=1718354100;60.2467521646907;24.9232087419842
1288;Hajduk Kula;Serbia;Kula;https://img.uefa.com/imgml/TP/teams/logos/100x100/61598.png;45.609722;19.528333
248;Hajduk Split;Croatia;Split;https://img.uefa.com/imgml/TP/teams/logos/100x100/52359.png;43.519444;16.431667
472;Haka;Finland;Valkeakoski;https://img.uefa.com/imgml/TP/teams/logos/100x100/52802.png;61.268056;24.020278
378;Hallescher FC;East Germany;Halle;https://img.uefa.com/imgml/TP/teams/logos/100x100/52945.png;51.465278;11.961944
1398;Halmstads BK;Sweden;Halmstad;https://img.uefa.com/imgml/TP/teams/logos/100x100/53048.png;56.684167;12.866389
599;Hamburger SV;Germany;Hamburg;https://img.uefa.com/imgml/TP/teams/logos/100x100/52167.png;53.587158;9.898617
1399;Hammarby IF;Sweden;Stockholm;https://img.uefa.com/imgml/TP/teams/logos/100x100/52343.png;59.2913907447828;18.0837843163668
600;Hannover 96;Germany;Hannover;https://img.uefa.com/imgml/TP/teams/logos/100x100/57488.png;52.360067;9.731197
380;Hansa Rostock;East Germany;Rostock;https://img.uefa.com/imgml/TP/teams/logos/100x100/52793.png;54.08495;12.095189
722;Hapoel Beer Sheva;Israel;Beersheba;https://img.uefa.com/imgml/TP/teams/logos/100x100/59340.png;31.27315;34.779361
724;Hapoel Bnei Sakhnin;Israel;Sakhnin;https://img.uefa.com/imgml/TP/teams/logos/100x100/84319.png;32.866692;35.31085
725;Hapoel Haifa;Israel;Haifa;https://img.uefa.com/imgml/TP/teams/logos/100x100/60573.png;32.7834718734845;34.9653490861758
726;Hapoel Ironi Kiryat Shmona;Israel;Kiryat Shmona;https://img.uefa.com/imgml/TP/teams/logos/100x100/2600291.png;33.208056;35.575694
727;Hapoel Ironi Rishon LeZion;Israel;Rishon LeZion;https://static.flashscore.com/res/image/data/YFIrNJZA-80mFJoEm.png;31.974994;34.752839
728;Hapoel Petah Tikva;Israel;Petah Tikva;https://img.uefa.com/imgml/TP/teams/logos/100x100/57478.png;32.104197;34.865078
729;Hapoel Ramat Gan;Israel;Ramat Gan;https://img.uefa.com/imgml/TP/teams/logos/100x100/83484.png;32.100278;34.824167
730;Hapoel Tel Aviv;Israel;Tel Aviv;https://img.uefa.com/imgml/TP/teams/logos/100x100/59869.png;32.0515745687322;34.7612703755678
1525;Haverfordwest County;Wales;Haverfordwest;https://img.uefa.com/imgml/TP/teams/logos/100x100/64283.png;51.809155;-4.967473
1252;Heart of Midlothian;Scotland;Edinburgh;https://img.uefa.com/imgml/TP/teams/logos/100x100/50120.png;55.939167;-3.232222
842;Hegelmann Kaunas;Lithuania;Kaunas;https://static.flashscore.com/res/image/data/b9sFwyvS-x6Y6RKeG.png;56.311111;22.336111
754;Hellas Verona;Italy;Verona;https://img.uefa.com/imgml/TP/teams/logos/100x100/52301.png;45.4349239806653;10.9688896565087
1400;Helsingborgs IF;Sweden;Helsingborg;https://img.uefa.com/imgml/TP/teams/logos/100x100/60401.png;56.049444;12.706944
482;Helsingfors IFK;Finland;Helsinki;https://tmssl.akamaized.net//images/wappen/normquad/20924.png?lm=1419719266;60.177705;24.92451
957;Heracles Almelo;Netherlands;Almelo;https://img.uefa.com/imgml/TP/teams/logos/100x100/89710.png;52.3387842812423;6.65073976172825
342;Herfølge BK;Denmark;Herfølge;https://img.uefa.com/imgml/TP/teams/logos/100x100/52911.png;55.413611;12.134167
601;Hertha BSC;Germany;Berlin;https://img.uefa.com/imgml/TP/teams/logos/100x100/5451.png;52.514722;13.239444
1254;Hibernian;Scotland;Edinburgh;https://img.uefa.com/imgml/TP/teams/logos/100x100/52821.png;55.961667;-3.165556
887;Hibernians;Malta;Paola;https://img.uefa.com/imgml/TP/teams/logos/100x100/52640.png;35.883056;14.513056
343;Holbæk B&I;Denmark;Holbæk;https://img.uefa.com/imgml/TP/teams/logos/100x100/64141.png;55.6974203629677;11.686604797243
1140;Home Farm;Republic of Ireland;Dublin;https://tmssl.akamaized.net//images/wappen/normquad/15288.png?lm=1651136096;53.377639;-6.251528
473;Honka Espoo;Finland;Espoo;https://img.uefa.com/imgml/TP/teams/logos/100x100/91760.png;60.179111;24.781306
406;Hull City;England;Kingston upon Hull;https://img.uefa.com/imgml/TP/teams/logos/100x100/2600537.png;53.746111;-0.367778
1063;Hutnik Kraków;Poland;Kraków;https://static.flashscore.com/res/image/data/40HxBJzB-0Wq7HGoH.png;50.0660721108842;20.0577741514259
344;Hvidovre IF;Denmark;Hvidovre;https://img.uefa.com/imgml/TP/teams/logos/100x100/64142.png;55.6312215374362;12.4828939552134
1401;IF Brommapojkarna;Sweden;Bromma;https://img.uefa.com/imgml/TP/teams/logos/100x100/2600094.png;59.362222;17.851667
1402;IF Elfsborg;Sweden;Borås;https://img.uefa.com/imgml/TP/teams/logos/100x100/52344.png;57.734472;12.934806
1403;IFK Göteborg;Sweden;Göteborg;https://img.uefa.com/imgml/TP/teams/logos/100x100/50066.png;57.7060006934419;11.9804725912712
1404;IFK Malmö;Sweden;Malmö;https://tmssl.akamaized.net//images/wappen/normquad/5200.png?lm=1458563281;55.595;12.995556
485;IFK Marienhamn;Finland;Marienhamn;https://img.uefa.com/imgml/TP/teams/logos/100x100/89248.png;60.102222;19.935278
1405;IFK Norrköping;Sweden;Norrköping;https://img.uefa.com/imgml/TP/teams/logos/100x100/50099.png;58.584444;16.173056
1406;IK Brage;Sweden;Borlänge;https://img.uefa.com/imgml/TP/teams/logos/100x100/50154.png;60.495;15.433889
1028;IK Start;Norway;Kristiansand;https://img.uefa.com/imgml/TP/teams/logos/100x100/52998.png;58.153611;8.028611
1029;IL Hødd;Norway;Ulsteinvik;https://img.uefa.com/imgml/TP/teams/logos/100x100/2603713.png;62.339694;5.881472
345;Ikast FS;Denmark;Ikast;https://img.uefa.com/imgml/TP/teams/logos/100x100/50119.png;56.144848;9.146501
437;Infonet Tallinn;Estonia;Tallinn;https://img.uefa.com/imgml/TP/teams/logos/100x100/2605474.png;59.436206;24.840979
836;Inkaras Kaunas;Lithuania;Kaunas;https://img.uefa.com/imgml/TP/teams/logos/100x100/59883.png;54.9122;23.8542
1307;Inter Bratislava;Slovakia;Bratislava;https://tmssl.akamaized.net//images/wappen/normquad/216.png?lm=1533296446;48.166153;17.142506
31;Inter Club d'Escaldes;Andorra;Escaldes-Engordany;https://img.uefa.com/imgml/TP/teams/logos/100x100/63401.png;42.508889;1.540833
755;Inter Milan;Italy;Milano;https://img.uefa.com/imgml/TP/teams/logos/100x100/50138.png;45.4783731895057;9.12416741662585
475;Inter Turku;Finland;Turku;https://img.uefa.com/imgml/TP/teams/logos/100x100/64161.png;60.442778;22.291667
254;Inter Zaprešić;Croatia;Zaprešić;https://img.uefa.com/imgml/TP/teams/logos/100x100/57467.png;45.864722;15.799722
1340;Interblock Ljubljana;Slovenia;Ljubljana;https://img.uefa.com/imgml/TP/teams/logos/100x100/92786.png;46.069722;14.499722
1256;Inverness Caledonian Thistle;Scotland;Inverness;https://img.uefa.com/imgml/TP/teams/logos/100x100/88279.png;57.494722;-4.2175
637;Ionikos Nikaias;Greece;Nikaia;https://img.uefa.com/imgml/TP/teams/logos/100x100/64172.png;37.977122;23.635
407;Ipswich Town;England;Ipswich;https://static.flashscore.com/res/image/data/zm5vbmDa-jXzj6iAf.png;52.055061;1.144831
638;Iraklis Thessaloniki;Greece;Thessaloniki;https://img.uefa.com/imgml/TP/teams/logos/100x100/59868.png;40.625497;22.967003
777;Irtysh Pavlodar;Kazakhstan;Pavlodar;https://img.uefa.com/imgml/TP/teams/logos/100x100/79964.png;52.276383;76.949712
929;Iskra Danilovgrad;Montenegro;Danilovgrad;https://img.uefa.com/imgml/TP/teams/logos/100x100/2602858.png;42.554083;19.102944
910;Iskra Rîbnița;Moldova;Tiraspol;https://img.uefa.com/imgml/TP/teams/logos/100x100/92785.png;47.774561;29.004309
818;JFK Olimps;Latvia;Riga;https://img.uefa.com/imgml/TP/teams/logos/100x100/89619.png;56.955297;24.158839
488;JJK Jyväskylä;Finland;Jyväskylä;https://img.uefa.com/imgml/TP/teams/logos/100x100/2600603.png;62.244722;25.740833
1064;Jagiellonia Białystok;Poland;Białystok;https://www.wikipasy.pl/images/thumb/2/2b/Jagiellonia_Bia%C5%82ystok_stary_herb.png/100px-Jagiellonia_Bia%C5%82ystok_stary_herb.png;53.1059876508003;23.1494542464506
476;Jazz Pori;Finland;Pori;https://img.uefa.com/imgml/TP/teams/logos/100x100/59327.png;61.476667;21.774444
867;Jeunesse Esch;Luxembourg;Esch;https://img.uefa.com/imgml/TP/teams/logos/100x100/50059.png;49.485833;5.976944
868;Jeunesse Hautcharage;Luxembourg;Hautcharage;https://tmssl.akamaized.net//images/wappen/normquad/21947.png?lm=1618343582;49.5667;5.9167
1166;Jiul Petroșani;Romania;Petroșani;https://tmssl.akamaized.net//images/wappen/normquad/9830.png?lm=1618761044;45.408333;23.3675
477;Jokerit;Finland;Helsinki;https://img.uefa.com/imgml/TP/teams/logos/100x100/68498.png;60.1875;24.9225
1229;Juvenes-Dogana;San Marino;Dogana;https://img.uefa.com/imgml/TP/teams/logos/100x100/76593.png;43.971389;12.476944
757;Juventus;Italy;Torino;https://static.flashscore.com/res/image/data/CbDOFGyS-EXzXDYgS.png;45.109444;7.641111
707;KA Akureyri;Iceland;Akureyri;https://tmssl.akamaized.net//images/wappen/normquad/1839.png?lm=1423493916;65.686083;-18.095211
13;KF Elbasani;Albania;Elbasan;https://img.uefa.com/imgml/TP/teams/logos/100x100/50048.png;41.115875;20.091992
801;KF Feronikeli;Kosovo;Glogovac;https://img.uefa.com/imgml/TP/teams/logos/100x100/2608281.png;42.616446;20.903551
4;KF Laçi;Albania;Laçi;https://img.uefa.com/imgml/TP/teams/logos/100x100/64111.png;41.642472;19.711667
802;KF Llapi;Kosovo;Podujevo;https://img.uefa.com/imgml/TP/teams/logos/100x100/2608286.png;42.905073;21.19489
6;KF Tirana;Albania;Tirana;https://img.uefa.com/imgml/TP/teams/logos/100x100/50049.png;41.3186111359417;19.8113891154211
803;KF Trepça'89;Kosovo;Mitrovica;https://img.uefa.com/imgml/TP/teams/logos/100x100/2608283.png;42.888056;20.861417
490;KPV Kokkola;Finland;Kokkola;https://img.uefa.com/imgml/TP/teams/logos/100x100/64156.png;63.8420616686957;23.1223244266393
709;KR Reykjavík;Iceland;Reykjavík;https://img.uefa.com/imgml/TP/teams/logos/100x100/52307.png;64.145683;-21.967728
19;KS Tomori Berat;Albania;Berat;https://img.uefa.com/imgml/TP/teams/logos/100x100/52877.png;40.698889;19.964444
710;KS/Leiftur;Iceland;Ólafsfjörður;https://img.uefa.com/imgml/TP/teams/logos/100x100/61586.png;66.0708526492754;-18.6537761737686
162;KSC Lokeren;Belgium;Lokeren;https://img.uefa.com/imgml/TP/teams/logos/100x100/51949.png;51.116389;3.987222
163;KSK Beveren;Belgium;Beveren;https://img.uefa.com/imgml/TP/teams/logos/100x100/52764.png;51.2143531571781;4.24412829601915
164;KSV Roeselare;Belgium;Roeselare;https://img.uefa.com/imgml/TP/teams/logos/100x100/89676.png;50.9519499299748;3.10543958159826
165;KSV Waregem;Belgium;Waregem;https://img.uefa.com/imgml/TP/teams/logos/100x100/50115.png;50.8832839489141;3.42889946970599
491;KTP Kotka;Finland;Kotka;https://tmssl.akamaized.net//images/wappen/normquad/7315.png?lm=1443854478;60.4575;26.939722
166;KV Mechelen;Belgium;Mechelen;https://img.uefa.com/imgml/TP/teams/logos/100x100/50075.png;51.0372012610841;4.48635812023878
167;KV Ostende;Belgium;Ostende;https://img.uefa.com/imgml/TP/teams/logos/100x100/68496.png;51.216944;2.886389
778;Kairat Almaty;Kazakhstan;Almaty;https://img.uefa.com/imgml/TP/teams/logos/100x100/79970.png;43.238331;76.92435
1407;Kalmar FF;Sweden;Kalmar;https://img.uefa.com/imgml/TP/teams/logos/100x100/54187.png;56.69123;16.31493
255;Kamen Ingrad;Croatia;Velika;https://img.uefa.com/imgml/TP/teams/logos/100x100/77890.png;45.440833;17.663333
1459;Kardemir Karabükspor;Turkey;Karabük;https://img.uefa.com/imgml/TP/teams/logos/100x100/2602463.png;41.204444;32.62
843;Kareda Šiauliai;Lithuania;Šiauliai;https://img.uefa.com/imgml/TP/teams/logos/100x100/60610.png;55.9367;23.2956
602;Karlsruher SC;Germany;Karlsruhe;https://img.uefa.com/imgml/TP/teams/logos/100x100/52936.png;49.02;8.413056
1485;Karpaty Lviv;Ukraine;Lviv;https://img.uefa.com/imgml/TP/teams/logos/100x100/59032.png;49.819234;24.048193
844;Kauno Žalgiris;Lithuania;Kaunas;https://img.uefa.com/imgml/TP/teams/logos/100x100/2605907.png;54.897422;23.936944
789;Kaysar Kyzylorda;Kazakhstan;Kyzylorda;https://img.uefa.com/imgml/TP/teams/logos/100x100/79971.png;44.826029;65.503439
1460;Kayseri Erciyesspor;Turkey;Kayseri;https://img.uefa.com/imgml/TP/teams/logos/100x100/64269.png;38.7346210465352;35.4229608178604
1461;Kayserispor;Turkey;Kayseri;https://img.uefa.com/imgml/TP/teams/logos/100x100/88359.png;38.737222;35.423056
667;Kecskeméti TE;Hungary;Kecskeméti;https://img.uefa.com/imgml/TP/teams/logos/100x100/77898.png;46.901389;19.668889
705;Keflavík ÍF;Iceland;Reykjanesbær;https://img.uefa.com/imgml/TP/teams/logos/100x100/59328.png;63.997997;-22.559224
603;Kickers Offenbach;Germany;Offenbach;https://tmssl.akamaized.net//images/wappen/normquad/107.png?lm=1403943577;50.094275;8.798666
1257;Kilmarnock;Scotland;Kilmarnock;https://img.uefa.com/imgml/TP/teams/logos/100x100/62178.png;55.604225;-4.508122
670;Kisvárda FC;Hungary;Kisvárda;https://static.flashscore.com/res/image/data/vLF7ihg5-v55CsMXC.png;48.225434;22.087968
346;Kjøbenhavns BK;Denmark;København;https://img.uefa.com/imgml/TP/teams/logos/100x100/52232.png;55.676981;12.494894
1462;Kocaelispor;Turkey;İzmir;https://img.uefa.com/imgml/TP/teams/logos/100x100/59014.png;40.774722;30.0175
560;Kolkheti-1913 Poti;Georgia;Poti;https://img.uefa.com/imgml/TP/teams/logos/100x100/60564.png;42.1425;41.665556
1486;Kolos Kovalivka;Ukraine;Kovalivka;https://img.uefa.com/imgml/TP/teams/logos/100x100/2609189.png;49.985833;30.008333
671;Komlói Bányász SK;Hungary;Komló;https://tmssl.akamaized.net//images/wappen/normquad/30899.png?lm=1486994085;46.1939656108772;18.2575210966549
1030;Kongsvinger IL;Norway;Kongsvinger;https://img.uefa.com/imgml/TP/teams/logos/100x100/52999.png;60.195278;11.987222
1463;Konyaspor;Turkey;Konya;https://img.uefa.com/imgml/TP/teams/logos/100x100/84515.png;37.9463044117304;32.4881708189436
489;Koparit;Finland;Koparit;https://tmssl.akamaized.net/images/wappen/normquad/default.png?lm=1457423031;62.882611449389;27.7001678251328
49;Kotayk;Armenia;Abovyan;https://static.flashscore.com/res/image/data/E5MiyPEa-lYH3EwsT.png;40.26841;44.635241
74;Kremser SC;Austria;Krems;https://tmssl.akamaized.net//images/wappen/normquad/2082.png?lm=1591731917;48.4062046080697;15.5974488407748
845;Kruoja Pakruojis;Lithuania;Pakruojis;https://img.uefa.com/imgml/TP/teams/logos/100x100/2600621.png;55.9825;23.864861
1214;Krylya Sovetov Samara;Russia;Samara;https://img.uefa.com/imgml/TP/teams/logos/100x100/58954.png;53.277778;50.237222
1487;Kryvbas Kryvyi Rih;Ukraine;Kryvyi Rih;https://img.uefa.com/imgml/TP/teams/logos/100x100/64527.png;47.9175647542927;33.4171414366016
492;KuPS Kuopio;Finland;Kuopio;https://img.uefa.com/imgml/TP/teams/logos/100x100/52350.png;62.88463;27.6718
1215;Kuban Krasnodar;Russia;Krasnodar;https://img.uefa.com/imgml/TP/teams/logos/100x100/85939.png;45.025278;38.999444
2;Kukësi;Albania;Kukës;https://img.uefa.com/imgml/TP/teams/logos/100x100/2604186.png;42.078889;20.420278
478;Kuusysi Lahti;Finland;Lahti;https://static.flashscore.com/res/image/data/jcKjLsHG-lrcc7C3n.png;60.986389;25.650278
779;Kyzylzhar Petropavl;Kazakhstan;Petropavl;https://static.flashscore.com/res/image/data/K4Z5TLcM-IkFuhJvJ.png;54.874085;69.152074
464;KÍ Klaksvik;Faroe Islands;Klaksvik;https://img.uefa.com/imgml/TP/teams/logos/100x100/57475.png;62.225246;-6.579201
337;København;Denmark;København;https://img.uefa.com/imgml/TP/teams/logos/100x100/52709.png;55.7028211186762;12.5721716239985
347;Køge BK;Denmark;Køge;https://tmssl.akamaized.net//images/wappen/normquad/5766.png?lm=1496608752;55.4676452180374;12.1768075972279
102;Kəpəz Gəncə;Azerbaijan;Gəncə;https://img.uefa.com/imgml/TP/teams/logos/100x100/59889.png;40.706111;46.361944
75;LASK;Austria;Linz;https://img.uefa.com/imgml/TP/teams/logos/100x100/63405.png;48.2925958185394;14.2757027256131
479;Lahti;Finland;Lahti;https://static.flashscore.com/res/image/data/hQ0YnqYg-tGlVXFkM.png;60.983056;25.634167
1408;Landskrona BoIS;Sweden;Landskrona;https://img.uefa.com/imgml/TP/teams/logos/100x100/64258.png;55.889934;12.83761
438;Lantana Tallinn;Estonia;Tallinn;https://img.uefa.com/imgml/TP/teams/logos/100x100/59882.png;59.506592;24.82805
1012;Larne;Northern Ireland;Larne;https://img.uefa.com/imgml/TP/teams/logos/100x100/85009.png;54.849803;-5.826258
1387;Las Palmas;Spain;Las Palmas de Gran Canaria;https://img.uefa.com/imgml/TP/teams/logos/100x100/64251.png;28.100278;-15.456667
1433;Lausanne Sports;Switzerland;Lausanne;https://img.uefa.com/imgml/TP/teams/logos/100x100/4251.png;46.543889;6.622778
763;Lazio;Italy;Roma;https://img.uefa.com/imgml/TP/teams/logos/100x100/52973.png;41.9343676132329;12.454618366296
1066;Lech Poznań;Poland;Poznań;https://tmssl.akamaized.net/images/wappen/normquad/238.png?lm=1667394613;52.397686570252;16.858232531971
1067;Lechia Gdańsk;Poland;Gdańsk;https://tmssl.akamaized.net/images/wappen/normquad/4000.png?lm=1549363805;54.3901597836898;18.6400157291224
408;Leeds United;England;Leeds;https://static.flashscore.com/res/image/data/rsvCPOh5-O4P6Zhap.png;53.777778;-1.572222
1055;Legia Warszawa;Poland;Warszawa;https://s9.tvp.pl/images-enet/9/4/5/uid_94558184a54cc539091c70c5aeb7f1fd_width_100_height_100_gs_0.png;52.22031;21.040664
409;Leicester City;England;Leicester;https://img.uefa.com/imgml/TP/teams/logos/100x100/53577.png;52.620278;-1.142222
381;Leipzig XI;East Germany;Leipzig;https://tmssl.akamaized.net/images/wappen/normquad/default.png?lm=1457423031;;
1109;Leixões SC;Portugal;Matosinhos;https://img.uefa.com/imgml/TP/teams/logos/100x100/64234.png;41.183969;-8.666919
535;Lens;France;Lens;https://img.uefa.com/imgml/TP/teams/logos/100x100/52277.png;50.432778;2.815
192;Leotar Trebinje;Bosnia and Herzegovina;Trebinje;https://tmssl.akamaized.net//images/wappen/normquad/3451.png?lm=1460843786;42.708556;18.354917
439;Levadia Tallinn;Estonia;Tallinn;https://img.uefa.com/imgml/TP/teams/logos/100x100/77482.png;59.4210692192437;24.7322597741657
1371;Levante;Spain;Valencia;https://img.uefa.com/imgml/TP/teams/logos/100x100/87959.png;39.494722;-0.364167
225;Levski Sofia;Bulgaria;Sofia;https://img.uefa.com/imgml/TP/teams/logos/100x100/50044.png;42.705556;23.363333
169;Lierse SK;Belgium;Lier;https://img.uefa.com/imgml/TP/teams/logos/100x100/8404.png;51.144167;4.573611
525;Lille;France;Lille;https://img.uefa.com/imgml/TP/teams/logos/100x100/75797.png;50.611883;3.130428
1031;Lillestrøm;Norway;Lillestrøm;https://img.uefa.com/imgml/TP/teams/logos/100x100/52314.png;59.964;11.063
1141;Limerick;Republic of Ireland;Limerick;https://img.uefa.com/imgml/TP/teams/logos/100x100/62243.png;52.674167;-8.6425
622;Lincoln Red Imps;Gibraltar;Gibraltar;https://img.uefa.com/imgml/TP/teams/logos/100x100/2605572.png;36.149356;-5.350542
1014;Linfield;Northern Ireland;Belfast;https://img.uefa.com/imgml/TP/teams/logos/100x100/50134.png;54.5825;-5.955278
1007;Lisburn Distillery;Northern Ireland;Belfast;https://img.uefa.com/imgml/TP/teams/logos/100x100/52993.png;54.535833;-6.003611
228;Litex Lovech;Bulgaria;Lovech;https://img.uefa.com/imgml/TP/teams/logos/100x100/64126.png;43.142639;24.724861
410;Liverpool;England;Liverpool;https://img.sofascore.com/api/v1/team/44/image;53.430819;-2.960828
1259;Livingston;Scotland;Livingston;https://img.uefa.com/imgml/TP/teams/logos/100x100/77915.png;55.886167;-3.522872
742;Livorno;Italy;Livorno;https://img.uefa.com/imgml/TP/teams/logos/100x100/88183.png;43.5266660075118;10.3145139013483
1528;Llandudno FC;Wales;Llandudno;https://img.uefa.com/imgml/TP/teams/logos/100x100/2604434.png;53.3158;-3.8296
1529;Llanelli AFC;Wales;Llanelli;https://img.uefa.com/imgml/TP/teams/logos/100x100/73932.png;51.6839;-4.1476
1216;Lokomotiv Moskva;Russia;Moskva;https://img.uefa.com/imgml/TP/teams/logos/100x100/53065.png;55.803611;37.741111
229;Lokomotiv Plovdiv;Bulgaria;Plovdiv;https://img.uefa.com/imgml/TP/teams/logos/100x100/52369.png;42.133889;24.771667
230;Lokomotiv Sofia;Bulgaria;Sofia;https://img.uefa.com/imgml/TP/teams/logos/100x100/52891.png;42.737639;23.314806
561;Lokomotiv Tbilisi;Georgia;Tbilisi;https://img.uefa.com/imgml/TP/teams/logos/100x100/64325.png;41.709722;44.746111
256;Lokomotiva Zagreb;Croatia;Zagreb;https://img.uefa.com/imgml/TP/teams/logos/100x100/2600783.png;45.804722;15.960833
412;London XI;England;London;https://tmssl.akamaized.net/images/wappen/normquad/default.png?lm=1457423031;;
1143;Longford Town;Republic of Ireland;Longford;https://img.uefa.com/imgml/TP/teams/logos/100x100/75821.png;53.724;-7.854
518;Lorient;France;Lorient;https://img.uefa.com/imgml/TP/teams/logos/100x100/68499.png;47.748747;-3.369367
930;Lovćen Cetinje;Montenegro;Cetinje;https://img.uefa.com/imgml/TP/teams/logos/100x100/2600290.png;42.392578;18.924401
231;Ludogorets Razgrad;Bulgaria;Razgrad;https://img.uefa.com/imgml/TP/teams/logos/100x100/2603104.png;43.534556;26.527722
16;Luftëtari Gjirokastër;Albania;Gjirokastër;https://img.uefa.com/imgml/TP/teams/logos/100x100/64110.png;40.081211;20.138092
1416;Lugano;Switzerland;Lugano;https://img.uefa.com/imgml/TP/teams/logos/100x100/8538.png;46.023611;8.961667
1425;Luzern;Switzerland;Luzern;https://img.uefa.com/imgml/TP/teams/logos/100x100/52808.png;47.033264;8.305187
1022;Lyn 1896 Fotballklubb;Norway;Oslo;https://img.uefa.com/imgml/TP/teams/logos/100x100/64215.png;59.9254229742889;10.7338245730808
348;Lyngby BK;Denmark;Lyngby;https://static.flashscore.com/res/image/data/jPnZyPCr-fZdE6zOJ.png;55.781530006304;12.5075458260838
1319;MFK Košice;Slovakia;Košice;https://img.uefa.com/imgml/TP/teams/logos/100x100/59029.png;48.741136;21.244497
1320;MFK Ružomberok;Slovakia;Ružomberok;https://img.uefa.com/imgml/TP/teams/logos/100x100/64319.png;49.0825;19.283889
319;MFK Vítkovice;Czech Republic;Vítkovice;https://tmssl.akamaized.net//images/wappen/normquad/8685.png?lm=1455142834;49.8037934759526;18.2559513140571
604;MSV Duisburg;Germany;Duisburg;https://static.flashscore.com/res/image/data/SA8VA2eM-llQ95ECr.png;51.4090358376131;6.77863598106207
675;MTK Budapest;Hungary;Budapest;https://img.uefa.com/imgml/TP/teams/logos/100x100/52815.png;47.490833;19.106667
731;Maccabi Haifa;Israel;Haifa;https://img.uefa.com/imgml/TP/teams/logos/100x100/59045.png;32.7826871319982;34.9654027303645
733;Maccabi Netanya;Israel;Netanya;https://img.uefa.com/imgml/TP/teams/logos/100x100/73561.png;32.294333;34.864575
734;Maccabi Petah Tikva;Israel;Petah Tikva;https://img.uefa.com/imgml/TP/teams/logos/100x100/61576.png;32.104197;34.865078
735;Maccabi Tel Aviv;Israel;Tel Aviv;https://img.uefa.com/imgml/TP/teams/logos/100x100/57477.png;32.0513925589749;34.7618225708848
977;Makedonija Gjorče Petrov;North Macedonia;Gjorče Petrov;https://img.uefa.com/imgml/TP/teams/logos/100x100/64395.png;42.002222;21.36
1464;Malatyaspor;Turkey;Malatya;https://tmssl.akamaized.net//images/wappen/normquad/1264.png?lm=1441755509;38.3622142287935;38.2724796282738
1376;Mallorca;Spain;Mallorca;https://img.uefa.com/imgml/TP/teams/logos/100x100/53044.png;39.59;2.63
1409;Malmö FF;Sweden;Malmö;https://img.uefa.com/imgml/TP/teams/logos/100x100/50152.png;55.583611;12.987778
413;Manchester City;England;Manchester;https://img.uefa.com/imgml/TP/teams/logos/100x100/52919.png;53.482989;-2.200292
415;Manchester United;England;Manchester;https://img.uefa.com/imgml/TP/teams/logos/100x100/52682.png;53.463056;-2.291389
233;Marek Dupnitsa;Bulgaria;Dimitrov;https://img.uefa.com/imgml/TP/teams/logos/100x100/70090.png;42.275306;23.135639
562;Margveti Zestafoni;Georgia;Zestafoni;https://img.uefa.com/imgml/TP/teams/logos/100x100/60608.png;42.111611;43.025972
1341;Maribor;Slovenia;Maribor;https://static.flashscore.com/res/image/data/v9py2TeM-Qq0MLsKR.png;46.562222;15.640278
889;Marsa;Malta;Marsa;https://static.flashscore.com/res/image/data/CY4F0KWg-ITgD2zoA.png;35.883333;14.494722
890;Marsaxlokk;Malta;Marsaxlokk;https://img.uefa.com/imgml/TP/teams/logos/100x100/79948.png;35.836444;14.543444
1100;Marítimo;Portugal;Funchal;https://static.flashscore.com/res/image/data/WjUA77Br-MyFeHWzn.png;32.645561;-16.928331
1465;Mersin İdmanyurdu;Turkey;Mersin;https://tmssl.akamaized.net//images/wappen/normquad/69486.png?lm=1698411394;36.8205911634306;34.5389470249949
1531;Merthyr Town;Wales;Merthyr Tydfil;https://tmssl.akamaized.net//images/wappen/normquad/3937.png?lm=1673438784;51.7511964940767;-3.37762530883429
1489;Metalist Kharkiv;Ukraine;Kharkiv;https://img.uefa.com/imgml/TP/teams/logos/100x100/50102.png;49.980858;36.261703
982;Metalurg Skopje;North Macedonia;Skopje;https://img.uefa.com/imgml/TP/teams/logos/100x100/2600538.png;42.006667;21.461111
568;Metalurgi Rustavi;Georgia;Rustavi;https://tmssl.akamaized.net//images/wappen/normquad/5155.png?lm=1420654652;41.541;45.006944
1490;Metalurh Donetsk;Ukraine;Donetsk;https://img.uefa.com/imgml/TP/teams/logos/100x100/64312.png;47.973222;37.798139
1491;Metalurh Zaporizhya;Ukraine;Zaporizhya;https://img.uefa.com/imgml/TP/teams/logos/100x100/64524.png;47.859627;35.096952
519;Metz;France;Metz;https://img.uefa.com/imgml/TP/teams/logos/100x100/50083.png;49.109722;6.159444
416;Middlesbrough;England;Middlesbrough;https://img.uefa.com/imgml/TP/teams/logos/100x100/69600.png;54.578333;-1.216944
339;Midtjylland;Denmark;Herning;https://img.uefa.com/imgml/TP/teams/logos/100x100/75795.png;56.1168845599555;8.95167742610604
1071;Miedź Legnica;Poland;Legnica;https://img.uefa.com/imgml/TP/teams/logos/100x100/57486.png;51.2037145457458;16.1700817473906
50;Mika;Armenia;Yerevan;https://img.uefa.com/imgml/TP/teams/logos/100x100/75044.png;40.149373;44.476449
495;Mikkelin Palloilijat;Finland;Mikkeli;https://img.uefa.com/imgml/TP/teams/logos/100x100/52927.png;61.686944;27.266667
107;Mil-Muğan İmişli;Azerbaijan;İmişli;https://www.footballdatabase.eu/images/photos/clubs/2021-2022/a_2/2318.png;39.8697;48.06
738;Milan;Italy;Milano;https://img.uefa.com/imgml/TP/teams/logos/100x100/50058.png;45.4778031105112;9.12385471443825
983;Milano Kumanovo;North Macedonia;Kumanovo;https://img.uefa.com/imgml/TP/teams/logos/100x100/2600282.png;42.142399;21.709974
417;Millwall;England;London;https://img.uefa.com/imgml/TP/teams/logos/100x100/86796.png;51.485953;-0.05095
903;Milsami Orhei;Moldova;Orhei;https://img.uefa.com/imgml/TP/teams/logos/100x100/2600714.png;47.3744;28.8192
1175;Minaur Baia Mare;Romania;Baia Mare;https://tmssl.akamaized.net//images/wappen/normquad/11267.png?lm=1635330088;47.665;23.579167
1033;Mjøndalen IF;Norway;Mjøndalen;https://tmssl.akamaized.net//images/wappen/normquad/11338.png?lm=1438202195;59.7464159022701;10.0151158152689
304;Mlada Boleslav;Czech Republic;Mlada Boleslav;https://img.uefa.com/imgml/TP/teams/logos/100x100/88134.png;50.427222;14.916944
1289;Mladost Lučani;Serbia;Lucani;https://static.flashscore.com/res/image/data/W6C40JXg-8nlTy2Ch.png;43.8600044948548;20.1325491830289
931;Mladost Podgorica;Montenegro;Podgorica;https://img.uefa.com/imgml/TP/teams/logos/100x100/2607980.png;42.41175;19.217361
193;Modriča Maksima;Bosnia and Herzegovina;Modriča;https://img.uefa.com/imgml/TP/teams/logos/100x100/77882.png;44.955;18.308056
1034;Molde;Norway;Molde;https://img.uefa.com/imgml/TP/teams/logos/100x100/50142.png;62.733333;7.147778
512;Monaco;France;Monaco;https://img.uefa.com/imgml/TP/teams/logos/100x100/50023.png;43.727606;7.415614
624;Mons Calpe;Gibraltar;Gibraltar;https://img.uefa.com/imgml/TP/teams/logos/100x100/2608011.png;36.149376;-5.350542
526;Montpellier;France;Montpellier;https://img.uefa.com/imgml/TP/teams/logos/100x100/50128.png;43.622222;3.811944
938;Mornar Bar;Montenegro;Bar;https://static.flashscore.com/res/image/data/YgUSHEyS-2JKzUeUK.png;42.104444;19.09
1035;Moss FK;Norway;Moss;https://img.uefa.com/imgml/TP/teams/logos/100x100/50061.png;59.4210730451474;10.6701391146105
892;Mosta;Malta;Mosta;https://static.flashscore.com/res/image/data/lCOss7fM-xGkXZymr.png;35.904722;14.434722
1261;Motherwell;Scotland;Motherwell;https://img.uefa.com/imgml/TP/teams/logos/100x100/53035.png;55.779947;-3.980078
383;Motor Zwickau;East Germany;Zwickau;https://upload.wikimedia.org/wikipedia/de/thumb/1/1b/BSG_Motor_Zwickau.svg/100px-BSG_Motor_Zwickau.svg.png;50.728742;12.519357
1343;Mura;Slovenia;Mura;https://img.uefa.com/imgml/TP/teams/logos/100x100/59338.png;46.668333;16.1575
496;MyPa Anjalankoski;Finland;Anjalankoski;https://img.uefa.com/imgml/TP/teams/logos/100x100/59012.png;60.772778;26.790278
1372;Málaga;Spain;Málaga;https://img.uefa.com/imgml/TP/teams/logos/100x100/74069.png;36.734092;-4.426422
1318;MŠK Púchov;Slovakia;Púchov;https://img.uefa.com/imgml/TP/teams/logos/100x100/75824.png;49.1175;18.32
1311;MŠK Žilina;Slovakia;Žilina;https://static.flashscore.com/res/image/data/40RplbCa-xGFNNID8.png;49.229119;18.744789
959;NAC Breda;Netherlands;Breda;https://img.uefa.com/imgml/TP/teams/logos/100x100/64206.png;51.595;4.750278
1339;ND Gorica;Slovenia;Nova Gorica;https://img.uefa.com/imgml/TP/teams/logos/100x100/60403.png;45.955833;13.641389
960;NEC Nijmegen;Netherlands;Nijmegen;https://img.uefa.com/imgml/TP/teams/logos/100x100/52330.png;51.8224761273446;5.83729081435516
1335;NK Bravo;Slovenia;Ljubljana;https://static.flashscore.com/res/image/data/StfW46Fa-h2vTJgFJ.png;46.051389;14.506111
1337;NK Celje;Slovenia;Celje;https://img.uefa.com/imgml/TP/teams/logos/100x100/59030.png;46.246667;15.27
1347;NK Domžale;Slovenia;Domžale;https://img.uefa.com/imgml/TP/teams/logos/100x100/70690.png;46.136944;14.602222
1334;NK Izola;Slovenia;Izola;https://img.uefa.com/imgml/TP/teams/logos/100x100/57491.png;45.536944;13.665278
1352;NK Primorje;Slovenia;Primorje;https://img.uefa.com/imgml/TP/teams/logos/100x100/62175.png;45.888169;13.894444
260;NK Varaždin;Croatia;Varaždin;https://img.uefa.com/imgml/TP/teams/logos/100x100/60514.png;46.2933;16.3443
262;NK Zagreb;Croatia;Zagreb;https://static.flashscore.com/res/image/data/0fWx8ve5-fuSaShZI.png;45.7897623785559;15.9562283631262
204;NK Žepče;Bosnia and Herzegovina;Žepče;https://img.uefa.com/imgml/TP/teams/logos/100x100/80400.png;44.426806;18.034611
465;NSÍ Runavík;Faroe Islands;Runavík;https://img.uefa.com/imgml/TP/teams/logos/100x100/64150.png;62.105833;-6.723333
143;Naftan Novopolotsk;Belarus;Novopolotsk;https://img.uefa.com/imgml/TP/teams/logos/100x100/64372.png;55.537222;28.648333
513;Nancy;France;Nancy;https://img.uefa.com/imgml/TP/teams/logos/100x100/52273.png;48.6955;6.210687
520;Nantes;France;Nantes;https://img.uefa.com/imgml/TP/teams/logos/100x100/52693.png;47.255631;-1.525375
760;Napoli;Italy;Napoli;https://img.uefa.com/imgml/TP/teams/logos/100x100/50136.png;40.828;14.193
1290;Napredak Kruševac;Serbia;Krusevac;https://img.uefa.com/imgml/TP/teams/logos/100x100/65141.png;43.583114;21.338122
445;Narva Trans;Estonia;Narva;https://tmssl.akamaized.net//images/wappen/normquad/7130.png?lm=1518959075;59.36347;28.18465
283;Nea Salamis Famagusta;Cyprus;Famagusta;https://tmssl.akamaized.net//images/wappen/normquad/18945.png?lm=1443216484;34.929722;33.613056
1532;Neath Athletic;Wales;Neath;https://img.uefa.com/imgml/TP/teams/logos/100x100/2600298.png;51.663469;-3.797161
234;Neftohimik Burgas;Bulgaria;Burgas;https://img.uefa.com/imgml/TP/teams/logos/100x100/62168.png;42.5125;27.470278
113;Neftçi Baku;Azerbaijan;Baku;https://img.uefa.com/imgml/TP/teams/logos/100x100/59890.png;40.4002;49.944
144;Neman Grodno;Belarus;Grodno;https://img.uefa.com/imgml/TP/teams/logos/100x100/59024.png;53.688861;23.82072
1434;Neuchâtel Xamax;Switzerland;Xamax;https://img.uefa.com/imgml/TP/teams/logos/100x100/50003.png;46.9958158695404;6.94451090980716
418;Newcastle United;England;Newcastle upon Tyne;https://img.uefa.com/imgml/TP/teams/logos/100x100/59324.png;54.975556;-1.621667
419;Newport County;England;Newport;https://static.flashscore.com/res/image/data/tY1fkyYg-2a4JLW9s.png;51.573889;-2.959434
1533;Newtown;Wales;Newtown;https://img.uefa.com/imgml/TP/teams/logos/100x100/60458.png;52.51152;-3.322876
529;Nice;France;Nice;https://img.uefa.com/imgml/TP/teams/logos/100x100/52355.png;43.723328;7.258756
440;Nikol Tallinn;Estonia;Tallinn;https://tmssl.akamaized.net/images/wappen/normquad/default.png?lm=1457423031;59.434472;24.783444
904;Nistru Otaci;Moldova;Otaci;https://img.uefa.com/imgml/TP/teams/logos/100x100/64492.png;48.426389;27.811667
1492;Niva Vinnitsa;Ukraine;Vinnitsa;https://img.sofascore.com/api/v1/team/25557/image;49.243333;28.489722
45;Noah;Armenia;Yerevan;https://img.uefa.com/imgml/TP/teams/logos/100x100/2609987.png;40.164722;44.045278
340;Nordsjælland;Denmark;Farum;https://img.uefa.com/imgml/TP/teams/logos/100x100/79940.png;55.815833;12.353333
450;Norma Tallinn;Estonia;Tallinn;https://img.uefa.com/imgml/TP/teams/logos/100x100/57470.png;59.4574131573817;24.8157282686609
420;Norwich City;England;Norwich;https://static.flashscore.com/res/image/data/CY8Xm4wS-tCGtX12c.png;52.622128;1.308653
421;Nottingham Forest;England;Nottingham;https://static.flashscore.com/res/image/data/GCLLkTzB-ImKwLTtA.png;52.94;-1.132778
1291;Novi Sad XI;Serbia;Novi Sad;https://tmssl.akamaized.net/images/wappen/normquad/default.png?lm=1457423031;;
350;Næstved BK;Denmark;Næstved;https://img.uefa.com/imgml/TP/teams/logos/100x100/52811.png;55.222617201568;11.7676215655492
528;Nîmes;France;Nîmes;https://static.flashscore.com/res/image/data/4t0Tiph5-8Cw7lB45.png;43.810833;4.356389
449;Nõmme Kalju;Estonia;Tallinn;https://static.flashscore.com/res/image/data/AgK0X9Xg-2PLiHUjM.png;59.385456;24.659603
639;OFI Heraklion;Greece;Heraklion;https://img.uefa.com/imgml/TP/teams/logos/100x100/52953.png;35.338056;25.114722
1292;OFK Beograd;Serbia;Beograd;https://img.uefa.com/imgml/TP/teams/logos/100x100/65139.png;44.815456;20.494047
1276;OFK Bečej 1918;Serbia;Bečej;https://img.uefa.com/imgml/TP/teams/logos/100x100/59864.png;45.240278;19.381667
939;OFK Petrovac;Montenegro;Petrovac;https://img.uefa.com/imgml/TP/teams/logos/100x100/2600104.png;42.203591;18.945928
940;OFK Titograd;Montenegro;Titograd;https://img.uefa.com/imgml/TP/teams/logos/100x100/2600103.png;42.427835;19.282337
497;OPS Oulu;Finland;Oulu;https://static.flashscore.com/res/image/data/fXcWU1g5-42ZyYd5s.png;65.019722;25.465833
1036;Odds BK;Norway;Skien;https://img.uefa.com/imgml/TP/teams/logos/100x100/71256.png;59.2114154074138;9.59000668398521
352;Odense BK;Denmark;Odense;https://img.uefa.com/imgml/TP/teams/logos/100x100/52233.png;55.397778;10.35
353;Odense XI;Denmark;Odense;https://tmssl.akamaized.net/images/wappen/normquad/default.png?lm=1457423031;;
1072;Odra Opole;Poland;Opole;https://static.flashscore.com/res/image/data/KG9U55Ca-roxPpNg8.png;50.6762671862177;17.9322900418366
1073;Odra Wodzisław Śląski;Poland;Wodzisław Śląski;https://static.flashscore.com/res/image/data/vs34cVBr-ld8AStcI.png;49.9984798939605;18.4571065741706
780;Okzhetpes Kokshetau;Kazakhstan;Kokshetau;https://img.uefa.com/imgml/TP/teams/logos/100x100/85934.png;53.285278;69.391667
905;Olimpia Bălți;Moldova;Bălți;https://tmssl.akamaized.net//images/wappen/normquad/90037.png?lm=1619507907;47.76621;27.9332
1349;Olimpija Ljubljana;Slovenia;Ljubljana;https://img.uefa.com/imgml/TP/teams/logos/100x100/53081.png;46.080444;14.524306
819;Olimpija Riga;Latvia;Riga;https://tmssl.akamaized.net//images/wappen/normquad/24057.png?lm=1418313990;56.961479;24.14369
1493;Olimpik Donetsk;Ukraine;Donetsk;https://img.uefa.com/imgml/TP/teams/logos/100x100/2606502.png;47.961408;37.807989
205;Olimpik Sarajevo;Bosnia and Herzegovina;Sarajevo;https://img.uefa.com/imgml/TP/teams/logos/100x100/64304.png;43.8461;18.3589
640;Olympiacos;Greece;Pireaus;https://static.flashscore.com/res/image/data/C6DyywyB-lzmp9FUJ.png;37.946111;23.664444
284;Olympiacos Nicosia;Cyprus;Nicosia;https://img.uefa.com/imgml/TP/teams/logos/100x100/52902.png;35.146811;33.314644
642;Olympiakos Volos;Greece;Volos;https://img.uefa.com/imgml/TP/teams/logos/100x100/2601225.png;39.355461;22.967747
530;Olympique Lyon;France;Lyon;https://static.flashscore.com/res/image/data/rytJfXyS-GU4hlIMk.png;45.723889;4.832222
531;Olympique Marseille;France;Marseille;https://img.uefa.com/imgml/TP/teams/logos/100x100/52748.png;43.269722;5.395833
266;Omonia;Cyprus;Nicosia;https://img.uefa.com/imgml/TP/teams/logos/100x100/50077.png;35.1141681465721;33.362918826762
781;Ordabasy Shymkent;Kazakhstan;Shymkent;https://img.uefa.com/imgml/TP/teams/logos/100x100/82825.png;42.335493;69.593568
1467;Orduspor;Turkey;Ordu;https://img.uefa.com/imgml/TP/teams/logos/100x100/64267.png;40.9825563249861;37.8779596332461
1360;Osasuna;Spain;Pamplona;https://img.uefa.com/imgml/TP/teams/logos/100x100/53042.png;42.796667;-1.636944
257;Osijek;Croatia;Osijek;https://img.uefa.com/imgml/TP/teams/logos/100x100/53082.png;45.566389;18.6575
1190;Oțelul Galați;Romania;Galați;https://img.uefa.com/imgml/TP/teams/logos/100x100/50151.png;45.430194;28.022389
648;PAOK;Greece;Thessaloniki;https://img.uefa.com/imgml/TP/teams/logos/100x100/50130.png;40.613889;22.9725
650;PAS Giannina;Greece;Ioannina;https://img.uefa.com/imgml/TP/teams/logos/100x100/75800.png;39.667778;20.848611
961;PEC Zwolle;Netherlands;Zwolle;https://img.uefa.com/imgml/TP/teams/logos/100x100/77910.png;52.5171150557749;6.12097735655515
1494;PFC Olexandriya;Ukraine;Olexandriya;https://img.uefa.com/imgml/TP/teams/logos/100x100/77928.png;48.674722;33.103611
1217;PFK Sochi;Russia;Sochi;https://img.uefa.com/imgml/TP/teams/logos/100x100/2610410.png;43.402267;39.956111
962;PSV Eindhoven;Netherlands;Eindhoven;https://static.flashscore.com/res/image/data/OEStlXZA-W4eSO5vk.png;51.441667;5.4675
286;Pafos;Cyprus;Paphos;https://static.flashscore.com/res/image/data/Ghgbhpg5-UH6ir0w2.png;34.769186;32.440144
451;Paide Linnameeskond;Estonia;Paide;https://img.uefa.com/imgml/TP/teams/logos/100x100/2600598.png;58.87845;25.54063
677;Paksi SE;Hungary;Paks;https://img.uefa.com/imgml/TP/teams/logos/100x100/93452.png;46.633611;18.8525
761;Palermo;Italy;Palermo;https://img.uefa.com/imgml/TP/teams/logos/100x100/88182.png;38.1526915786071;13.3422517906768
644;Panachaiki GE;Greece;Patras;https://img.uefa.com/imgml/TP/teams/logos/100x100/61583.png;38.261667;21.745833
645;Panathinaikos;Greece;Athens;https://static.flashscore.com/res/image/data/Me3pW6Ea-GM4Cu0wi.png;37.987222;23.754167
1191;Pandurii Târgu Jiu;Romania;Târgu Jiu;https://img.uefa.com/imgml/TP/teams/logos/100x100/89720.png;45.043639;23.270056
647;Panionios;Greece;Athens;https://static.flashscore.com/res/image/data/fm2ysxDa-rJD60RuT.png;37.943033;23.709225
533;Paris Saint-Germain;France;Paris;https://img.uefa.com/imgml/TP/teams/logos/100x100/52747.png;48.841389;2.253056
739;Parma;Italy;Parma;https://img.uefa.com/imgml/TP/teams/logos/100x100/54262.png;44.794917;10.338444
1263;Partick Thistle;Scotland;Glasgow;https://img.uefa.com/imgml/TP/teams/logos/100x100/59863.png;55.881556;-4.269639
1293;Partizan Beograd;Serbia;Beograd;https://static.flashscore.com/res/image/data/rR2ridCa-prjDOVbf.png;44.788744;20.459097
142;Partizan Minsk;Belarus;Minsk;https://img.uefa.com/imgml/TP/teams/logos/100x100/85927.png;53.9;27.566667
3;Partizani Tirana;Albania;Tirana;https://img.uefa.com/imgml/TP/teams/logos/100x100/52876.png;41.356257;19.85127
1110;Paços de Ferreira;Portugal;Paços de Ferreira;https://img.uefa.com/imgml/TP/teams/logos/100x100/75817.png;41.271353;-8.385581
984;Pelister Bitola;North Macedonia;Bitola;https://static.flashscore.com/res/image/data/YobeKMFG-2JKzUeUK.png;41.018056;21.338889
1535;Pen-y-Bont;Wales;Bridgend;https://static.flashscore.com/res/image/data/pd8jJWGG-0zQ599oQ.png;51.511972;-3.608917
740;Perugia;Italy;Perugia;https://img.uefa.com/imgml/TP/teams/logos/100x100/64104.png;43.1061889977092;12.3571059500892
900;Petrocub Hîncești;Moldova;Hîncești;https://img.uefa.com/imgml/TP/teams/logos/100x100/2607112.png;46.825284;28.586687
1192;Petrolul Ploiești;Romania;Ploiești;https://img.uefa.com/imgml/TP/teams/logos/100x100/53030.png;44.940278;26.033333
287;Pezoporikos Larnaca;Cyprus;Larnaca;https://img.uefa.com/imgml/TP/teams/logos/100x100/50045.png;34.929722;33.613056
1074;Piast Gliwice;Poland;Gliwice;https://img.uefa.com/imgml/TP/teams/logos/100x100/2600545.png;50.3067289364241;18.6956305337878
236;Pirin Blagoevgrad;Bulgaria;Blagoevgrad;https://img.uefa.com/imgml/TP/teams/logos/100x100/52893.png;42.026389;23.1
985;Pobeda;North Macedonia;Prilep;https://img.uefa.com/imgml/TP/teams/logos/100x100/62170.png;41.343611;21.561944
1075;Pogoń Szczecin;Poland;Szczecin;https://d2vzq0pwftw3zc.cloudfront.net/fit-in/100x100/filters:quality(30)/de5a136b-59d1-40ce-8b51-c043a004751b/2021_2022/clubs/10_Pogon_Szczecin.png;53.4365550941585;14.5179430652845
1483;Polissya Zhytomyr;Ukraine;Zhytomyr;https://static.flashscore.com/res/image/data/4tDSfyDa-2aYKHyBP.png;50.246111;28.668889
1188;Politehnica Timișoara;Romania;Timișoara;https://tmssl.akamaized.net//images/wappen/normquad/7074.png?lm=1518257385;45.745833;21.228333
1193;Politenhica Iași;Romania;Iași;https://img.uefa.com/imgml/TP/teams/logos/100x100/2604752.png;47.184589;27.561389
384;Polizei SV Schwerin;East Germany;Schwerin;https://tmssl.akamaized.net//images/wappen/normquad/40629.png?lm=1407674435;53.653639;11.360333
1076;Polonia Bytom;Poland;Bytom;https://www.wikipasy.pl/images/thumb/f/fa/Polonia_Bytom_herb.png/100px-Polonia_Bytom_herb.png;50.3577163037377;18.899065315938
1077;Polonia Warszawa;Poland;Warszawa;https://static.flashscore.com/res/image/data/fXILlHeM-juiZXIyC.png;52.2554556722991;21.001352209539
1536;Port Talbot Town;Wales;Port Talbot;https://img.uefa.com/imgml/TP/teams/logos/100x100/75831.png;51.590278;-3.802222
1017;Portadown;Northern Ireland;Portadown;https://img.uefa.com/imgml/TP/teams/logos/100x100/52996.png;54.413056;-6.457778
1111;Portimonense SC;Portugal;Portimão;https://img.uefa.com/imgml/TP/teams/logos/100x100/53017.png;37.135694;-8.539833
1104;Porto;Portugal;Porto;https://static.flashscore.com/res/image/data/2sDzOhWg-Kth3Rz1C.png;41.1618;-8.5839
422;Portsmouth;England;Portsmouth;https://img.uefa.com/imgml/TP/teams/logos/100x100/84297.png;50.796389;-1.063889
1537;Prestatyn Town;Wales;Prestatyn Town;https://img.uefa.com/imgml/TP/teams/logos/100x100/2600465.png;53.3405;-3.4079
1189;Progresul București;Romania;București;https://img.uefa.com/imgml/TP/teams/logos/100x100/60412.png;44.427666;26.074956
869;Progrès Niederkorn;Luxembourg;Niedercorn;https://img.uefa.com/imgml/TP/teams/logos/100x100/52311.png;49.54611;5.90337
681;Puskás Akadémia;Hungary;Felcsút;https://img.uefa.com/imgml/TP/teams/logos/100x100/2605472.png;47.464;18.5868
53;Pyunik;Armenia;Yerevan;https://img.uefa.com/imgml/TP/teams/logos/100x100/77431.png;40.172044;44.525833
679;Pécsi Mecsek;Hungary;Pécs;https://img.uefa.com/imgml/TP/teams/logos/100x100/52960.png;46.068497;18.195891
103;Qarabağ Ağdam;Azerbaijan;Ağdam;https://img.uefa.com/imgml/TP/teams/logos/100x100/60609.png;40.4212;49.9968
1264;Queen of the South;Scotland;Dumfries;https://img.uefa.com/imgml/TP/teams/logos/100x100/2600435.png;55.070347;-3.624802
423;Queens Park Rangers;England;London;https://img.uefa.com/imgml/TP/teams/logos/100x100/52282.png;51.509167;-0.232222
98;Qəbələ ;Azerbaijan;Qəbələ ;https://img.uefa.com/imgml/TP/teams/logos/100x100/93628.png;40.985278;47.8425
170;RAA Louviéroise;Belgium;La Louviére;https://img.uefa.com/imgml/TP/teams/logos/100x100/75781.png;50.4782634406997;4.20103881066043
820;RAF Jelgava;Latvia;Jelgava;https://tmssl.akamaized.net//images/wappen/normquad/59282.png?lm=1490306894;56.648333;23.713889
605;RB Leipzig;Germany;Leipzig;https://img.uefa.com/imgml/TP/teams/logos/100x100/2603790.png;51.3457622674733;12.348343998811
174;RFC Liège;Belgium;Liège;https://img.uefa.com/imgml/TP/teams/logos/100x100/50114.png;50.660278;5.551944
175;RFC Seraing;Belgium;Seraing;https://img.uefa.com/imgml/TP/teams/logos/100x100/59320.png;50.6005764984486;5.50365296099372
263;RNK Split;Croatia;Split;https://img.uefa.com/imgml/TP/teams/logos/100x100/2601166.png;43.519038;16.444033
172;RWD Molenbeek;Belgium;Bruxelles;https://static.flashscore.com/res/image/data/jwxzhGEG-KQDUUKCK.png;50.854803889201;4.31136221018462
893;Rabat Ajax;Malta;Mtarfa;https://img.uefa.com/imgml/TP/teams/logos/100x100/52732.png;35.892778;14.401389
986;Rabotnički;North Macedonia;Skopje;https://img.uefa.com/imgml/TP/teams/logos/100x100/69601.png;42.005556;21.425556
534;Racing Club de Paris;France;Paris;https://tmssl.akamaized.net//images/wappen/normquad/3318.png?lm=1705319798;48.9292815586985;2.24765889109343
871;Racing FC Union;Luxembourg;Luxembourg City;https://img.uefa.com/imgml/TP/teams/logos/100x100/88135.png;49.604722;6.140278
1373;Racing Santander;Spain;Santander;https://img.uefa.com/imgml/TP/teams/logos/100x100/64253.png;43.476389;-3.793333
1295;Rad Beograd;Serbia;Beograd;https://img.uefa.com/imgml/TP/teams/logos/100x100/52827.png;44.765167;20.472167
206;Radnik Bijeljina;Bosnia and Herzegovina;Bijeljina;https://img.uefa.com/imgml/TP/teams/logos/100x100/77878.png;44.754417;19.225028
1296;Radnički 1923 Kragujevac;Serbia;Kragujevac;https://static.flashscore.com/res/image/data/QqenSNDa-riDF60zN.png;44.020872;20.899194
1283;Radnički Niš;Serbia;Niš;https://img.uefa.com/imgml/TP/teams/logos/100x100/52734.png;43.315528;21.908533
1265;Raith Rovers;Scotland;Kirkcaldy;https://img.uefa.com/imgml/TP/teams/logos/100x100/59879.png;56.099762;-3.168442
1078;Raków Częstochowa;Poland;Częstochowa;https://static.flashscore.com/res/image/data/A1vcs0g5-KpIcOmKL.png;50.7768450582332;19.159425101812
354;Randers FC;Denmark;Randers;https://img.uefa.com/imgml/TP/teams/logos/100x100/64146.png;56.465833;10.010278
355;Randers SK Freja;Denmark;Freja;https://static.flashscore.com/res/image/data/08gLEoxS-vL1IzZfS.png;56.4655072883141;10.0106425776939
1266;Rangers;Scotland;Glasgow;https://static.flashscore.com/res/image/data/v7C7fDfM-fFCBVa82.png;55.853206;-4.309258
1180;Rapid București;Romania;București;https://img.uefa.com/imgml/TP/teams/logos/100x100/59039.png;44.455833;26.056944
963;Rapid JC;Netherlands;Kerkrade;https://img.uefa.com/imgml/TP/teams/logos/100x100/78236.png;50.8570138854165;6.00549218353426
78;Rapid Wien;Austria;Wien;https://img.uefa.com/imgml/TP/teams/logos/100x100/50042.png;48.1979800628716;16.2659888102662
1374;Rayo Vallecano;Spain;Madrid;https://img.uefa.com/imgml/TP/teams/logos/100x100/74070.png;40.391944;-3.658961
1377;Real Betis;Spain;Sevilla;https://img.uefa.com/imgml/TP/teams/logos/100x100/52265.png;37.3564579877722;-5.98176536910429
1379;Real Madrid;Spain;Madrid;https://static.flashscore.com/res/image/data/A7kHoxZA-fcDVLdrL.png;40.45306;-3.68835
1361;Real Madrid Castilla;Spain;Madrid;https://static.flashscore.com/res/image/data/A7kHoxZA-fcDVLdrL.png;40.45306;-3.68835
1381;Real Oviedo;Spain;Oviedo;https://img.uefa.com/imgml/TP/teams/logos/100x100/53045.png;43.360783;-5.870222
1382;Real Sociedad;Spain;San Sebastian;https://img.uefa.com/imgml/TP/teams/logos/100x100/50123.png;43.301378;-1.973617
1383;Real Valladolid;Spain;Valladolid;https://img.uefa.com/imgml/TP/teams/logos/100x100/52801.png;41.644444;-4.761111
1384;Real Zaragoza;Spain;Zaragoza;https://img.uefa.com/imgml/TP/teams/logos/100x100/52822.png;41.636592;-0.901822
872;Red Boys Differdange;Luxembourg;Differdange;https://tmssl.akamaized.net//images/wappen/normquad/21949.png?lm=1439130253;49.522222;5.8775
65;Red Bull Salzburg;Austria;Salzburg;https://static.flashscore.com/res/image/data/j9rxqbYg-McAr23w3.png;47.8162642485329;12.9981876504607
494;Reipas Lahti;Finland;Lahti;https://tmssl.akamaized.net//images/wappen/normquad/23164.png?lm=1575823310;60.986389;25.650278
987;Renova;North Macedonia;Džepčište;https://img.uefa.com/imgml/TP/teams/logos/100x100/89708.png;42.033333;21.0
80;Rheindorf Altach;Austria;Altach;https://img.uefa.com/imgml/TP/teams/logos/100x100/92382.png;47.3540177290459;9.63674998138111
1538;Rhyl FC;Wales;Rhyl;https://img.uefa.com/imgml/TP/teams/logos/100x100/53076.png;53.318889;-3.476111
821;Rigas Futbola Skola;Latvia;Riga;https://img.uefa.com/imgml/TP/teams/logos/100x100/2609104.png;56.908;24.155
251;Rijeka;Croatia;Rijeka;https://img.uefa.com/imgml/TP/teams/logos/100x100/52356.png;45.346667;14.404167
1112;Rio Ave;Portugal;Vila do Conde;https://img.uefa.com/imgml/TP/teams/logos/100x100/64237.png;41.3627048924415;-8.74026478492025
499;RoPS Rovaniemi;Finland;Rovaniemi;https://img.uefa.com/imgml/TP/teams/logos/100x100/52812.png;66.499722;25.721667
964;Roda JC;Netherlands;Kerkrade;https://img.uefa.com/imgml/TP/teams/logos/100x100/50094.png;50.8572677014705;6.00639496896513
743;Roma;Italy;Roma;https://static.flashscore.com/res/image/data/QPgsexZA-GtNb9h2q.png;41.9336395808926;12.4548080271008
1038;Rosenborg BK;Norway;Trondheim;https://img.uefa.com/imgml/TP/teams/logos/100x100/52806.png;63.412222;10.404444
375;Rot-Weiß Erfurt;East Germany;Erfurt;https://img.uefa.com/imgml/TP/teams/logos/100x100/52946.png;50.960278;11.037222
1218;Rotor Volgograd;Russia;Volgograd;https://img.uefa.com/imgml/TP/teams/logos/100x100/53067.png;48.734444;44.548611
521;Rouen;France;Rouen;https://static.flashscore.com/res/image/data/805jlZfM-fw1PIW9a.png;49.410980147056;1.07071642568029
173;Royal Antwerp;Belgium;Antwerp;https://img.uefa.com/imgml/TP/teams/logos/100x100/50113.png;51.2325;4.472222
178;Royal Excelsior Mouscron;Belgium;Mouscron;https://img.uefa.com/imgml/TP/teams/logos/100x100/62173.png;50.7337839985433;3.21099394940235
1219;Rubin Kazan;Russia;Kazan;https://img.uefa.com/imgml/TP/teams/logos/100x100/82818.png;55.821111;49.160833
1080;Ruch Chorzów;Poland;Chorzów;https://static.flashscore.com/res/image/data/tSpN3Ghl-2FYvdV3F.png;50.2821166594301;18.9445844983673
934;Rudar Pljevilja;Montenegro;Pljevilja;https://img.uefa.com/imgml/TP/teams/logos/100x100/77927.png;43.362349;19.362245
1354;Rudar Velenje;Slovenia;Velenje;https://img.uefa.com/imgml/TP/teams/logos/100x100/59860.png;46.372778;15.104167
29;Rànger's FC;Andorra;Andorra la Vella;https://img.uefa.com/imgml/TP/teams/logos/100x100/78063.png;42.501389;1.513889
1113;SC Beira-Mar;Portugal;Aveiro;https://img.uefa.com/imgml/TP/teams/logos/100x100/69609.png;40.6476869672893;-8.5938562361596
966;SC Enschede;Netherlands;Enschede;https://tmssl.akamaized.net//images/wappen/normquad/4519.png?lm=1426676506;52.2052506970333;6.89790751235899
1233;SC Faetano;San Marino;Faetano;https://img.uefa.com/imgml/TP/teams/logos/100x100/64506.png;43.925556;12.498333
1114;SC Farense;Portugal;Faro;https://img.uefa.com/imgml/TP/teams/logos/100x100/59875.png;37.0222117487659;-7.92829214447602
608;SC Freiburg;Germany;Freiburg;https://img.uefa.com/imgml/TP/teams/logos/100x100/59880.png;47.988889;7.893056
804;SC Gjilani;Kosovo;Gjilan;https://img.uefa.com/imgml/TP/teams/logos/100x100/2608285.png;42.4698;21.4645
967;SC Heerenveen;Netherlands;Heerenveen;https://img.uefa.com/imgml/TP/teams/logos/100x100/59862.png;52.9587531401372;5.93623646071201
1115;SC Salgueiros;Portugal;Paranhos;https://img.uefa.com/imgml/TP/teams/logos/100x100/53592.png;41.1588133504496;-8.57269311711666
500;SJK Seinäjoki;Finland;Seinäjoki;https://img.uefa.com/imgml/TP/teams/logos/100x100/2602520.png;62.77861;22.81472
1020;SK Brann;Norway;Bergen;https://img.uefa.com/imgml/TP/teams/logos/100x100/52770.png;60.366944;5.3575
1497;SK Dnipro-1;Ukraine;Dnipropetrovsk;https://static.flashscore.com/res/image/data/feURNKBr-tp21ECEq.png;48.435694;35.005556
1042;SK Gjøvik-Lyn;Norway;Gjøvik;https://tmssl.akamaized.net//images/wappen/normquad/10940.png?lm=1632916946;60.7993838747647;10.6819080710794
1043;SK Haugar;Norway;Haugesund;https://tmssl.akamaized.net//images/wappen/normquad/57501.png?lm=1499090348;59.3905629947315;5.30431355913867
294;SK Hradec Králové;Czech Republic;Hradec Králové;https://tmssl.akamaized.net//images/wappen/normquad/1897.png?lm=1692778912;50.2064;15.8454
1234;SP La Fiorita;San Marino;Montegiardino;https://img.uefa.com/imgml/TP/teams/logos/100x100/64508.png;43.908889;12.484444
1235;SP Tre Fiori;San Marino;Fiorentino;https://img.uefa.com/imgml/TP/teams/logos/100x100/64514.png;43.908667;12.447944
1236;SP Tre Penne;San Marino;Serravalle;https://img.uefa.com/imgml/TP/teams/logos/100x100/64515.png;43.9296;12.4427
1237;SS Cosmos;San Marino;Serravalle;https://img.uefa.com/imgml/TP/teams/logos/100x100/64503.png;43.971089;12.476944
1238;SS Folgore;San Marino;Falciano;https://img.uefa.com/imgml/TP/teams/logos/100x100/64507.png;43.971089;12.477244
1239;SS Murata;San Marino;Murata;https://img.uefa.com/imgml/TP/teams/logos/100x100/64511.png;43.9149;12.4821
1240;SS Pennarossa;San Marino;Chiesanuova;https://img.uefa.com/imgml/TP/teams/logos/100x100/64512.png;43.9036219442816;12.4245362999999
87;SV Grödig;Austria;Grödig;https://img.uefa.com/imgml/TP/teams/logos/100x100/2601058.png;47.7432551383672;13.0475695365319
88;SV Mattersburg;Austria;Mattersburg;https://img.uefa.com/imgml/TP/teams/logos/100x100/84582.png;47.7392839496477;16.4064454544155
90;SV Ried;Austria;Ried;https://img.uefa.com/imgml/TP/teams/logos/100x100/61618.png;48.207778;13.478333
91;SV Stockerau;Austria;Stockerau;https://tmssl.akamaized.net//images/wappen/normquad/12214.png?lm=1642112332;48.3827468971975;16.2014340367889
184;SV Winterslag;Belgium;Genk;https://img.uefa.com/imgml/TP/teams/logos/100x100/64122.png;50.995109721484;5.70373839751541
1363;Sabadell;Spain;Sabadell;https://static.flashscore.com/res/image/data/dK8i5Hil-lQiEtZia.png;41.5544514056822;2.09189171310577
116;Sabah;Azerbaijan;Baku;https://static.flashscore.com/res/image/data/QaG2tPEG-AVIiBNvc.png;40.486186;49.766262
563;Saburtalo Tbilisi;Georgia;Tbilisi;https://img.uefa.com/imgml/TP/teams/logos/100x100/2605905.png;41.709722;44.746111
452;Sadam Tallinn;Estonia;Tallinn;https://tmssl.akamaized.net/images/wappen/normquad/default.png?lm=1457423031;59.425828;24.764767
1268;Saint Mirren;Scotland;Paisley;https://img.uefa.com/imgml/TP/teams/logos/100x100/52552.png;55.850556;-4.443889
514;Saint-Étienne;France;Saint-Étienne;https://static.flashscore.com/res/image/data/b7wgpIDa-8Ca53MKO.png;45.460833;4.390278
1469;Sakaryaspor;Turkey;Sakarya;https://tmssl.akamaized.net//images/wappen/normquad/2463.png?lm=1604757190;40.780544;30.432583
683;Salgótarjáni BTC;Hungary;Salgótarján;https://img.uefa.com/imgml/TP/teams/logos/100x100/64178.png;48.1319818775062;19.8276494290172
767;Sampdoria;Italy;Genova;https://static.flashscore.com/res/image/data/lnVY1W9r-8IE3vP6C.png;44.416299258945;8.95275851189904
564;Samtredia;Georgia;Samtredia;https://img.uefa.com/imgml/TP/teams/logos/100x100/59884.png;42.1608;42.3306
1426;Sankt Gallen;Switzerland;Sankt Gallen;https://img.uefa.com/imgml/TP/teams/logos/100x100/51151.png;47.408333;9.306389
441;Santos Tartu;Estonia;Tartu;https://img.uefa.com/imgml/TP/teams/logos/100x100/2605697.png;58.3751337285272;26.7735145741282
1039;Sarpsborg 08;Norway;Sarpsborg;https://img.uefa.com/imgml/TP/teams/logos/100x100/2604486.png;59.286111;11.0975
769;Sassuolo;Italy;Sassuolo;https://img.uefa.com/imgml/TP/teams/logos/100x100/2600632.png;44.714509644652;10.6496474079372
913;Saxan Ceadîr-Lunga;Moldova;Ceadîr-Lunga;https://img.uefa.com/imgml/TP/teams/logos/100x100/2604300.png;46.0569;28.8341
596;Schalke 04;Germany;Gelsenkirchen;https://img.uefa.com/imgml/TP/teams/logos/100x100/57388.png;51.554503;7.067589
515;Sedan;France;Sedan;https://img.uefa.com/imgml/TP/teams/logos/100x100/64166.png;49.6941071335555;4.93865872697998
1156;Sepsi Sfântu Gheorghe;Romania;Sfântu Gheorghe;https://tmssl.akamaized.net//images/wappen/normquad/54585.png?lm=1474753724;45.883611;25.806278
1435;Servette;Switzerland;Genève;https://img.uefa.com/imgml/TP/teams/logos/100x100/50008.png;46.177847;6.127431
1385;Sevilla;Spain;Sevilla;https://img.uefa.com/imgml/TP/teams/logos/100x100/52714.png;37.384;-5.9705
906;Sfîntul Gheorghe Suruceni;Moldova;Suruceni;https://img.uefa.com/imgml/TP/teams/logos/100x100/2600716.png;46.984442;28.666967
1495;Shakhtar Donetsk;Ukraine;Donetsk;https://img.uefa.com/imgml/TP/teams/logos/100x100/52707.png;48.020833;37.809722
782;Shakhter Karagandy;Kazakhstan;Karagandy;https://img.uefa.com/imgml/TP/teams/logos/100x100/79968.png;49.818618;73.075122
146;Shakhtyor Soligorsk;Belarus;Soligorsk;https://img.uefa.com/imgml/TP/teams/logos/100x100/64375.png;52.798333;27.538333
1145;Shamrock Rovers;Republic of Ireland;Dublin;https://img.uefa.com/imgml/TP/teams/logos/100x100/52381.png;53.28352;-6.37371
424;Sheffield Wednesday;England;Sheffield;https://img.uefa.com/imgml/TP/teams/logos/100x100/52922.png;53.411388;-1.500731
1147;Shelbourne;Republic of Ireland;Shelbourne;https://img.uefa.com/imgml/TP/teams/logos/100x100/53020.png;53.3675;-6.251944
907;Sheriff Tiraspol;Moldova;Tiraspol;https://img.uefa.com/imgml/TP/teams/logos/100x100/69606.png;46.838333;29.5575
55;Shirak;Armenia;Gyumri;https://img.uefa.com/imgml/TP/teams/logos/100x100/59877.png;40.785833;43.833333
979;Shkupi;North Macedonia;Skopje;https://img.uefa.com/imgml/TP/teams/logos/100x100/2606993.png;42.01546;21.444347
988;Shkëndija Tetovo;North Macedonia;Tetovo;https://img.uefa.com/imgml/TP/teams/logos/100x100/75807.png;42.0186;20.9783
237;Shumen;Bulgaria;Shumen;https://img.uefa.com/imgml/TP/teams/logos/100x100/59322.png;43.276667;26.944167
1220;Sibir Novosibirsk;Russia;Novosibirsk;https://img.uefa.com/imgml/TP/teams/logos/100x100/2600311.png;55.038203;82.925019
311;Sigma Olomouc;Czech Republic;Olomouc;https://img.uefa.com/imgml/TP/teams/logos/100x100/52905.png;49.6;17.248333
992;Sileks;North Macedonia;Kratovo;https://img.uefa.com/imgml/TP/teams/logos/100x100/59871.png;42.080825;22.164068
356;Silkeborg IF;Denmark;Silkeborg;https://img.uefa.com/imgml/TP/teams/logos/100x100/52912.png;56.184167;9.575556
453;Sillamäe Kalev;Estonia;Kalev;https://img.uefa.com/imgml/TP/teams/logos/100x100/2600372.png;59.394967;27.772594
119;Simurq Zaqatala;Azerbaijan;Zaqatala;https://img.uefa.com/imgml/TP/teams/logos/100x100/93607.png;41.639444;46.652778
1427;Sion;Switzerland;Sion;https://img.uefa.com/imgml/TP/teams/logos/100x100/52824.png;46.233333;7.376389
565;Sioni Bolnisi;Georgia;Bolnisi;https://img.uefa.com/imgml/TP/teams/logos/100x100/64470.png;41.447997;44.535186
894;Sirens;Malta;San Pawl il-Bahar;https://img.uefa.com/imgml/TP/teams/logos/100x100/2606175.png;35.9453;14.4148
1470;Sivasspor;Turkey;Sivas;https://img.uefa.com/imgml/TP/teams/logos/100x100/89728.png;39.7286149875531;36.9839997316942
1044;Skeid Fotball;Norway;Oslo;https://img.uefa.com/imgml/TP/teams/logos/100x100/64217.png;59.9429962802868;10.7875133552002
651;Skoda Xanthi;Greece;Xanthi;https://img.uefa.com/imgml/TP/teams/logos/100x100/52956.png;41.143889;24.893889
824;Skonto Riga;Latvia;Riga;https://img.uefa.com/imgml/TP/teams/logos/100x100/57479.png;56.961572;24.116408
466;Skála ÍF;Faroe Islands;Skáli;https://img.uefa.com/imgml/TP/teams/logos/100x100/79553.png;62.16;-6.788611
17;Skënderbeu Korçë;Albania;Korçë;https://img.uefa.com/imgml/TP/teams/logos/100x100/64114.png;40.625833;20.782778
264;Slaven Belupo;Croatia;Koprivnica;https://img.uefa.com/imgml/TP/teams/logos/100x100/64321.png;46.166111;16.834722
141;Slavia Mozyr;Belarus;Mozyr;https://img.uefa.com/imgml/TP/teams/logos/100x100/60605.png;52.038889;29.277083
312;Slavia Praha;Czech Republic;Praha;https://static.flashscore.com/res/image/data/vJ0yQjf5-8nl9JmVC.png;50.0675;14.471667
238;Slavia Sofia;Bulgaria;Sofia;https://img.uefa.com/imgml/TP/teams/logos/100x100/50117.png;42.675361;23.272028
195;Slavija Istočno Sarajevo;Bosnia and Herzegovina;Sarajevo;https://img.uefa.com/imgml/TP/teams/logos/100x100/77885.png;43.829333;18.367167
895;Sliema Wanderers;Malta;Silema;https://img.uefa.com/imgml/TP/teams/logos/100x100/50141.png;35.912222;14.504167
1149;Sligo Rovers;Republic of Ireland;Sligo;https://img.uefa.com/imgml/TP/teams/logos/100x100/52660.png;54.27;-8.487222
239;Sliven;Bulgaria;Sliven;https://img.uefa.com/imgml/TP/teams/logos/100x100/52370.png;42.679306;26.336667
196;Sloboda Tuzla;Bosnia and Herzegovina;Tuzla;https://img.uefa.com/imgml/TP/teams/logos/100x100/64379.png;44.541967;18.661667
993;Sloga Jugomagnat;North Macedonia;Skopje;https://img.uefa.com/imgml/TP/teams/logos/100x100/60474.png;42.01846;21.444347
1325;Slovan Bratislava;Slovakia;Bratislava;https://img.uefa.com/imgml/TP/teams/logos/100x100/52797.png;48.1636;17.1369
298;Slovan Liberec;Czech Republic;Liberec;https://img.uefa.com/imgml/TP/teams/logos/100x100/64385.png;50.776111;15.05
522;Sochaux;France;Sochaux;https://img.uefa.com/imgml/TP/teams/logos/100x100/52813.png;47.512417;6.8112
663;Sopron;Hungary;Sopron;https://img.uefa.com/imgml/TP/teams/logos/100x100/75801.png;47.69171;16.583691
425;Southampton;England;Southampton;https://img.uefa.com/imgml/TP/teams/logos/100x100/52923.png;50.905833;-1.391111
290;Sparta Praha;Czech Republic;Praha;https://img.uefa.com/imgml/TP/teams/logos/100x100/50033.png;50.099722;14.415833
968;Sparta Rotterdam;Netherlands;Rotterdam;https://img.uefa.com/imgml/TP/teams/logos/100x100/52332.png;51.9194749299633;4.43357231972928
1222;Spartak Moskva;Russia;Moskva;https://img.uefa.com/imgml/TP/teams/logos/100x100/50068.png;55.817861;37.44025
1327;Spartak Myjava;Slovakia;Myjava;https://img.uefa.com/imgml/TP/teams/logos/100x100/2602937.png;48.761139;17.565472
240;Spartak Plovdiv;Bulgaria;Plovdiv;https://img.uefa.com/imgml/TP/teams/logos/100x100/59867.png;42.131667;24.743611
1285;Spartak Subotica;Serbia;Subotica;https://img.uefa.com/imgml/TP/teams/logos/100x100/53079.png;46.081781;19.676958
1328;Spartak Trnava;Slovakia;Trnava;https://img.uefa.com/imgml/TP/teams/logos/100x100/52904.png;48.373333;17.591667
241;Spartak Varna;Bulgaria;Varna;https://tmssl.akamaized.net//images/wappen/normquad/9599.png?lm=1587882452;43.218611;27.9125
46;Spartak Yerevan;Armenia;Yerevan;https://upload.wikimedia.org/wikipedia/en/thumb/3/39/Spartak_Yerevan_FC_logo.svg/100px-Spartak_Yerevan_FC_logo.svg.png;40.181389;44.514444
571;Spartak-Tskhinvali;Georgia;Tskhinvali;https://img.uefa.com/imgml/TP/teams/logos/100x100/2600302.png;42.225;43.97
825;Spartaks Jūrmala;Latvia;Jūrmala;https://img.uefa.com/imgml/TP/teams/logos/100x100/2602918.png;56.949591;23.610199
916;Speranța Nisporeni;Moldova;Nisporeni;https://img.uefa.com/imgml/TP/teams/logos/100x100/2606852.png;47.078931;28.180499
1118;Sporting CP;Portugal;Lisbon;https://img.uefa.com/imgml/TP/teams/logos/100x100/50149.png;38.761111;-9.160833
1151;Sporting Fingal;Republic of Ireland;Fingal;https://img.uefa.com/imgml/TP/teams/logos/100x100/2601364.png;53.401179;-6.245063
1386;Sporting Gijón;Spain;Gijon;https://img.uefa.com/imgml/TP/teams/logos/100x100/53046.png;43.536111;-5.637222
1196;Sportul Studențesc;Romania;București;https://img.uefa.com/imgml/TP/teams/logos/100x100/52337.png;44.44825;26.053083
625;St Josephs;Gibraltar;Gibraltar;https://img.uefa.com/imgml/TP/teams/logos/100x100/2605575.png;36.149396;-5.350342
1144;St Patrick's Athletic;Republic of Ireland;Dublin;https://img.uefa.com/imgml/TP/teams/logos/100x100/50133.png;53.340833;-6.316667
1270;St. Johnstone;Scotland;Perth;https://img.uefa.com/imgml/TP/teams/logos/100x100/64249.png;56.409686;-3.476928
1045;Stabæk;Norway;Stabæk;https://img.uefa.com/imgml/TP/teams/logos/100x100/61584.png;59.921111;10.581111
541;Stade Français;France;Paris;https://tmssl.akamaized.net//images/wappen/normquad/21816.png?lm=1544222796;48.8460929339687;2.15984327286086
542;Stade Lavallois;France;Lavallois;https://static.flashscore.com/res/image/data/fRpBUaFG-bXUw9eb2.png;48.0819894109931;-0.756281518502218
543;Stade Reims;France;Reims;https://img.uefa.com/imgml/TP/teams/logos/100x100/64165.png;49.246667;4.025
544;Stade Rennais;France;Rennes;https://img.uefa.com/imgml/TP/teams/logos/100x100/55031.png;48.107458;-1.712839
358;Staevnet (København) XI;Denmark;København;https://tmssl.akamaized.net/images/wappen/normquad/default.png?lm=1457423031;;
1057;Stal Mielec;Poland;Mielec;https://static.flashscore.com/res/image/data/dAVXJJ9r-IFvezmU3.png;50.2987959709072;21.4358599798776
1083;Stal Rzeszów;Poland;Rzeszów;https://static.flashscore.com/res/image/data/KEXj0yDr-IRdZ5ayn.png;50.0214964793817;21.9963465747641
183;Standard Liège;Belgium;Liège;https://img.uefa.com/imgml/TP/teams/logos/100x100/52165.png;50.6098953291976;5.54346480189493
1197;Steagul Roșu Brașov;Romania;Brașov;https://tmssl.akamaized.net//images/wappen/normquad/83218.png?lm=1618760096;45.664806;25.585583
1159;Steaua București;Romania;București;https://static.flashscore.com/res/image/data/rTjEahh5-EHlariII.png;44.437222;26.1525
711;Stjarnan;Iceland;Garðabær;https://img.uefa.com/imgml/TP/teams/logos/100x100/52308.png;64.0875;-21.928889
426;Stoke City;England;Stoke-on-Trent;https://img.uefa.com/imgml/TP/teams/logos/100x100/53356.png;52.988333;-2.175556
536;Strasbourg;France;Strasbourg;https://img.uefa.com/imgml/TP/teams/logos/100x100/59857.png;48.56;7.755
976;Struga Trim-Lum;North Macedonia;Struga;https://img.uefa.com/imgml/TP/teams/logos/100x100/2609278.png;41.172778;20.684167
1046;Strømsgodset;Norway;Strømsgodset;https://img.uefa.com/imgml/TP/teams/logos/100x100/57485.png;59.734444;10.201389
847;Stumbras Kaunas;Lithuania;Kaunas;https://img.uefa.com/imgml/TP/teams/logos/100x100/2607177.png;54.897222;23.886111
83;Sturm Graz;Austria;Graz;https://img.uefa.com/imgml/TP/teams/logos/100x100/50111.png;47.0461110711438;15.4545731427277
109;Sumqayıt FK;Azerbaijan;Sumqayıt;https://img.uefa.com/imgml/TP/teams/logos/100x100/2603921.png;40.6032;49.6731
427;Sunderland;England;Sunderland;https://static.flashscore.com/res/image/data/ln86XXjl-ImMEe0UF.png;54.9144;-1.3882
935;Sutjeska Nikšić;Montenegro;Nikšić;https://img.uefa.com/imgml/TP/teams/logos/100x100/73936.png;42.784947;18.953731
428;Swansea City;England;Swansea;https://static.flashscore.com/res/image/data/baRwZ4dM-Ozj3JWKn.png;51.6422;-3.9351
874;Swift Hesperange;Luxembourg;Hesperange;https://img.uefa.com/imgml/TP/teams/logos/100x100/52977.png;49.575111;6.157408
685;Szombathelyi Haladás;Hungary;Szombathelyi;https://img.uefa.com/imgml/TP/teams/logos/100x100/52959.png;47.234762;16.607117
1084;Szombierki Bytom;Poland;Bytom;https://tmssl.akamaized.net/images/wappen/normquad/6865.png?lm=1403722171;50.3308419227706;18.8980667632425
357;SønderjyskE;Denmark;Haderslev;https://img.uefa.com/imgml/TP/teams/logos/100x100/89694.png;55.261389;9.487778
840;Sūduva Marijampolė;Lithuania;Marijampolė;https://img.uefa.com/imgml/TP/teams/logos/100x100/79557.png;54.574547;23.365392
117;Səbail FK;Azerbaijan;Baku;https://img.uefa.com/imgml/TP/teams/logos/100x100/2608569.png;40.332217;49.817664
1332;TJ VSS Košice;Slovakia;Košice;https://static.flashscore.com/res/image/data/WtY1eFhl-AsRGXczr.png;48.741136;21.244797
504;TPS Turku;Finland;Turku;https://img.uefa.com/imgml/TP/teams/logos/100x100/50126.png;60.442778;22.291667
505;TPV Tampere;Finland;Tampere;https://img.uefa.com/imgml/TP/teams/logos/100x100/59872.png;61.5003;23.7853
1299;TSC Bačka Topola;Serbia;Bačka Topola;https://img.uefa.com/imgml/TP/teams/logos/100x100/2610140.png;45.815881;19.627569
611;TSG 1899 Hoffenheim;Germany;Hoffenheim;https://static.flashscore.com/res/image/data/I3cMF7f5-n7lWn9DL.png;49.2379544107277;8.88778697779923
612;TSV 1860 München;Germany;München;https://img.uefa.com/imgml/TP/teams/logos/100x100/60571.png;48.110833;11.574444
92;TSV Hartberg;Austria;Hartberg;https://img.uefa.com/imgml/TP/teams/logos/100x100/2601074.png;47.2811447691715;15.9777387363478
442;TVMK Tallinn;Estonia;Tallinn;https://img.uefa.com/imgml/TP/teams/logos/100x100/70208.png;59.434472;24.783444
444;Tallinna Kalev;Estonia;Tallinn;https://static.flashscore.com/res/image/data/nBRRyUXg-SlzMDKS2.png;59.433472;24.782444
502;Tampere United;Finland;Tampere;https://img.uefa.com/imgml/TP/teams/logos/100x100/52349.png;61.5003;23.7853
486;Tampereen Ilves;Finland;Tampere;https://img.uefa.com/imgml/TP/teams/logos/100x100/2602511.png;61.5003;23.7853
610;Tasmania 1900 Berlin;Germany;Berlin;https://tmssl.akamaized.net//images/wappen/normquad/44396.png?lm=1427008129;52.4683442640424;13.4189213510108
686;Tatabányai Banyasz SC;Hungary;Tatabánya;https://static.flashscore.com/res/image/data/W6ozyMEa-YXyLZhye.png;47.5565;18.417972
1500;Tavriya Simferopol;Ukraine;Simferopol;https://img.uefa.com/imgml/TP/teams/logos/100x100/57489.png;44.943611;34.089722
1225;Tekstilshchik;Russia;Kamyshin;https://tmssl.akamaized.net//images/wappen/normquad/12435.png?lm=1549477692;50.111389;45.42
1362;Tenerife;Spain;Santa Cruz De Tenerife;https://img.uefa.com/imgml/TP/teams/logos/100x100/53041.png;28.463056;-16.260556
995;Teteks;North Macedonia;Tetovo;https://img.uefa.com/imgml/TP/teams/logos/100x100/2600283.png;42.018004;20.979038
18;Teuta Durrës;Albania;Durrës;https://img.uefa.com/imgml/TP/teams/logos/100x100/59316.png;41.326081;19.449856
1530;The New Saints;Wales;Llansanffraid-ym-Mechain;https://img.uefa.com/imgml/TP/teams/logos/100x100/60457.png;52.875869;-3.026306
917;Tiligul Tiraspol;Moldova;Tiraspol;https://img.uefa.com/imgml/TP/teams/logos/100x100/59332.png;46.848179;29.596806
1181;Timișoara;Romania;Timișoara;https://img.uefa.com/imgml/TP/teams/logos/100x100/53031.png;45.770417;21.254306
69;Tirol Innsbruck;Austria;Innsbruck;https://tmssl.akamaized.net//images/wappen/normquad/2444_1403034462.png?lm=1403034462;47.255833;11.410833
783;Tobol Kostanay;Kazakhstan;Kostanay;https://img.uefa.com/imgml/TP/teams/logos/100x100/79969.png;53.225974;63.636578
766;Torino;Italy;Torino;https://static.flashscore.com/res/image/data/OQWGjGcM-0lwy4Ij1.png;45.041667;7.65
572;Torpedo Kutaisi;Georgia;Kutaisi;https://img.uefa.com/imgml/TP/teams/logos/100x100/64471.png;42.255141;42.683086
1227;Torpedo Moskva;Russia;Moskva;https://img.uefa.com/imgml/TP/teams/logos/100x100/50160.png;55.715833;37.553611
149;Torpedo Zhodino;Belarus;Zhodino;https://img.uefa.com/imgml/TP/teams/logos/100x100/79551.png;54.092222;28.32
430;Tottenham Hotspur;England;London;https://static.flashscore.com/res/image/data/ARC62UAr-SOY3p1Si.png;51.603333;-0.065833
547;Toulouse;France;Toulouse;https://img.uefa.com/imgml/TP/teams/logos/100x100/52934.png;43.583056;1.434167
1472;Trabzonspor;Turkey;Trabzon;https://img.uefa.com/imgml/TP/teams/logos/100x100/52731.png;40.999167;39.645833
849;TransINVEST;Lithuania;Vilnius;https://static.flashscore.com/res/image/data/AmOybdil-ltt5Xi39.png;55.0338;24.9605
1414;Trelleborgs FF;Sweden;Trelleborg;https://img.uefa.com/imgml/TP/teams/logos/100x100/59336.png;55.38515;13.160983
259;Trešnjevka Zagreb;Croatia;Zagreb;https://static.flashscore.com/res/image/data/vZdqetWg-0IxdTsE9.png;45.813056;15.9775
1047;Tromsø IL;Norway;Tromsø;https://img.uefa.com/imgml/TP/teams/logos/100x100/53001.png;69.6489127701187;18.9343622177433
549;Troyes AC;France;Troyes;https://img.uefa.com/imgml/TP/teams/logos/100x100/73556.png;48.307561;4.098458
121;Turan Tovuz;Azerbaijan;Tovuz;https://img.uefa.com/imgml/TP/teams/logos/100x100/59319.png;40.992222;45.625556
996;Turnovo;North Macedonia;Turnovo;https://img.uefa.com/imgml/TP/teams/logos/100x100/89709.png;41.4375;22.768889
197;Tuzla City;Bosnia and Herzegovina;Tuzla;https://static.flashscore.com/res/image/data/j3XlGwvS-QHNTWbrf.png;44.541667;18.661667
949;Twente;Netherlands;Enschede;https://img.uefa.com/imgml/TP/teams/logos/100x100/52818.png;52.236667;6.8375
33;UE Engordany;Andorra;Escaldes-Engordany;https://img.uefa.com/imgml/TP/teams/logos/100x100/84697.png;42.508889;1.540833
35;UE Sant Julià;Andorra;Aixovall;https://img.uefa.com/imgml/TP/teams/logos/100x100/63399.png;42.476389;1.487667
34;UE Santa Coloma;Andorra;Santa Coloma;https://img.uefa.com/imgml/TP/teams/logos/100x100/62180.png;42.501389;1.513889
875;UN Käerjéng 97;Luxembourg;Kaerjeng 97;https://img.uefa.com/imgml/TP/teams/logos/100x100/65195.png;49.57416;5.91682
878;US Rumelange;Luxembourg;Rumelange;https://img.uefa.com/imgml/TP/teams/logos/100x100/64192.png;49.457347;6.033197
829;USV Eschen/Mauren;Liechtenstein;Eschen;https://img.uefa.com/imgml/TP/teams/logos/100x100/64198.png;47.205833;9.537778
1186;UTA Arad;Romania;Arad;https://img.uefa.com/imgml/TP/teams/logos/100x100/64241.png;46.1925;21.311944
768;Udinese;Italy;Udine;https://img.uefa.com/imgml/TP/teams/logos/100x100/51310.png;46.0816;13.2001
57;Ulisses;Armenia;Yerevan;https://img.uefa.com/imgml/TP/teams/logos/100x100/93260.png;40.172144;44.525833
580;Union Berlin;Germany;Berlin;https://img.uefa.com/imgml/TP/teams/logos/100x100/77977.png;52.457222;13.568056
876;Union Luxembourg;Luxembourg;Luxembourg City;https://img.uefa.com/imgml/TP/teams/logos/100x100/50140.png;49.604722;6.140278
179;Union Saint-Gilloise;Belgium;Bruxelles;https://img.uefa.com/imgml/TP/teams/logos/100x100/64125.png;50.817778;4.329167
877;Union Titus Pétange;Luxembourg;Pétange;https://img.uefa.com/imgml/TP/teams/logos/100x100/64193.png;49.557212;5.856485
1182;Unirea Urziceni;Romania;Urziceni;https://img.uefa.com/imgml/TP/teams/logos/100x100/92507.png;44.712625;26.656017
826;Universitate Riga;Latvia;Riga;https://img.uefa.com/imgml/TP/teams/logos/100x100/59017.png;56.948889;24.106389
1199;Universitatea Cluj;Romania;Cluj-Napoca;https://tmssl.akamaized.net//images/wappen/normquad/6429.png?lm=1416161674;46.768333;23.572222
1167;Universitatea Craiova;Romania;Craiova;https://img.uefa.com/imgml/TP/teams/logos/100x100/52338.png;44.314;23.7843
1153;University College Dublin;Republic of Ireland;Dublin;https://img.uefa.com/imgml/TP/teams/logos/100x100/53021.png;53.310278;-6.228056
1121;União Leiria;Portugal;Leiria;https://img.uefa.com/imgml/TP/teams/logos/100x100/59859.png;39.7486844333258;-8.81298837670731
42;Urartu;Armenia;Yerevan;https://img.uefa.com/imgml/TP/teams/logos/100x100/77866.png;40.171426;44.449938
951;Utrecht;Netherlands;Utrecht;https://img.uefa.com/imgml/TP/teams/logos/100x100/52323.png;52.0783439183315;5.14602822852296
969;Utrecht XI;Netherlands;Utrecht;https://tmssl.akamaized.net/images/wappen/normquad/default.png?lm=1457423031;;
93;VSE Sankt Pölten;Austria;Sankt Pölten;https://img.uefa.com/imgml/TP/teams/logos/100x100/2602679.png;47.2557167599974;11.4117130612108
506;Vaasan Palloseura;Finland;Vaasa;https://img.uefa.com/imgml/TP/teams/logos/100x100/64390.png;63.085278;21.627778
830;Vaduz;Liechtenstein;Vaduz;https://img.uefa.com/imgml/TP/teams/logos/100x100/57482.png;47.140278;9.510278
1388;Valencia;Spain;Valencia;https://img.uefa.com/imgml/TP/teams/logos/100x100/52268.png;39.474656;-0.358361
897;Valletta;Malta;Valletta;https://img.uefa.com/imgml/TP/teams/logos/100x100/52641.png;35.898333;14.5125
810;Valmiera;Latvia;Valmiera;https://img.uefa.com/imgml/TP/teams/logos/100x100/2602920.png;57.54101;25.440471
714;Valur Reykjavík;Iceland;Reykjavík;https://img.uefa.com/imgml/TP/teams/logos/100x100/50057.png;64.132778;-21.923611
359;Vanløse IF;Denmark;København;https://static.flashscore.com/res/image/data/lhpfwIYg-nXqW0Bj5.png;55.6866594977626;12.4773921199718
997;Vardar Skopje;North Macedonia;Skopje;https://img.uefa.com/imgml/TP/teams/logos/100x100/53080.png;42.005856;21.425556
693;Vasas SC;Hungary;Budapest;https://static.flashscore.com/res/image/data/p0Axj3Ca-SOAj7BRb.png;47.536978;19.080473
1183;Vaslui;Romania;Vaslui;https://img.uefa.com/imgml/TP/teams/logos/100x100/89719.png;46.6335;27.733319
360;Vejle BK;Denmark;Vejle;https://img.uefa.com/imgml/TP/teams/logos/100x100/52712.png;55.7137638803415;9.55620099298539
198;Velež Mostar;Bosnia and Herzegovina;Mostar;https://img.uefa.com/imgml/TP/teams/logos/100x100/50163.png;43.378384;17.854382
918;Veris Chișinău;Moldova;Chișinău;https://img.uefa.com/imgml/TP/teams/logos/100x100/2605187.png;47.081389;29.108333
613;VfB Stuttgart;Germany;Stuttgart;https://img.uefa.com/imgml/TP/teams/logos/100x100/50107.png;48.792269;9.232031
614;VfL Bochum;Germany;Bochum;https://img.uefa.com/imgml/TP/teams/logos/100x100/52939.png;51.4898901777746;7.23640569204964
615;VfL Wolfsburg;Germany;Wolfsburg;https://img.uefa.com/imgml/TP/teams/logos/100x100/64332.png;52.431944;10.803889
1333;ViOn Zlaté Moravce;Slovakia;Zlaté Moravce;https://img.uefa.com/imgml/TP/teams/logos/100x100/2600215.png;48.399167;18.403889
361;Viborg FF;Denmark;Viborg;https://img.uefa.com/imgml/TP/teams/logos/100x100/69570.png;56.4557576918123;9.40207753413561
759;Vicenza;Italy;Vicenza;https://img.uefa.com/imgml/TP/teams/logos/100x100/62177.png;45.5442486448604;11.5563347273
1202;Victoria București;Romania;București;https://img.uefa.com/imgml/TP/teams/logos/100x100/50150.png;44.4575;26.1025
662;Videoton;Hungary;Székesfehérvár;https://img.uefa.com/imgml/TP/teams/logos/100x100/52288.png;47.173611;18.415278
1184;Viitorul Constanța;Romania;Constanța;https://upload.wikimedia.org/wikipedia/commons/thumb/5/52/FC_Viitorul_2017_badge.svg/100px-FC_Viitorul_2017_badge.svg.png;44.263889;28.555833
1050;Viking FK;Norway;Stavanger;https://img.uefa.com/imgml/TP/teams/logos/100x100/52319.png;58.9145869927805;5.73109743028143
616;Viktoria 04 Köln;Germany;Köln;https://tmssl.akamaized.net//images/wappen/normquad/37750.png?lm=1456081122;50.9451050534348;7.03046526995079
299;Viktoria Plzeň;Czech Republic;Plzeň;https://img.uefa.com/imgml/TP/teams/logos/100x100/64388.png;49.75;13.385556
306;Viktoria Žižkov;Czech Republic;Žižkov;https://img.uefa.com/imgml/TP/teams/logos/100x100/59323.png;50.083917;14.444606
454;Viljandi Tulevik;Estonia;Viljandi;https://img.uefa.com/imgml/TP/teams/logos/100x100/64324.png;58.361025;25.607017
1389;Villarreal;Spain;Villareal;https://img.uefa.com/imgml/TP/teams/logos/100x100/70691.png;39.944167;-0.103611
970;Vitesse;Netherlands;Arnhem;https://img.uefa.com/imgml/TP/teams/logos/100x100/52985.png;51.9628637125234;5.89304601788492
244;Vitosha Sofia;Bulgaria;Sofia;https://upload.wikimedia.org/wikipedia/en/thumb/2/23/FC_Vitosha_Bistritsa_emblem.png/100px-FC_Vitosha_Bistritsa_emblem.png;42.59125;23.363417
1122;Vitória de Guimarães;Portugal;Guimarães;https://img.uefa.com/imgml/TP/teams/logos/100x100/50097.png;41.4458006758788;-8.30096181003173
1123;Vitória de Setúbal;Portugal;Setúbal;https://img.uefa.com/imgml/TP/teams/logos/100x100/53019.png;38.5312526579133;-8.89116410375685
20;Vllaznia Shkodër;Albania;Shkodër;https://img.uefa.com/imgml/TP/teams/logos/100x100/52878.png;42.07;19.506667
1286;Vojvodina Novi Sad;Serbia;Novi Sad;https://img.uefa.com/imgml/TP/teams/logos/100x100/52810.png;45.246667;19.842222
1501;Vorskla Poltava;Ukraine;Poltava;https://img.uefa.com/imgml/TP/teams/logos/100x100/62174.png;49.594833;34.549444
364;Vorwärts Berlin;East Germany;Berlin;https://img.uefa.com/imgml/TP/teams/logos/100x100/52227.png;52.518611;13.404444
377;Vorwärts Frankfurt Oder;East Germany;Frankfurt (Oder);https://tmssl.akamaized.net//images/wappen/normquad/706.png?lm=1427581323;52.332533;14.556133
84;VÖEST Linz;Austria;Linz;https://img.uefa.com/imgml/TP/teams/logos/100x100/64119.png;48.2504096949527;14.2957222102694
690;Vác FC 1899;Hungary;Vác;https://img.uefa.com/imgml/TP/teams/logos/100x100/52961.png;47.7675;19.138056
1049;Vålerenga;Norway;Oslo;https://img.uefa.com/imgml/TP/teams/logos/100x100/52318.png;59.917778;10.806944
468;Víkingur Gøta;Faroe Islands;Gøta;https://img.uefa.com/imgml/TP/teams/logos/100x100/59325.png;62.199788;-6.74552
716;Víkingur Reykjavík;Iceland;Reykjavík;https://img.uefa.com/imgml/TP/teams/logos/100x100/52697.png;64.116389;-21.855139
850;Vėtra Vilnius;Lithuania;Vilnius;https://img.uefa.com/imgml/TP/teams/logos/100x100/77486.png;54.668311;25.294444
573;WIT Georgia;Georgia;Tbilisi;https://img.uefa.com/imgml/TP/teams/logos/100x100/64330.png;41.847286;44.721492
71;Wacker Innsbruck;Austria;Innsbruck;https://img.uefa.com/imgml/TP/teams/logos/100x100/52762.png;47.2557167599974;11.4117130612108
1154;Waterford United;Republic of Ireland;Waterford;https://img.uefa.com/imgml/TP/teams/logos/100x100/54188.png;52.246185;-7.124692
186;Waterschei Thor;Belgium;Genk;https://img.uefa.com/imgml/TP/teams/logos/100x100/61582.png;51.0047569297555;5.53318279324859
431;Watford;England;Watford;https://img.uefa.com/imgml/TP/teams/logos/100x100/52744.png;51.649836;-0.401486
609;Werder Bremen;Germany;Bremen;https://img.uefa.com/imgml/TP/teams/logos/100x100/50040.png;53.066394;8.837628
617;West Berlin XI;Germany;Berlin;https://tmssl.akamaized.net/images/wappen/normquad/default.png?lm=1457423031;;
432;West Bromwich Albion;England;West Bromwich;https://static.flashscore.com/res/image/data/zDuImRwS-ImMEe0UF.png;52.509167;-1.963889
433;West Ham United;England;London;https://static.flashscore.com/res/image/data/Qo3RdMjl-ARW4wdCc.png;51.531944;0.039444
187;Westerlo;Belgium;Westerlo;https://img.uefa.com/imgml/TP/teams/logos/100x100/64124.png;51.094722;4.928889
1086;Widzew Łódź;Poland;Łódź;https://static.flashscore.com/res/image/data/h6MWp4FG-hKJCAwVP.png;51.7651372138068;19.5118337975547
95;Wiener Sport-Club;Austria;Wien;https://img.uefa.com/imgml/TP/teams/logos/100x100/50024.png;48.226033;16.310867
434;Wigan Athletic;England;Wigan;https://img.uefa.com/imgml/TP/teams/logos/100x100/89696.png;53.547778;-2.653889
971;Willem II;Netherlands;Tilburg;https://img.uefa.com/imgml/TP/teams/logos/100x100/52987.png;51.5428328487056;5.0668105276586
1087;Wisła Kraków;Poland;Kraków;https://static.flashscore.com/res/image/data/ddQ6Z8wS-vZ6gsKf8.png;50.063756554046;19.9119848680495
1088;Wisła Płock;Poland;Płock;https://static.flashscore.com/res/image/data/vZmkV2dM-Im0ZGDUi.png;52.5619697818169;19.6844230518198
96;Wolfsberger AC;Austria;Wolfsberg;https://img.uefa.com/imgml/TP/teams/logos/100x100/2603990.png;46.826236955876;14.8519114361679
435;Wolverhampton Wanderers;England;Wolverhampton;https://static.flashscore.com/res/image/data/Iwsrq5xS-CjV6Eptm.png;52.590278;-2.130278
436;Wrexham;England;Wrexham;https://static.flashscore.com/res/image/data/xh7dXaf5-OxoAKHbA.png;53.051887;-3.003705
618;Wuppertaler SV;Germany;Wuppertal;https://img.uefa.com/imgml/TP/teams/logos/100x100/65176.png;51.239167;7.105
112;Xəzri Buzovna;Azerbaijan;Baku;https://img.uefa.com/imgml/TP/teams/logos/100x100/60604.png;40.5237748740603;50.0968352814728
106;Xəzər Lənkəran;Azerbaijan;Lənkəran;https://img.uefa.com/imgml/TP/teams/logos/100x100/88567.png;38.7472;48.8571
1473;Yeni Malatyaspor;Turkey;Malatya;https://img.uefa.com/imgml/TP/teams/logos/100x100/78058.png;38.337222;38.445833
1418;Young Boys;Switzerland;Bern;https://img.uefa.com/imgml/TP/teams/logos/100x100/50031.png;46.963167;7.464833
265;Zagreb XI;Croatia;Zagreb;https://tmssl.akamaized.net/images/wappen/normquad/default.png?lm=1457423031;;
1090;Zagłębie Lubin;Poland;Lubin;https://static.flashscore.com/res/image/data/WCVQZ5Br-Ykwr8Dur.png;51.41402102637;16.1983725417105
1091;Zagłębie Sosnowiec;Poland;Sosnowiec;https://static.flashscore.com/res/image/data/CEiHf8Ea-Ykwr8Dur.png;50.2877814794875;19.1705609460267
1092;Zagłębie Wałbrzych;Poland;Wałbrzych;https://static.flashscore.com/res/image/data/jmkD3PYA-z7cwUZLH.png;50.818933428808;16.2715553081878
697;Zalaegerszegi TE;Hungary;Zalaegerszegi;https://img.uefa.com/imgml/TP/teams/logos/100x100/64182.png;46.848611;16.848611
919;Zaria Bălți;Moldova;Bălți;https://img.uefa.com/imgml/TP/teams/logos/100x100/64490.png;47.76921;27.9332
1093;Zawisza Bydgoszcz;Poland;Bydgoszcz;https://img.uefa.com/imgml/TP/teams/logos/100x100/2602720.png;53.1456371257683;18.0205627543664
292;Zbrojovka Brno;Czech Republic;Brno;https://img.uefa.com/imgml/TP/teams/logos/100x100/59041.png;49.227222;16.586389
1228;Zenit Sankt Petersburg;Russia;Sankt Petersburg;https://img.uefa.com/imgml/TP/teams/logos/100x100/52826.png;59.973;30.2205
567;Zestafoni;Georgia;Zestafoni;https://img.uefa.com/imgml/TP/teams/logos/100x100/88347.png;42.111213;43.02568
792;Zhenis Astana;Kazakhstan;Astana;https://img.uefa.com/imgml/TP/teams/logos/100x100/2600605.png;51.162739;71.413312
784;Zhetysu Taldykorgan;Kazakhstan;Taldykorgan;https://img.uefa.com/imgml/TP/teams/logos/100x100/82828.png;45.019716;78.365103
909;Zimbru Chișinău;Moldova;Chișinău;https://img.uefa.com/imgml/TP/teams/logos/100x100/59036.png;46.981281;28.867514
122;Zirə FK;Azerbaijan;Baku;https://img.uefa.com/imgml/TP/teams/logos/100x100/2607480.png;40.35892;50.29311
1503;Zorya Luhansk;Ukraine;Luhansk;https://img.uefa.com/imgml/TP/teams/logos/100x100/65130.png;48.559444;39.321111
201;Zrinjski Mostar;Bosnia and Herzegovina;Mostar;https://img.uefa.com/imgml/TP/teams/logos/100x100/73390.png;43.345556;17.795278
188;Zulte Waregem;Belgium;Waregem;https://static.flashscore.com/res/image/data/QNUmbEyS-fc7DY1B9.png;50.8829387364862;3.42916232617075
60;Zvartnots-AAL;Armenia;Yerevan;https://img.uefa.com/imgml/TP/teams/logos/100x100/71669.png;40.152778;44.536111
1392;Åtvidabergs FF;Sweden;Åtvidaberg;https://img.uefa.com/imgml/TP/teams/logos/100x100/64257.png;58.194583;15.995833
704;ÍA Akranes;Iceland;Akranes;https://img.uefa.com/imgml/TP/teams/logos/100x100/50135.png;64.317656;-22.059753
706;ÍBV;Iceland;Vestmannaeyjar;https://img.uefa.com/imgml/TP/teams/logos/100x100/52720.png;63.439414;-20.28795
463;ÍF Fuglafjørður;Faroe Islands;Fuglafjørður;https://img.uefa.com/imgml/TP/teams/logos/100x100/64153.png;62.245018;-6.814399
1410;Örebro SK;Sweden;Örebro;https://img.uefa.com/imgml/TP/teams/logos/100x100/53049.png;59.266111;15.223056
1411;Örgryte IS;Sweden;Göteborg;https://img.uefa.com/imgml/TP/teams/logos/100x100/52823.png;57.7058401962789;11.9796464709533
1412;Östers IF;Sweden;Växjö;https://img.uefa.com/imgml/TP/teams/logos/100x100/50153.png;56.879722;14.776389
1413;Östersunds FK;Sweden;Östersunds;https://img.uefa.com/imgml/TP/teams/logos/100x100/2602507.png;63.19458;14.65692
687;Újpest;Hungary;Budapest;https://img.uefa.com/imgml/TP/teams/logos/100x100/50132.png;47.575;19.084722
713;Þór Akureyri;Iceland;Akureyri;https://img.uefa.com/imgml/TP/teams/logos/100x100/79555.png;65.686083;-18.095222
926;Čelik Nikšić;Montenegro;Nikšić;https://img.uefa.com/imgml/TP/teams/logos/100x100/2602852.png;42.7849;18.9517
1275;Čukarički Stankom;Serbia;Beograd;https://img.uefa.com/imgml/TP/teams/logos/100x100/60570.png;44.772658;20.421639
885;Ħamrun Spartans;Malta;Ħamrun;https://img.uefa.com/imgml/TP/teams/logos/100x100/50060.png;35.887377;14.492565
1456;İstanbul Başakşehir;Turkey;İstanbul;https://img.uefa.com/imgml/TP/teams/logos/100x100/2600288.png;41.1228909199854;28.8087720289049
1458;İstanbulspor;Turkey;İstanbul;https://img.uefa.com/imgml/TP/teams/logos/100x100/61592.png;41.0234305523801;28.6977831913868
1070;ŁKS Łódź;Poland;Łódź;https://i.iplsc.com/-/000FFNA1X4RJGMUD-C304-F4.webp;51.7587808959672;19.4265569221308
1081;Śląsk Wrocław;Poland;Wrocław;https://img.uefa.com/imgml/TP/teams/logos/100x100/52655.png;51.1412316351593;16.943827170455
99;Şamaxı FK;Azerbaijan;Baku;https://img.uefa.com/imgml/TP/teams/logos/100x100/74072.png;40.6406;48.6355
114;Şüvəlan Baku;Azerbaijan;Baku;https://img.uefa.com/imgml/TP/teams/logos/100x100/89673.png;40.496944;50.196389
118;Şəfa Baku;Azerbaijan;Baku;https://img.uefa.com/imgml/TP/teams/logos/100x100/71671.png;40.411;49.8977
108;Şəmkir FK;Azerbaijan;Şəmkir;https://img.uefa.com/imgml/TP/teams/logos/100x100/64370.png;40.8545;46.0363
203;Široki Brijeg;Bosnia and Herzegovina;Široki Brijeg;https://img.uefa.com/imgml/TP/teams/logos/100x100/73387.png;43.378611;17.598056
898;Żurrieq;Malta;Żurrieq;https://img.uefa.com/imgml/TP/teams/logos/100x100/52642.png;35.829167;14.475833
852;Žalgiris Vilnius;Lithuania;Vilnius;https://img.uefa.com/imgml/TP/teams/logos/100x100/2602334.png;54.668611;25.294444
1287;Železnik Beograd;Serbia;Beograd;https://tmssl.akamaized.net//images/wappen/normquad/636.png?lm=1497990758;44.730769;20.388422
199;Željezničar Sarajevo;Bosnia and Herzegovina;Sarajevo;https://img.uefa.com/imgml/TP/teams/logos/100x100/64381.png;43.846667;18.387222
